{
"type": "FeatureCollection",
"name": "AL",
"crs": { "type": "name", "properties": { "name": "urn:ogc:def:crs:OGC:1.3:CRS84" } },
"features": [
{ "type": "Feature", "properties": { "NUTS_ID": "AL011", "name": "Dibër" }, "geometry": { "type": "Polygon", "coordinates": [ [ [ 20.22079597672229, 41.869371904270444 ], [ 20.562872105583946, 41.846136605954882 ], [ 20.573575608608255, 41.798247811763851 ], [ 20.526693225022747, 41.717829608624605 ], [ 20.557773818133761, 41.58187049560982 ], [ 20.459509571917998, 41.529465230692665 ], [ 20.560362917349984, 41.408458344608668 ], [ 20.501660206407621, 41.317153905766396 ], [ 20.421654046590987, 41.381859465792282 ], [ 20.236168747540709, 41.348487424791195 ], [ 19.908352639035193, 41.511928112632049 ], [ 19.832179009432707, 41.568234310159212 ], [ 19.830745920289186, 41.679876502710073 ], [ 20.075473341475085, 41.725319466488067 ], [ 20.22079597672229, 41.869371904270444 ] ] ] } },
{ "type": "Feature", "properties": { "NUTS_ID": "AL012", "name": "Durrës" }, "geometry": { "type": "Polygon", "coordinates": [ [ [ 19.557328146707029, 41.577673841309895 ], [ 19.832179009432707, 41.568234310159212 ], [ 19.908352639035193, 41.511928112632049 ], [ 19.836606129836209, 41.44602345680763 ], [ 19.644896347277417, 41.435115478380972 ], [ 19.621519381170465, 41.301109419107227 ], [ 19.51779734357654, 41.268655918144326 ], [ 19.424356117983852, 41.379730430150516 ], [ 19.557328146707029, 41.577673841309895 ] ] ] } },
{ "type": "Feature", "properties": { "NUTS_ID": "AL013", "name": "Kukës" }, "geometry": { "type": "Polygon", "coordinates": [ [ [ 20.594285897901997, 41.877327465695835 ], [ 20.562872105583946, 41.846136605954882 ], [ 20.22079597672229, 41.869371904270444 ], [ 20.212217590468853, 42.02492813087418 ], [ 20.17934950527459, 42.094476505465011 ], [ 20.24827118539206, 42.181230534351485 ], [ 20.21864988250428, 42.194668087821753 ], [ 19.855909990916121, 42.257275793274147 ], [ 19.830933205619505, 42.466384167651441 ], [ 20.076299916480593, 42.555823530729434 ], [ 20.256874571389851, 42.336456098925169 ], [ 20.364355086525624, 42.306595329418279 ], [ 20.480168292413854, 42.251328443930639 ], [ 20.543065801766684, 42.160664943500414 ], [ 20.57128214594702, 42.004578788390887 ], [ 20.594285897901997, 41.877327465695835 ] ] ] } },
{ "type": "Feature", "properties": { "NUTS_ID": "AL014", "name": "Lezhë" }, "geometry": { "type": "Polygon", "coordinates": [ [ [ 19.520067352642684, 41.840311538166183 ], [ 19.487255579828471, 41.904302573047183 ], [ 19.854186864596997, 41.955212841854816 ], [ 19.989803044083697, 41.882529310358926 ], [ 20.180433690943033, 42.004578788467569 ], [ 20.212217590468853, 42.02492813087418 ], [ 20.22079597672229, 41.869371904270444 ], [ 20.075473341475085, 41.725319466488067 ], [ 19.830745920289186, 41.679876502710073 ], [ 19.832179009432707, 41.568234310159212 ], [ 19.557328146707029, 41.577673841309895 ], [ 19.589966380262808, 41.774429680309595 ], [ 19.520067352642684, 41.840311538166183 ] ] ] } },
{ "type": "Feature", "properties": { "NUTS_ID": "AL015", "name": "Shkodër" }, "geometry": { "type": "Polygon", "coordinates": [ [ [ 19.372528224583132, 41.844148059695875 ], [ 19.38072485929013, 42.004578788270443 ], [ 19.384526453024719, 42.078986476490158 ], [ 19.302652747730132, 42.187870304175398 ], [ 19.420086848735725, 42.329745320133071 ], [ 19.704852446617867, 42.639058624018745 ], [ 19.830933205619505, 42.466384167651441 ], [ 19.855909990916121, 42.257275793274147 ], [ 20.21864988250428, 42.194668087821753 ], [ 20.24827118539206, 42.181230534351485 ], [ 20.17934950527459, 42.094476505465011 ], [ 20.212217590468853, 42.02492813087418 ], [ 20.180433690943033, 42.004578788467569 ], [ 19.989803044083697, 41.882529310358926 ], [ 19.854186864596997, 41.955212841854816 ], [ 19.487255579828471, 41.904302573047183 ], [ 19.520067352642684, 41.840311538166183 ], [ 19.372528224583132, 41.844148059695875 ] ] ] } },
{ "type": "Feature", "properties": { "NUTS_ID": "AL021", "name": "Elbasan" }, "geometry": { "type": "Polygon", "coordinates": [ [ [ 20.236168747540709, 41.348487424791195 ], [ 20.421654046590987, 41.381859465792282 ], [ 20.501660206407621, 41.317153905766396 ], [ 20.516781861014238, 41.238291997426821 ], [ 20.51651156211091, 41.237873666783265 ], [ 20.597745022582746, 41.092033495586875 ], [ 20.405738937290664, 40.957213632677082 ], [ 20.428126701802015, 40.759952965890747 ], [ 20.296537092404005, 40.726844829072995 ], [ 19.987607499139465, 40.860411028614536 ], [ 19.85975810043459, 40.851168839356397 ], [ 19.792447295820047, 40.991278628771283 ], [ 19.677387737148859, 41.054993788265627 ], [ 20.236168747540709, 41.348487424791195 ] ] ] } },
{ "type": "Feature", "properties": { "NUTS_ID": "AL022", "name": "Tiranë" }, "geometry": { "type": "Polygon", "coordinates": [ [ [ 19.51779734357654, 41.268655918144326 ], [ 19.621519381170465, 41.301109419107227 ], [ 19.644896347277417, 41.435115478380972 ], [ 19.836606129836209, 41.44602345680763 ], [ 19.908352639035193, 41.511928112632049 ], [ 20.236168747540709, 41.348487424791195 ], [ 19.677387737148859, 41.054993788265627 ], [ 19.442483396144695, 41.000525553447645 ], [ 19.51779734357654, 41.268655918144326 ] ] ] } },
{ "type": "Feature", "properties": { "NUTS_ID": "AL031", "name": "Berat" }, "geometry": { "type": "Polygon", "coordinates": [ [ [ 19.85975810043459, 40.851168839356397 ], [ 19.987607499139465, 40.860411028614536 ], [ 20.296537092404005, 40.726844829072995 ], [ 20.428444337228697, 40.563901378777636 ], [ 20.43889355028821, 40.436826141622156 ], [ 20.270785622754349, 40.37748526006532 ], [ 20.13413610863714, 40.476095889111626 ], [ 19.913563798494138, 40.522422022856063 ], [ 19.759976441569606, 40.759961006317582 ], [ 19.776029065026211, 40.82951537653868 ], [ 19.85975810043459, 40.851168839356397 ] ] ] } },
{ "type": "Feature", "properties": { "NUTS_ID": "AL032", "name": "Fier" }, "geometry": { "type": "Polygon", "coordinates": [ [ [ 19.442483396144695, 41.000525553447645 ], [ 19.677387737148859, 41.054993788265627 ], [ 19.792447295820047, 40.991278628771283 ], [ 19.85975810043459, 40.851168839356397 ], [ 19.776029065026211, 40.82951537653868 ], [ 19.759976441569606, 40.759961006317582 ], [ 19.913563798494138, 40.522422022856063 ], [ 19.781657130546407, 40.421253638476642 ], [ 19.684806674241816, 40.538858367529464 ], [ 19.318751995477239, 40.644980920623901 ], [ 19.442483396144695, 41.000525553447645 ] ] ] } },
{ "type": "Feature", "properties": { "NUTS_ID": "AL033", "name": "Gjirokastër" }, "geometry": { "type": "Polygon", "coordinates": [ [ [ 19.913563798494138, 40.522422022856063 ], [ 20.13413610863714, 40.476095889111626 ], [ 20.270785622754349, 40.37748526006532 ], [ 20.43889355028821, 40.436826141622156 ], [ 20.449272418352926, 40.439899081328463 ], [ 20.496711864397675, 40.200862932605375 ], [ 20.612876563311108, 40.079653468487081 ], [ 20.40190651363606, 40.019683419476941 ], [ 20.342241742736302, 39.949809382223457 ], [ 20.39130787986635, 39.78848353741315 ], [ 20.302345082595789, 39.812743109891152 ], [ 20.095403544192472, 40.019683418848118 ], [ 19.927169249953554, 40.099686843237841 ], [ 19.771268981492074, 40.336567870653184 ], [ 19.781657130546407, 40.421253638476642 ], [ 19.913563798494138, 40.522422022856063 ] ] ] } },
{ "type": "Feature", "properties": { "NUTS_ID": "AL034", "name": "Korcë" }, "geometry": { "type": "Polygon", "coordinates": [ [ [ 20.632866160866278, 41.086512899393824 ], [ 20.732362154110742, 40.911645677600248 ], [ 20.837822960861462, 40.927682925489805 ], [ 20.97766373757997, 40.889660836816972 ], [ 20.980204391010304, 40.855665050155736 ], [ 21.05606836890853, 40.616695330727453 ], [ 20.946587173490133, 40.484594681993336 ], [ 20.795661213294476, 40.43378955641505 ], [ 20.778451799528874, 40.348730593551068 ], [ 20.612876563311108, 40.079653468487081 ], [ 20.496711864397675, 40.200862932605375 ], [ 20.449272418352926, 40.439899081328463 ], [ 20.43889355028821, 40.436826141622156 ], [ 20.428444337228697, 40.563901378777636 ], [ 20.296537092404005, 40.726844829072995 ], [ 20.428126701802015, 40.759952965890747 ], [ 20.405738937290664, 40.957213632677082 ], [ 20.597745022582746, 41.092033495586875 ], [ 20.632866160866278, 41.086512899393824 ] ] ] } },
{ "type": "Feature", "properties": { "NUTS_ID": "AL035", "name": "Vlorë" }, "geometry": { "type": "Polygon", "coordinates": [ [ [ 19.318751995477239, 40.644980920623901 ], [ 19.684806674241816, 40.538858367529464 ], [ 19.781657130546407, 40.421253638476642 ], [ 19.771268981492074, 40.336567870653184 ], [ 19.927169249953554, 40.099686843237841 ], [ 20.095403544192472, 40.019683418848118 ], [ 20.302345082595789, 39.812743109891152 ], [ 20.304106967711473, 39.72345879212255 ], [ 20.269277761274594, 39.68793440152664 ], [ 20.211144650256571, 39.65438163738731 ], [ 20.133379684260852, 39.659131451736087 ], [ 20.045223645890072, 39.689458555020799 ], [ 20.008812646770885, 39.691292235121281 ], [ 19.986508740368215, 39.855516090134493 ], [ 19.877538506517791, 40.010288358344091 ], [ 19.401455509523814, 40.297415571162169 ], [ 19.466980376967555, 40.432882238262557 ], [ 19.318751995477239, 40.644980920623901 ] ] ] } }
]
}
