{
"type": "FeatureCollection",
"name": "AT",
"crs": { "type": "name", "properties": { "name": "urn:ogc:def:crs:OGC:1.3:CRS84" } },
"features": [
{ "type": "Feature", "properties": { "NUTS_ID": "AT111", "name": "Mittelburgenland" }, "geometry": { "type": "Polygon", "coordinates": [ [ [ 16.372564075813127, 47.642187593682628 ], [ 16.421542384692948, 47.66529808788647 ], [ 16.539576423400167, 47.636691180811596 ], [ 16.687789202225311, 47.570231612343711 ], [ 16.646220083977436, 47.446596932575964 ], [ 16.539576422572694, 47.409531000368204 ], [ 16.433761690702887, 47.352918665367746 ], [ 16.279839694305476, 47.454831889423474 ], [ 16.372564075813127, 47.642187593682628 ] ] ] } },
{ "type": "Feature", "properties": { "NUTS_ID": "AT112", "name": "Nordburgenland" }, "geometry": { "type": "Polygon", "coordinates": [ [ [ 16.391213575708836, 47.882100663624641 ], [ 16.539576423136889, 47.920964784549128 ], [ 16.847674937689995, 48.053318311997231 ], [ 16.985688512733333, 48.043955610092972 ], [ 17.066740796888016, 48.118681623342638 ], [ 17.160797384405882, 48.00665656242419 ], [ 17.030464278363077, 47.713092678995864 ], [ 16.567155430437559, 47.73015455769378 ], [ 16.421542384692948, 47.66529808788647 ], [ 16.372564075813127, 47.642187593682628 ], [ 16.306963592462665, 47.751315544982418 ], [ 16.391213575708836, 47.882100663624641 ] ] ] } },
{ "type": "Feature", "properties": { "NUTS_ID": "AT113", "name": "Südburgenland" }, "geometry": { "type": "Polygon", "coordinates": [ [ [ 16.279839694305476, 47.454831889423474 ], [ 16.433761690702887, 47.352918665367746 ], [ 16.456144163039866, 47.025006569137382 ], [ 16.113849224648447, 46.869068117143819 ], [ 16.05839037847813, 46.838670009858312 ], [ 15.996236035495743, 46.835398663563559 ], [ 16.113971098772275, 47.003168366699875 ], [ 16.039038330845074, 47.365990275294088 ], [ 16.171081082534602, 47.421337566169491 ], [ 16.279839694305476, 47.454831889423474 ] ] ] } },
{ "type": "Feature", "properties": { "NUTS_ID": "AT121", "name": "Mostviertel-Eisenwurzen" }, "geometry": { "type": "Polygon", "coordinates": [ [ [ 14.738545057312924, 47.747426336908809 ], [ 14.74303671187949, 47.905755918486733 ], [ 14.50260170963015, 48.003083628123669 ], [ 14.481950130121136, 48.105511296141259 ], [ 14.520807581314321, 48.237351594060634 ], [ 14.685218394595452, 48.168572329505558 ], [ 14.798404857315186, 48.184621029622505 ], [ 14.967454859429754, 48.247410863071757 ], [ 14.960269565791371, 48.376482558712908 ], [ 15.251621485502318, 48.345481202384477 ], [ 15.331103203682034, 48.277172001801127 ], [ 15.509762237065207, 48.320038438429016 ], [ 15.448118373281329, 48.103512505406457 ], [ 15.28896832512925, 47.990293928492676 ], [ 15.338867263491489, 47.889881055058787 ], [ 15.218268318254403, 47.84981508585178 ], [ 15.21802968886937, 47.794099994267775 ], [ 15.088096308395347, 47.740817916156765 ], [ 14.738545057312924, 47.747426336908809 ] ] ] } },
{ "type": "Feature", "properties": { "NUTS_ID": "AT122", "name": "Niederösterreich-Süd" }, "geometry": { "type": "Polygon", "coordinates": [ [ [ 15.21802968886937, 47.794099994267775 ], [ 15.218268318254403, 47.84981508585178 ], [ 15.338867263491489, 47.889881055058787 ], [ 15.568783179407879, 48.06096366504682 ], [ 15.916633847323061, 48.08691249915465 ], [ 16.193551024472772, 47.926983880346569 ], [ 16.391213575708836, 47.882100663624641 ], [ 16.306963592462665, 47.751315544982418 ], [ 16.372564075813127, 47.642187593682628 ], [ 16.279839694305476, 47.454831889423474 ], [ 16.171081082534602, 47.421337566169491 ], [ 16.100160063311098, 47.496337617276936 ], [ 15.847909267648292, 47.568468540480659 ], [ 15.628599746159329, 47.738438349965747 ], [ 15.348966078840455, 47.812861370891902 ], [ 15.21802968886937, 47.794099994267775 ] ] ] } },
{ "type": "Feature", "properties": { "NUTS_ID": "AT123", "name": "Sankt Pölten" }, "geometry": { "type": "Polygon", "coordinates": [ [ [ 15.509762237065207, 48.320038438429016 ], [ 15.731766932503696, 48.383670959756358 ], [ 15.992914758034122, 48.146061544656185 ], [ 15.916633847323061, 48.08691249915465 ], [ 15.568783179407879, 48.06096366504682 ], [ 15.338867263491489, 47.889881055058787 ], [ 15.28896832512925, 47.990293928492676 ], [ 15.448118373281329, 48.103512505406457 ], [ 15.509762237065207, 48.320038438429016 ] ] ] } },
{ "type": "Feature", "properties": { "NUTS_ID": "AT124", "name": "Waldviertel" }, "geometry": { "type": "Polygon", "coordinates": [ [ [ 14.960269565791371, 48.376482558712908 ], [ 14.862516030437549, 48.509970579885149 ], [ 14.691013826373037, 48.584301926872868 ], [ 14.818403696652886, 48.761041010820755 ], [ 14.952016051346385, 48.798113119415589 ], [ 15.015611872761564, 48.999242837480196 ], [ 15.542449603460929, 48.907696908661677 ], [ 15.753633425545445, 48.852178442582527 ], [ 15.902628406540046, 48.643318854133206 ], [ 15.765455725723113, 48.567771219370869 ], [ 15.783352119389965, 48.485303043758194 ], [ 15.731766932503696, 48.383670959756358 ], [ 15.509762237065207, 48.320038438429016 ], [ 15.331103203682034, 48.277172001801127 ], [ 15.251621485502318, 48.345481202384477 ], [ 14.960269565791371, 48.376482558712908 ] ] ] } },
{ "type": "Feature", "properties": { "NUTS_ID": "AT125", "name": "Weinviertel" }, "geometry": { "type": "Polygon", "coordinates": [ [ [ 15.753633425545445, 48.852178442582527 ], [ 16.292756518093618, 48.733851929593591 ], [ 16.550801152717774, 48.807222848806624 ], [ 16.885865169861635, 48.708720423382374 ], [ 16.940278025624135, 48.617245444121018 ], [ 16.949777879653578, 48.535791855859486 ], [ 16.851042834021701, 48.438639879336186 ], [ 16.52637411504152, 48.482237922072898 ], [ 16.31845679937117, 48.574529213075358 ], [ 16.142518555275412, 48.482276027776663 ], [ 15.783352119389965, 48.485303043758194 ], [ 15.765455725723113, 48.567771219370869 ], [ 15.902628406540046, 48.643318854133206 ], [ 15.753633425545445, 48.852178442582527 ] ] ] } },
{ "type": "Feature", "properties": { "NUTS_ID": "AT126", "name": "Wiener Umland/Nordteil" }, "geometry": { "type": "Polygon", "coordinates": [ [ [ 15.783352119389965, 48.485303043758194 ], [ 16.142518555275412, 48.482276027776663 ], [ 16.31845679937117, 48.574529213075358 ], [ 16.52637411504152, 48.482237922072898 ], [ 16.851042834021701, 48.438639879336186 ], [ 16.835549269686229, 48.380144093457247 ], [ 16.976202765622823, 48.172244470494327 ], [ 16.765867497486457, 48.118060380915686 ], [ 16.578035998416549, 48.143311878524607 ], [ 16.521860154595537, 48.256174296108355 ], [ 16.404855355970977, 48.292218007096892 ], [ 16.247715382804422, 48.250156456100292 ], [ 16.184401654407647, 48.171587978768208 ], [ 15.992914758034122, 48.146061544656185 ], [ 15.731766932503696, 48.383670959756358 ], [ 15.783352119389965, 48.485303043758194 ] ] ] } },
{ "type": "Feature", "properties": { "NUTS_ID": "AT127", "name": "Wiener Umland/Südteil" }, "geometry": { "type": "Polygon", "coordinates": [ [ [ 15.916633847323061, 48.08691249915465 ], [ 15.992914758034122, 48.146061544656185 ], [ 16.184401654407647, 48.171587978768208 ], [ 16.252982688325226, 48.132195459347187 ], [ 16.539576422762561, 48.146056033701178 ], [ 16.578035998416549, 48.143311878524607 ], [ 16.765867497486457, 48.118060380915686 ], [ 16.976202765622823, 48.172244470494327 ], [ 17.066740796888016, 48.118681623342638 ], [ 16.985688512733333, 48.043955610092972 ], [ 16.847674937689995, 48.053318311997231 ], [ 16.539576423136889, 47.920964784549128 ], [ 16.391213575708836, 47.882100663624641 ], [ 16.193551024472772, 47.926983880346569 ], [ 15.916633847323061, 48.08691249915465 ] ] ] } },
{ "type": "Feature", "properties": { "NUTS_ID": "AT130", "name": "Wien" }, "geometry": { "type": "Polygon", "coordinates": [ [ [ 16.184401654407647, 48.171587978768208 ], [ 16.247715382804422, 48.250156456100292 ], [ 16.404855355970977, 48.292218007096892 ], [ 16.521860154595537, 48.256174296108355 ], [ 16.578035998416549, 48.143311878524607 ], [ 16.539576422762561, 48.146056033701178 ], [ 16.252982688325226, 48.132195459347187 ], [ 16.184401654407647, 48.171587978768208 ] ] ] } },
{ "type": "Feature", "properties": { "NUTS_ID": "AT211", "name": "Klagenfurt-Villach" }, "geometry": { "type": "Polygon", "coordinates": [ [ [ 13.504249359530172, 46.56630384612243 ], [ 13.542735579840443, 46.623750176633088 ], [ 13.433395369772223, 46.693330230993801 ], [ 13.475633390478659, 46.758706460985849 ], [ 13.826269306388324, 46.781576605696543 ], [ 13.921122556140505, 46.750123233044988 ], [ 13.967617422787415, 46.658269201342911 ], [ 14.234173817462359, 46.700437475334752 ], [ 14.418358708425085, 46.721030970003085 ], [ 14.511794423599031, 46.667770145895588 ], [ 14.434500307154595, 46.442943627270715 ], [ 14.237185443423289, 46.432235987847385 ], [ 14.153396347344694, 46.436779160751534 ], [ 14.09979752848003, 46.479318094489834 ], [ 14.006514959554574, 46.48135987206534 ], [ 13.714185081104839, 46.522703436818034 ], [ 13.504249359530172, 46.56630384612243 ] ] ] } },
{ "type": "Feature", "properties": { "NUTS_ID": "AT212", "name": "Oberkärnten" }, "geometry": { "type": "Polygon", "coordinates": [ [ [ 12.731393018169976, 46.634288097736928 ], [ 12.69063519592004, 46.656972038128821 ], [ 12.736234079242971, 46.731976858791143 ], [ 12.937536378467962, 46.802428906901454 ], [ 12.656082919218274, 47.099700971885987 ], [ 13.078576209450548, 47.0308321344137 ], [ 13.354584093682538, 47.097303370396034 ], [ 13.666791970365615, 47.039356917110197 ], [ 13.785132567636422, 46.944047882623892 ], [ 13.94662607898624, 46.941619410740188 ], [ 14.234173817462359, 46.700437475334752 ], [ 13.967617422787415, 46.658269201342911 ], [ 13.921122556140505, 46.750123233044988 ], [ 13.826269306388324, 46.781576605696543 ], [ 13.475633390478659, 46.758706460985849 ], [ 13.433395369772223, 46.693330230993801 ], [ 13.542735579840443, 46.623750176633088 ], [ 13.504249359530172, 46.56630384612243 ], [ 12.731393018169976, 46.634288097736928 ] ] ] } },
{ "type": "Feature", "properties": { "NUTS_ID": "AT213", "name": "Unterkärnten" }, "geometry": { "type": "Polygon", "coordinates": [ [ [ 13.94662607898624, 46.941619410740188 ], [ 14.176016050499049, 47.061353305105882 ], [ 14.420215716048636, 46.99189671004266 ], [ 14.842056550536427, 47.048613330394204 ], [ 15.003915600319051, 46.927619174605383 ], [ 14.993601711501137, 46.796630265279397 ], [ 15.065120556616975, 46.652112654514568 ], [ 14.922071375390194, 46.607933454042978 ], [ 14.884301204818568, 46.611744573765108 ], [ 14.827682159730434, 46.547832067805487 ], [ 14.823507872517533, 46.544437656221014 ], [ 14.829332755574296, 46.539365944906358 ], [ 14.822750186421244, 46.534542552909969 ], [ 14.824444330588813, 46.529287225791514 ], [ 14.818562798274105, 46.521636280823117 ], [ 14.818605832413349, 46.509383022604496 ], [ 14.674706775115691, 46.45066036099972 ], [ 14.565175356464151, 46.372453487596673 ], [ 14.522309898318904, 46.415277633365022 ], [ 14.441961445736901, 46.423780939874014 ], [ 14.434500307154595, 46.442943627270715 ], [ 14.511794423599031, 46.667770145895588 ], [ 14.418358708425085, 46.721030970003085 ], [ 14.234173817462359, 46.700437475334752 ], [ 13.94662607898624, 46.941619410740188 ] ] ] } },
{ "type": "Feature", "properties": { "NUTS_ID": "AT221", "name": "Graz" }, "geometry": { "type": "Polygon", "coordinates": [ [ [ 15.048162562549956, 47.226933484955701 ], [ 15.234482735680865, 47.330894276073167 ], [ 15.396246955779114, 47.311837493464509 ], [ 15.47104336142484, 47.210332586809038 ], [ 15.631663210765241, 47.142750157991401 ], [ 15.690576886485726, 47.006064931797013 ], [ 15.616179473257223, 47.002716076834901 ], [ 15.400646172687637, 46.899017165814982 ], [ 15.148692807209832, 47.190225885374367 ], [ 15.05280835634041, 47.211955403914921 ], [ 15.048162562549956, 47.226933484955701 ] ] ] } },
{ "type": "Feature", "properties": { "NUTS_ID": "AT222", "name": "Liezen" }, "geometry": { "type": "Polygon", "coordinates": [ [ [ 13.585584706232977, 47.473992939002535 ], [ 13.734009268826091, 47.490051959445644 ], [ 13.703201158475215, 47.617766947608395 ], [ 13.767160087343743, 47.703891636419684 ], [ 14.010662811675976, 47.700511131403559 ], [ 14.077030026777974, 47.631046113421007 ], [ 14.322983947398077, 47.618727522526058 ], [ 14.738545057312924, 47.747426336908809 ], [ 15.088096308395347, 47.740817916156765 ], [ 15.034971951589474, 47.613556048432677 ], [ 14.733097225202679, 47.557343407836889 ], [ 14.604292516495651, 47.427069428138054 ], [ 14.445473413322322, 47.452317649484669 ], [ 14.112930271311162, 47.273786570356165 ], [ 13.864372262394097, 47.251693411293402 ], [ 13.606840383999812, 47.283295603807979 ], [ 13.585584706232977, 47.473992939002535 ] ] ] } },
{ "type": "Feature", "properties": { "NUTS_ID": "AT223", "name": "Östliche Obersteiermark" }, "geometry": { "type": "Polygon", "coordinates": [ [ [ 14.604292516495651, 47.427069428138054 ], [ 14.733097225202679, 47.557343407836889 ], [ 15.034971951589474, 47.613556048432677 ], [ 15.088096308395347, 47.740817916156765 ], [ 15.21802968886937, 47.794099994267775 ], [ 15.348966078840455, 47.812861370891902 ], [ 15.628599746159329, 47.738438349965747 ], [ 15.847909267648292, 47.568468540480659 ], [ 15.640543121535371, 47.49345223371396 ], [ 15.396246955779114, 47.311837493464509 ], [ 15.234482735680865, 47.330894276073167 ], [ 15.048162562549956, 47.226933484955701 ], [ 14.604292516495651, 47.427069428138054 ] ] ] } },
{ "type": "Feature", "properties": { "NUTS_ID": "AT224", "name": "Oststeiermark" }, "geometry": { "type": "Polygon", "coordinates": [ [ [ 15.847909267648292, 47.568468540480659 ], [ 16.100160063311098, 47.496337617276936 ], [ 16.171081082534602, 47.421337566169491 ], [ 16.039038330845074, 47.365990275294088 ], [ 16.113971098772275, 47.003168366699875 ], [ 15.996236035495743, 46.835398663563559 ], [ 15.989034107335458, 46.774937062718934 ], [ 16.039503544433131, 46.690901832597277 ], [ 16.038086132591214, 46.656145545076271 ], [ 16.033452325428517, 46.65789415693979 ], [ 15.960003641783022, 46.687005839336841 ], [ 15.865511136100167, 46.719629989560119 ], [ 15.786422177476911, 46.707469347356842 ], [ 15.752443758843631, 46.697968857973805 ], [ 15.60320899571782, 46.932693328647069 ], [ 15.616179473257223, 47.002716076834901 ], [ 15.690576886485726, 47.006064931797013 ], [ 15.631663210765241, 47.142750157991401 ], [ 15.47104336142484, 47.210332586809038 ], [ 15.396246955779114, 47.311837493464509 ], [ 15.640543121535371, 47.49345223371396 ], [ 15.847909267648292, 47.568468540480659 ] ] ] } },
{ "type": "Feature", "properties": { "NUTS_ID": "AT225", "name": "West- und Südsteiermark" }, "geometry": { "type": "Polygon", "coordinates": [ [ [ 15.05280835634041, 47.211955403914921 ], [ 15.148692807209832, 47.190225885374367 ], [ 15.400646172687637, 46.899017165814982 ], [ 15.616179473257223, 47.002716076834901 ], [ 15.60320899571782, 46.932693328647069 ], [ 15.752443758843631, 46.697968857973805 ], [ 15.622963369633379, 46.679567654870944 ], [ 15.564412249582857, 46.67435823530414 ], [ 15.542442112084439, 46.629951080229034 ], [ 15.520070185457028, 46.621535327881389 ], [ 15.401979531977201, 46.653548404314343 ], [ 15.335605918967172, 46.653201983632094 ], [ 15.160204494336163, 46.657113612713125 ], [ 15.082399691981678, 46.64514489320171 ], [ 15.065120556616975, 46.652112654514568 ], [ 14.993601711501137, 46.796630265279397 ], [ 15.003915600319051, 46.927619174605383 ], [ 14.842056550536427, 47.048613330394204 ], [ 15.05280835634041, 47.211955403914921 ] ] ] } },
{ "type": "Feature", "properties": { "NUTS_ID": "AT226", "name": "Westliche Obersteiermark" }, "geometry": { "type": "Polygon", "coordinates": [ [ [ 13.785132567636422, 46.944047882623892 ], [ 13.918949936581404, 47.150802961370481 ], [ 13.864372262394097, 47.251693411293402 ], [ 14.112930271311162, 47.273786570356165 ], [ 14.445473413322322, 47.452317649484669 ], [ 14.604292516495651, 47.427069428138054 ], [ 15.048162562549956, 47.226933484955701 ], [ 15.05280835634041, 47.211955403914921 ], [ 14.842056550536427, 47.048613330394204 ], [ 14.420215716048636, 46.99189671004266 ], [ 14.176016050499049, 47.061353305105882 ], [ 13.94662607898624, 46.941619410740188 ], [ 13.785132567636422, 46.944047882623892 ] ] ] } },
{ "type": "Feature", "properties": { "NUTS_ID": "AT311", "name": "Innviertel" }, "geometry": { "type": "Polygon", "coordinates": [ [ [ 12.751554921482263, 48.112810406515301 ], [ 12.944684477400697, 48.206692340995211 ], [ 13.177043068203576, 48.294389928635397 ], [ 13.41432521855066, 48.380144093835455 ], [ 13.438430624971964, 48.548895022876657 ], [ 13.513497246600243, 48.590961787287227 ], [ 13.727090617669711, 48.513019653647959 ], [ 13.868348307002277, 48.426309438560779 ], [ 13.909535749675582, 48.380144093252369 ], [ 13.917406976134192, 48.225255760447027 ], [ 13.754016939886519, 48.118063123021145 ], [ 13.493427406478649, 48.111284267339535 ], [ 13.303820985092614, 48.007824394941565 ], [ 12.982621480639605, 48.036746790575108 ], [ 12.860181681183802, 47.996639848329238 ], [ 12.751554921482263, 48.112810406515301 ] ] ] } },
{ "type": "Feature", "properties": { "NUTS_ID": "AT312", "name": "Linz-Wels" }, "geometry": { "type": "Polygon", "coordinates": [ [ [ 13.754016939886519, 48.118063123021145 ], [ 13.917406976134192, 48.225255760447027 ], [ 13.909535749675582, 48.380144093252369 ], [ 13.868348307002277, 48.426309438560779 ], [ 14.026076915534651, 48.394803932809253 ], [ 14.30568177671217, 48.453731726822525 ], [ 14.429316474307511, 48.391837790035886 ], [ 14.438429939460853, 48.274444857323054 ], [ 14.520807581314321, 48.237351594060634 ], [ 14.481950130121136, 48.105511296141259 ], [ 14.116342782364807, 48.077993297225397 ], [ 13.985607391673847, 48.002690076974645 ], [ 13.754016939886519, 48.118063123021145 ] ] ] } },
{ "type": "Feature", "properties": { "NUTS_ID": "AT313", "name": "Mühlviertel" }, "geometry": { "type": "Polygon", "coordinates": [ [ [ 13.727090617669711, 48.513019653647959 ], [ 13.809691038799562, 48.614913459928964 ], [ 13.796106768557138, 48.713600490987574 ], [ 13.839507129477148, 48.771605025728434 ], [ 14.114430933765902, 48.593379204386764 ], [ 14.345616987044242, 48.563311637832385 ], [ 14.489529155694907, 48.630204968940376 ], [ 14.691013826373037, 48.584301926872868 ], [ 14.862516030437549, 48.509970579885149 ], [ 14.960269565791371, 48.376482558712908 ], [ 14.967454859429754, 48.247410863071757 ], [ 14.798404857315186, 48.184621029622505 ], [ 14.685218394595452, 48.168572329505558 ], [ 14.520807581314321, 48.237351594060634 ], [ 14.438429939460853, 48.274444857323054 ], [ 14.429316474307511, 48.391837790035886 ], [ 14.30568177671217, 48.453731726822525 ], [ 14.026076915534651, 48.394803932809253 ], [ 13.868348307002277, 48.426309438560779 ], [ 13.727090617669711, 48.513019653647959 ] ] ] } },
{ "type": "Feature", "properties": { "NUTS_ID": "AT314", "name": "Steyr-Kirchdorf" }, "geometry": { "type": "Polygon", "coordinates": [ [ [ 13.985607391673847, 48.002690076974645 ], [ 14.116342782364807, 48.077993297225397 ], [ 14.481950130121136, 48.105511296141259 ], [ 14.50260170963015, 48.003083628123669 ], [ 14.74303671187949, 47.905755918486733 ], [ 14.738545057312924, 47.747426336908809 ], [ 14.322983947398077, 47.618727522526058 ], [ 14.077030026777974, 47.631046113421007 ], [ 14.010662811675976, 47.700511131403559 ], [ 14.072086462473875, 47.843094761271985 ], [ 14.000080096535081, 47.896002153187013 ], [ 13.985607391673847, 48.002690076974645 ] ] ] } },
{ "type": "Feature", "properties": { "NUTS_ID": "AT315", "name": "Traunviertel" }, "geometry": { "type": "Polygon", "coordinates": [ [ [ 13.516361785692553, 47.4967759350276 ], [ 13.526003298794631, 47.708872416836456 ], [ 13.29982329037859, 47.841318651627752 ], [ 13.303820985092614, 48.007824394941565 ], [ 13.493427406478649, 48.111284267339535 ], [ 13.754016939886519, 48.118063123021145 ], [ 13.985607391673847, 48.002690076974645 ], [ 14.000080096535081, 47.896002153187013 ], [ 14.072086462473875, 47.843094761271985 ], [ 14.010662811675976, 47.700511131403559 ], [ 13.767160087343743, 47.703891636419684 ], [ 13.703201158475215, 47.617766947608395 ], [ 13.734009268826091, 47.490051959445644 ], [ 13.585584706232977, 47.473992939002535 ], [ 13.516361785692553, 47.4967759350276 ] ] ] } },
{ "type": "Feature", "properties": { "NUTS_ID": "AT321", "name": "Lungau" }, "geometry": { "type": "Polygon", "coordinates": [ [ [ 13.354584093682538, 47.097303370396034 ], [ 13.361304935789169, 47.183243091251093 ], [ 13.606840383999812, 47.283295603807979 ], [ 13.864372262394097, 47.251693411293402 ], [ 13.918949936581404, 47.150802961370481 ], [ 13.785132567636422, 46.944047882623892 ], [ 13.666791970365615, 47.039356917110197 ], [ 13.354584093682538, 47.097303370396034 ] ] ] } },
{ "type": "Feature", "properties": { "NUTS_ID": "AT322", "name": "Pinzgau-Pongau" }, "geometry": { "type": "Polygon", "coordinates": [ [ [ 12.656082919218274, 47.099700971885987 ], [ 12.46282113250536, 47.151699518976606 ], [ 12.240745396712335, 47.069168359391313 ], [ 12.136013771373326, 47.080667456045099 ], [ 12.1022472554481, 47.267539419277512 ], [ 12.439864042852632, 47.324227594509701 ], [ 12.670811806641842, 47.463715947384422 ], [ 12.575026261662464, 47.632315977224771 ], [ 12.695795412403363, 47.682222992361773 ], [ 12.912872511403542, 47.498651456184227 ], [ 13.046055369487892, 47.520502563899342 ], [ 13.516361785692553, 47.4967759350276 ], [ 13.585584706232977, 47.473992939002535 ], [ 13.606840383999812, 47.283295603807979 ], [ 13.361304935789169, 47.183243091251093 ], [ 13.354584093682538, 47.097303370396034 ], [ 13.078576209450548, 47.0308321344137 ], [ 12.656082919218274, 47.099700971885987 ] ] ] } },
{ "type": "Feature", "properties": { "NUTS_ID": "AT323", "name": "Salzburg und Umgebung" }, "geometry": { "type": "Polygon", "coordinates": [ [ [ 13.046055369487892, 47.520502563899342 ], [ 13.079003517821493, 47.667162955087406 ], [ 12.928674957370932, 47.735691481473445 ], [ 12.984537638530616, 47.856745406592104 ], [ 12.875785693534926, 47.962609137997497 ], [ 12.860181681183802, 47.996639848329238 ], [ 12.982621480639605, 48.036746790575108 ], [ 13.303820985092614, 48.007824394941565 ], [ 13.29982329037859, 47.841318651627752 ], [ 13.526003298794631, 47.708872416836456 ], [ 13.516361785692553, 47.4967759350276 ], [ 13.046055369487892, 47.520502563899342 ] ] ] } },
{ "type": "Feature", "properties": { "NUTS_ID": "AT331", "name": "Außerfern" }, "geometry": { "type": "Polygon", "coordinates": [ [ [ 10.212787175314547, 47.157280999416223 ], [ 10.178352766884297, 47.270114021788423 ], [ 10.429380962792148, 47.392417193776744 ], [ 10.454438851635778, 47.555797021089816 ], [ 10.810076884977668, 47.52045065207458 ], [ 10.88614682644841, 47.536782343487353 ], [ 10.991202287432479, 47.396130988429491 ], [ 10.883353648525635, 47.352468599381154 ], [ 10.810076885226104, 47.384946106779665 ], [ 10.398159268427829, 47.182070784756782 ], [ 10.212787175314547, 47.157280999416223 ] ] ] } },
{ "type": "Feature", "properties": { "NUTS_ID": "AT332", "name": "Innsbruck" }, "geometry": { "type": "Polygon", "coordinates": [ [ [ 11.16428131536764, 46.965722619327387 ], [ 11.108507336739038, 46.999482074738651 ], [ 11.016500435406195, 47.396367985219207 ], [ 11.4214276253914, 47.444852034412669 ], [ 11.68714650894128, 47.250428522156064 ], [ 11.627199511745951, 47.013298837370506 ], [ 11.16428131536764, 46.965722619327387 ] ] ] } },
{ "type": "Feature", "properties": { "NUTS_ID": "AT333", "name": "Osttirol" }, "geometry": { "type": "Polygon", "coordinates": [ [ [ 12.477924086306549, 46.67983561070659 ], [ 12.164068756483024, 46.914875288388437 ], [ 12.142597183940266, 46.997157717979235 ], [ 12.240745396712335, 47.069168359391313 ], [ 12.46282113250536, 47.151699518976606 ], [ 12.656082919218274, 47.099700971885987 ], [ 12.937536378467962, 46.802428906901454 ], [ 12.736234079242971, 46.731976858791143 ], [ 12.69063519592004, 46.656972038128821 ], [ 12.477924086306549, 46.67983561070659 ] ] ] } },
{ "type": "Feature", "properties": { "NUTS_ID": "AT334", "name": "Tiroler Oberland" }, "geometry": { "type": "Polygon", "coordinates": [ [ [ 10.469651302255382, 46.854908998200997 ], [ 10.47109680929425, 46.936839763618792 ], [ 10.393509979464147, 46.982830104621428 ], [ 10.144974674057718, 46.851009478634374 ], [ 10.115211979817884, 46.934041995712505 ], [ 10.212787175314547, 47.157280999416223 ], [ 10.398159268427829, 47.182070784756782 ], [ 10.810076885226104, 47.384946106779665 ], [ 10.883353648525635, 47.352468599381154 ], [ 10.991202287432479, 47.396130988429491 ], [ 11.016500435406195, 47.396367985219207 ], [ 11.108507336739038, 46.999482074738651 ], [ 11.16428131536764, 46.965722619327387 ], [ 11.030746848193086, 46.781873828795014 ], [ 10.810076885607122, 46.779098301346743 ], [ 10.667848043969448, 46.863804404357815 ], [ 10.469651302255382, 46.854908998200997 ] ] ] } },
{ "type": "Feature", "properties": { "NUTS_ID": "AT335", "name": "Tiroler Unterland" }, "geometry": { "type": "Polygon", "coordinates": [ [ [ 11.627199511745951, 47.013298837370506 ], [ 11.68714650894128, 47.250428522156064 ], [ 11.4214276253914, 47.444852034412669 ], [ 11.410219187499992, 47.495323921579327 ], [ 11.560552463585646, 47.52160337014255 ], [ 11.632883141848806, 47.592446016630838 ], [ 12.060662220859664, 47.618743550288222 ], [ 12.338045351637732, 47.697087572212432 ], [ 12.575026261662464, 47.632315977224771 ], [ 12.670811806641842, 47.463715947384422 ], [ 12.439864042852632, 47.324227594509701 ], [ 12.1022472554481, 47.267539419277512 ], [ 12.136013771373326, 47.080667456045099 ], [ 11.750250198913958, 46.983625312032984 ], [ 11.627199511745951, 47.013298837370506 ] ] ] } },
{ "type": "Feature", "properties": { "NUTS_ID": "AT341", "name": "Bludenz-Bregenzer Wald" }, "geometry": { "type": "Polygon", "coordinates": [ [ [ 9.607078007215934, 47.060774530370892 ], [ 9.624738714297392, 47.117995621722812 ], [ 9.620580375481051, 47.151645494005862 ], [ 9.825814121725676, 47.283910309920792 ], [ 9.838666280809042, 47.443771221822487 ], [ 9.999526182575735, 47.483017135964808 ], [ 10.200433606521399, 47.355760151098167 ], [ 10.178352766884297, 47.270114021788423 ], [ 10.212787175314547, 47.157280999416223 ], [ 10.115211979817884, 46.934041995712505 ], [ 10.144974674057718, 46.851009478634374 ], [ 9.904041989542071, 46.932877881292455 ], [ 9.817761053859488, 47.029599579158294 ], [ 9.607078007215934, 47.060774530370892 ] ] ] } },
{ "type": "Feature", "properties": { "NUTS_ID": "AT342", "name": "Rheintal-Bodenseegebiet" }, "geometry": { "type": "Polygon", "coordinates": [ [ [ 9.558720701645559, 47.54189287460278 ], [ 9.967813722692496, 47.54624055026764 ], [ 9.999526182575735, 47.483017135964808 ], [ 9.838666280809042, 47.443771221822487 ], [ 9.825814121725676, 47.283910309920792 ], [ 9.620580375481051, 47.151645494005862 ], [ 9.590928107230235, 47.164685075916381 ], [ 9.564655050768721, 47.170305616801585 ], [ 9.557721321570764, 47.1875580800168 ], [ 9.565192448931045, 47.19121689979923 ], [ 9.579292647499809, 47.195100132999002 ], [ 9.55755141259222, 47.231401902860874 ], [ 9.555658633438627, 47.252738838888945 ], [ 9.530749051451899, 47.270581012081259 ], [ 9.655516696573102, 47.405211265380174 ], [ 9.558720701645559, 47.54189287460278 ] ] ] } }
]
}
