{
"type": "FeatureCollection",
"name": "BE",
"crs": { "type": "name", "properties": { "name": "urn:ogc:def:crs:OGC:1.3:CRS84" } },
"features": [
{ "type": "Feature", "properties": { "NUTS_ID": "BE100", "name": "Arr. de Bruxelles-Capitale/Arr. Brussel-Hoofdstad" }, "geometry": { "type": "Polygon", "coordinates": [ [ [ 4.2677126899783, 50.872598178666308 ], [ 4.41265372781821, 50.914930965025398 ], [ 4.506685613436824, 50.783699201845657 ], [ 4.348486404582429, 50.768117652809956 ], [ 4.2677126899783, 50.872598178666308 ] ] ] } },
{ "type": "Feature", "properties": { "NUTS_ID": "BE211", "name": "Arr. Antwerpen" }, "geometry": { "type": "Polygon", "coordinates": [ [ [ 4.243657894604261, 51.374737012055704 ], [ 4.279565168522002, 51.376017378298059 ], [ 4.398315850405061, 51.369239465573301 ], [ 4.413481483588787, 51.444566327150568 ], [ 4.488827106188758, 51.470491610699824 ], [ 4.669544110541935, 51.426384044795562 ], [ 4.755975154670865, 51.276804386081849 ], [ 4.694646977364654, 51.178405920348801 ], [ 4.436279126142975, 51.078705796867879 ], [ 4.307828493975808, 51.125034457372209 ], [ 4.298609211474228, 51.289410643208761 ], [ 4.242041705415236, 51.353961095251051 ], [ 4.25374503367498, 51.35542666239499 ], [ 4.243657894604261, 51.374737012055704 ] ] ] } },
{ "type": "Feature", "properties": { "NUTS_ID": "BE212", "name": "Arr. Mechelen" }, "geometry": { "type": "Polygon", "coordinates": [ [ [ 4.694646977364654, 51.178405920348801 ], [ 4.796603031610338, 51.09454697188098 ], [ 4.789318877576445, 51.038928947859517 ], [ 4.528663000315654, 50.992264573850271 ], [ 4.240998891242058, 51.036869087506261 ], [ 4.175791970379503, 51.101211612234522 ], [ 4.307828493975808, 51.125034457372209 ], [ 4.436279126142975, 51.078705796867879 ], [ 4.694646977364654, 51.178405920348801 ] ] ] } },
{ "type": "Feature", "properties": { "NUTS_ID": "BE213", "name": "Arr. Turnhout" }, "geometry": { "type": "Polygon", "coordinates": [ [ [ 4.669544110541935, 51.426384044795562 ], [ 4.759925819036284, 51.502464611228369 ], [ 4.879770692652888, 51.427750652832756 ], [ 5.039062133454919, 51.467538093337765 ], [ 5.102137093267302, 51.428956039428726 ], [ 5.103999107934353, 51.356516469084035 ], [ 5.237716347787162, 51.26160036189377 ], [ 5.261073670790704, 51.146964878175439 ], [ 4.981574411799818, 51.034885453465463 ], [ 4.789318877576445, 51.038928947859517 ], [ 4.796603031610338, 51.09454697188098 ], [ 4.694646977364654, 51.178405920348801 ], [ 4.755975154670865, 51.276804386081849 ], [ 4.669544110541935, 51.426384044795562 ] ] ] } },
{ "type": "Feature", "properties": { "NUTS_ID": "BE223", "name": "Arr. Tongeren" }, "geometry": { "type": "MultiPolygon", "coordinates": [ [ [ [ 5.892072996513579, 50.755237581779625 ], [ 5.819051832354785, 50.714557353098357 ], [ 5.682000428534085, 50.757446428273049 ], [ 5.766542833456962, 50.775222369976177 ], [ 5.892072996513579, 50.755237581779625 ] ] ], [ [ [ 5.687622128701352, 50.811923975910311 ], [ 5.431686460583818, 50.719803127132415 ], [ 5.2369132483495, 50.727273126981267 ], [ 5.271992007338641, 50.88732621791668 ], [ 5.590999697427539, 50.910020977455225 ], [ 5.622395229516632, 50.999236876724716 ], [ 5.76607410658899, 51.008594292545865 ], [ 5.669242424886265, 50.873206832862024 ], [ 5.687622128701352, 50.811923975910311 ] ] ] ] } },
{ "type": "Feature", "properties": { "NUTS_ID": "BE224", "name": "Arr. Hasselt" }, "geometry": { "type": "Polygon", "coordinates": [ [ [ 5.261073670790704, 51.146964878175439 ], [ 5.368204033752468, 51.012670689045088 ], [ 5.581897962465566, 51.023678857064453 ], [ 5.622395229516632, 50.999236876724716 ], [ 5.590999697427539, 50.910020977455225 ], [ 5.271992007338641, 50.88732621791668 ], [ 5.2369132483495, 50.727273126981267 ], [ 5.103480288918571, 50.709063981898687 ], [ 5.146712500598988, 50.871520349965891 ], [ 5.067473104525962, 50.942794845163064 ], [ 5.108329029611199, 51.017476644140636 ], [ 4.981574411799818, 51.034885453465463 ], [ 5.261073670790704, 51.146964878175439 ] ] ] } },
{ "type": "Feature", "properties": { "NUTS_ID": "BE225", "name": "Arr. Maaseik" }, "geometry": { "type": "Polygon", "coordinates": [ [ [ 5.237716347787162, 51.26160036189377 ], [ 5.490810036753169, 51.28654573105085 ], [ 5.566283615270706, 51.220836498525848 ], [ 5.788313608187572, 51.159533988217582 ], [ 5.798274119211292, 51.059853379794006 ], [ 5.76607410658899, 51.008594292545865 ], [ 5.622395229516632, 50.999236876724716 ], [ 5.581897962465566, 51.023678857064453 ], [ 5.368204033752468, 51.012670689045088 ], [ 5.261073670790704, 51.146964878175439 ], [ 5.237716347787162, 51.26160036189377 ] ] ] } },
{ "type": "Feature", "properties": { "NUTS_ID": "BE231", "name": "Arr. Aalst" }, "geometry": { "type": "Polygon", "coordinates": [ [ [ 3.815390380650492, 50.750725093851877 ], [ 3.85503827601086, 50.797876113753247 ], [ 3.746936098725361, 50.907943612468983 ], [ 3.847701169708733, 50.952754993940204 ], [ 4.147153067004718, 50.969398344827788 ], [ 4.039447827328128, 50.798867052260348 ], [ 3.895736335560349, 50.732944549558489 ], [ 3.815390380650492, 50.750725093851877 ] ] ] } },
{ "type": "Feature", "properties": { "NUTS_ID": "BE232", "name": "Arr. Dendermonde" }, "geometry": { "type": "Polygon", "coordinates": [ [ [ 4.175791970379503, 51.101211612234522 ], [ 4.240998891242058, 51.036869087506261 ], [ 4.147153067004718, 50.969398344827788 ], [ 3.847701169708733, 50.952754993940204 ], [ 3.841837553315604, 51.036169105099859 ], [ 3.923106660226562, 51.076011506481947 ], [ 4.071413828603275, 51.137440457979395 ], [ 4.175791970379503, 51.101211612234522 ] ] ] } },
{ "type": "Feature", "properties": { "NUTS_ID": "BE233", "name": "Arr. Eeklo" }, "geometry": { "type": "Polygon", "coordinates": [ [ [ 3.856339488390994, 51.211056093592049 ], [ 3.437054304291234, 51.162890089158275 ], [ 3.410930167696877, 51.159889040225018 ], [ 3.380737262359116, 51.274259199512933 ], [ 3.437054303910656, 51.279280063075113 ], [ 3.618926123363827, 51.295494578961133 ], [ 3.856339488390994, 51.211056093592049 ] ] ] } },
{ "type": "Feature", "properties": { "NUTS_ID": "BE234", "name": "Arr. Gent" }, "geometry": { "type": "Polygon", "coordinates": [ [ [ 3.923106660226562, 51.076011506481947 ], [ 3.841837553315604, 51.036169105099859 ], [ 3.847701169708733, 50.952754993940204 ], [ 3.746936098725361, 50.907943612468983 ], [ 3.466746613524714, 50.902096547718976 ], [ 3.437054303768571, 50.907689514358346 ], [ 3.419824199947978, 50.910935047216924 ], [ 3.431447558645079, 51.033841559202891 ], [ 3.331305904417506, 51.098872874704668 ], [ 3.410930167696877, 51.159889040225018 ], [ 3.437054304291234, 51.162890089158275 ], [ 3.856339488390994, 51.211056093592049 ], [ 3.977666514133952, 51.225132112569455 ], [ 3.923106660226562, 51.076011506481947 ] ] ] } },
{ "type": "Feature", "properties": { "NUTS_ID": "BE235", "name": "Arr. Oudenaarde" }, "geometry": { "type": "Polygon", "coordinates": [ [ [ 3.466746613524714, 50.902096547718976 ], [ 3.746936098725361, 50.907943612468983 ], [ 3.85503827601086, 50.797876113753247 ], [ 3.815390380650492, 50.750725093851877 ], [ 3.541272589624391, 50.733700371092993 ], [ 3.460305332358492, 50.765898859767198 ], [ 3.504332150772438, 50.813073011812413 ], [ 3.466746613524714, 50.902096547718976 ] ] ] } },
{ "type": "Feature", "properties": { "NUTS_ID": "BE236", "name": "Arr. Sint-Niklaas" }, "geometry": { "type": "Polygon", "coordinates": [ [ [ 4.242041705415236, 51.353961095251051 ], [ 4.298609211474228, 51.289410643208761 ], [ 4.307828493975808, 51.125034457372209 ], [ 4.175791970379503, 51.101211612234522 ], [ 4.071413828603275, 51.137440457979395 ], [ 3.923106660226562, 51.076011506481947 ], [ 3.977666514133952, 51.225132112569455 ], [ 4.234817405508229, 51.348254203026968 ], [ 4.242041705415236, 51.353961095251051 ] ] ] } },
{ "type": "Feature", "properties": { "NUTS_ID": "BE241", "name": "Arr. Halle-Vilvoorde" }, "geometry": { "type": "Polygon", "coordinates": [ [ [ 3.895736335560349, 50.732944549558489 ], [ 4.039447827328128, 50.798867052260348 ], [ 4.147153067004718, 50.969398344827788 ], [ 4.240998891242058, 51.036869087506261 ], [ 4.528663000315654, 50.992264573850271 ], [ 4.568552775301655, 50.93258497535443 ], [ 4.521736541858594, 50.841027936103004 ], [ 4.597269111973384, 50.763534354842029 ], [ 4.100482870277267, 50.70595553144264 ], [ 3.94965520536291, 50.696254913427644 ], [ 3.895736335560349, 50.732944549558489 ] ], [ [ 4.2677126899783, 50.872598178666308 ], [ 4.348486404582429, 50.768117652809956 ], [ 4.506685613436824, 50.783699201845657 ], [ 4.41265372781821, 50.914930965025398 ], [ 4.2677126899783, 50.872598178666308 ] ] ] } },
{ "type": "Feature", "properties": { "NUTS_ID": "BE242", "name": "Arr. Leuven" }, "geometry": { "type": "Polygon", "coordinates": [ [ [ 4.981574411799818, 51.034885453465463 ], [ 5.108329029611199, 51.017476644140636 ], [ 5.067473104525962, 50.942794845163064 ], [ 5.146712500598988, 50.871520349965891 ], [ 5.103480288918571, 50.709063981898687 ], [ 5.0195663335249, 50.750762065126004 ], [ 4.728136068545574, 50.802694764431543 ], [ 4.597269111973384, 50.763534354842029 ], [ 4.521736541858594, 50.841027936103004 ], [ 4.568552775301655, 50.93258497535443 ], [ 4.528663000315654, 50.992264573850271 ], [ 4.789318877576445, 51.038928947859517 ], [ 4.981574411799818, 51.034885453465463 ] ] ] } },
{ "type": "Feature", "properties": { "NUTS_ID": "BE251", "name": "Arr. Brugge" }, "geometry": { "type": "Polygon", "coordinates": [ [ [ 3.365787354721749, 51.369835450945686 ], [ 3.380737262359116, 51.274259199512933 ], [ 3.410930167696877, 51.159889040225018 ], [ 3.331305904417506, 51.098872874704668 ], [ 3.163074944705708, 51.065201024904503 ], [ 3.069538273850644, 51.015464853418919 ], [ 3.043535914349129, 51.060661357998669 ], [ 3.110817030467556, 51.312295289873731 ], [ 3.365787354721749, 51.369835450945686 ] ] ] } },
{ "type": "Feature", "properties": { "NUTS_ID": "BE252", "name": "Arr. Diksmuide" }, "geometry": { "type": "Polygon", "coordinates": [ [ [ 2.820952869416522, 51.102599995056657 ], [ 2.969378614402348, 51.115863295759773 ], [ 3.043535914349129, 51.060661357998669 ], [ 3.069538273850644, 51.015464853418919 ], [ 3.016326594427755, 50.985465867553245 ], [ 2.959001653501032, 50.953147961935159 ], [ 2.719706836712109, 50.949657379080016 ], [ 2.820952869416522, 51.102599995056657 ] ] ] } },
{ "type": "Feature", "properties": { "NUTS_ID": "BE253", "name": "Arr. Ieper" }, "geometry": { "type": "Polygon", "coordinates": [ [ [ 2.719706836712109, 50.949657379080016 ], [ 2.959001653501032, 50.953147961935159 ], [ 3.016326593556931, 50.907163392319688 ], [ 3.10245488371839, 50.838073527802194 ], [ 3.098480837603599, 50.779019139741735 ], [ 3.016326594667387, 50.774482871766935 ], [ 2.958199992364784, 50.797660393258965 ], [ 2.856293375363856, 50.744894540372016 ], [ 2.864349130717774, 50.707492940221599 ], [ 2.64798639653573, 50.825013780801065 ], [ 2.60703610939938, 50.912689383504848 ], [ 2.719706836712109, 50.949657379080016 ] ] ] } },
{ "type": "Feature", "properties": { "NUTS_ID": "BE254", "name": "Arr. Kortrijk" }, "geometry": { "type": "Polygon", "coordinates": [ [ [ 3.098480837603599, 50.779019139741735 ], [ 3.10245488371839, 50.838073527802194 ], [ 3.287065486023059, 50.904384439201579 ], [ 3.419824199947978, 50.910935047216924 ], [ 3.437054303768571, 50.907689514358346 ], [ 3.466746613524714, 50.902096547718976 ], [ 3.504332150772438, 50.813073011812413 ], [ 3.460305332358492, 50.765898859767198 ], [ 3.437054303934013, 50.755948608252119 ], [ 3.366960295510779, 50.725951955786712 ], [ 3.176995843331754, 50.75616460786275 ], [ 3.098480837603599, 50.779019139741735 ] ] ] } },
{ "type": "Feature", "properties": { "NUTS_ID": "BE255", "name": "Arr. Oostende" }, "geometry": { "type": "Polygon", "coordinates": [ [ [ 3.110817030467556, 51.312295289873731 ], [ 3.043535914349129, 51.060661357998669 ], [ 2.969378614402348, 51.115863295759773 ], [ 2.820952869416522, 51.102599995056657 ], [ 2.749155610060553, 51.161676392810534 ], [ 3.016326594735415, 51.272943441837221 ], [ 3.110817030467556, 51.312295289873731 ] ] ] } },
{ "type": "Feature", "properties": { "NUTS_ID": "BE256", "name": "Arr. Roeselare" }, "geometry": { "type": "Polygon", "coordinates": [ [ [ 3.163074944705708, 51.065201024904503 ], [ 3.176660607669786, 50.976544657420824 ], [ 3.287065486023059, 50.904384439201579 ], [ 3.10245488371839, 50.838073527802194 ], [ 3.016326593556931, 50.907163392319688 ], [ 2.959001653501032, 50.953147961935159 ], [ 3.016326594427755, 50.985465867553245 ], [ 3.069538273850644, 51.015464853418919 ], [ 3.163074944705708, 51.065201024904503 ] ] ] } },
{ "type": "Feature", "properties": { "NUTS_ID": "BE257", "name": "Arr. Tielt" }, "geometry": { "type": "Polygon", "coordinates": [ [ [ 3.331305904417506, 51.098872874704668 ], [ 3.431447558645079, 51.033841559202891 ], [ 3.419824199947978, 50.910935047216924 ], [ 3.287065486023059, 50.904384439201579 ], [ 3.176660607669786, 50.976544657420824 ], [ 3.163074944705708, 51.065201024904503 ], [ 3.331305904417506, 51.098872874704668 ] ] ] } },
{ "type": "Feature", "properties": { "NUTS_ID": "BE258", "name": "Arr. Veurne" }, "geometry": { "type": "Polygon", "coordinates": [ [ [ 2.546088192167626, 51.089388267936542 ], [ 2.749155610060553, 51.161676392810534 ], [ 2.820952869416522, 51.102599995056657 ], [ 2.719706836712109, 50.949657379080016 ], [ 2.60703610939938, 50.912689383504848 ], [ 2.546088192167626, 51.089388267936542 ] ] ] } },
{ "type": "Feature", "properties": { "NUTS_ID": "BE310", "name": "Arr. Nivelles" }, "geometry": { "type": "Polygon", "coordinates": [ [ [ 4.100482870277267, 50.70595553144264 ], [ 4.597269111973384, 50.763534354842029 ], [ 4.728136068545574, 50.802694764431543 ], [ 5.0195663335249, 50.750762065126004 ], [ 4.983340932098701, 50.642242595287101 ], [ 4.577538223948476, 50.542285971130873 ], [ 4.325281434680805, 50.549152389157129 ], [ 4.091846549427427, 50.668853921396881 ], [ 4.100482870277267, 50.70595553144264 ] ] ] } },
{ "type": "Feature", "properties": { "NUTS_ID": "BE323", "name": "Arr. Mons" }, "geometry": { "type": "Polygon", "coordinates": [ [ [ 3.655510061736411, 50.461735482091576 ], [ 3.962106453401848, 50.590148851800159 ], [ 4.075326563800149, 50.464763449366814 ], [ 4.027774357626013, 50.35833050868569 ], [ 3.704656679268842, 50.326479724734583 ], [ 3.655510061736411, 50.461735482091576 ] ] ] } },
{ "type": "Feature", "properties": { "NUTS_ID": "BE328", "name": "Arr. Tournai-Mouscron" }, "geometry": { "type": "MultiPolygon", "coordinates": [ [ [ [ 3.541272589624391, 50.733700371092993 ], [ 3.526518495690691, 50.674326862672444 ], [ 3.675002152806829, 50.608254201113326 ], [ 3.615081370699013, 50.490398972127224 ], [ 3.437054303355217, 50.508539645662616 ], [ 3.313043488517601, 50.521176149041892 ], [ 3.176995843331754, 50.75616460786275 ], [ 3.366960295510779, 50.725951955786712 ], [ 3.437054303934013, 50.755948608252119 ], [ 3.460305332358492, 50.765898859767198 ], [ 3.541272589624391, 50.733700371092993 ] ] ], [ [ [ 3.016326594667387, 50.774482871766935 ], [ 2.864349130717774, 50.707492940221599 ], [ 2.856293375363856, 50.744894540372016 ], [ 2.958199992364784, 50.797660393258965 ], [ 3.016326594667387, 50.774482871766935 ] ] ] ] } },
{ "type": "Feature", "properties": { "NUTS_ID": "BE329", "name": "Arr. La Louvière" }, "geometry": { "type": "Polygon", "coordinates": [ [ [ 4.027774357626013, 50.35833050868569 ], [ 4.075326563800149, 50.464763449366814 ], [ 4.180105341345993, 50.510317251466432 ], [ 4.267735427686703, 50.471573122963747 ], [ 4.263345847410914, 50.425304568958197 ], [ 4.170162171967806, 50.347737337353877 ], [ 4.042493861642884, 50.339832374698652 ], [ 4.027774357626013, 50.35833050868569 ] ] ] } },
{ "type": "Feature", "properties": { "NUTS_ID": "BE32A", "name": "Arr. Ath" }, "geometry": { "type": "Polygon", "coordinates": [ [ [ 3.615081370699013, 50.490398972127224 ], [ 3.675002152806829, 50.608254201113326 ], [ 3.526518495690691, 50.674326862672444 ], [ 3.541272589624391, 50.733700371092993 ], [ 3.815390380650492, 50.750725093851877 ], [ 3.895736335560349, 50.732944549558489 ], [ 3.94965520536291, 50.696254913427644 ], [ 4.100482870277267, 50.70595553144264 ], [ 4.091846549427427, 50.668853921396881 ], [ 3.962106453401848, 50.590148851800159 ], [ 3.655510061736411, 50.461735482091576 ], [ 3.615081370699013, 50.490398972127224 ] ] ] } },
{ "type": "Feature", "properties": { "NUTS_ID": "BE32B", "name": "Arr. Charleroi" }, "geometry": { "type": "Polygon", "coordinates": [ [ [ 4.267735427686703, 50.471573122963747 ], [ 4.325281434680805, 50.549152389157129 ], [ 4.577538223948476, 50.542285971130873 ], [ 4.588662257120102, 50.321315874032805 ], [ 4.474987156592934, 50.327609895955213 ], [ 4.263345847410914, 50.425304568958197 ], [ 4.267735427686703, 50.471573122963747 ] ] ] } },
{ "type": "Feature", "properties": { "NUTS_ID": "BE32C", "name": "Arr. Soignies" }, "geometry": { "type": "Polygon", "coordinates": [ [ [ 4.091846549427427, 50.668853921396881 ], [ 4.325281434680805, 50.549152389157129 ], [ 4.267735427686703, 50.471573122963747 ], [ 4.180105341345993, 50.510317251466432 ], [ 4.075326563800149, 50.464763449366814 ], [ 3.962106453401848, 50.590148851800159 ], [ 4.091846549427427, 50.668853921396881 ] ] ] } },
{ "type": "Feature", "properties": { "NUTS_ID": "BE32D", "name": "Arr. Thuin" }, "geometry": { "type": "Polygon", "coordinates": [ [ [ 4.042493861642884, 50.339832374698652 ], [ 4.170162171967806, 50.347737337353877 ], [ 4.263345847410914, 50.425304568958197 ], [ 4.474987156592934, 50.327609895955213 ], [ 4.334357498008579, 50.255000124230222 ], [ 4.432493778654865, 49.941615969513123 ], [ 4.233054694369951, 49.957830609539364 ], [ 4.140853127347617, 49.978760149708634 ], [ 4.206494055846622, 50.075926067595027 ], [ 4.15746947372822, 50.169862420530229 ], [ 4.193851476243881, 50.250116367027829 ], [ 4.042493861642884, 50.339832374698652 ] ] ] } },
{ "type": "Feature", "properties": { "NUTS_ID": "BE331", "name": "Arr. Huy" }, "geometry": { "type": "Polygon", "coordinates": [ [ [ 5.394420725445277, 50.589828603960591 ], [ 5.702544405652003, 50.403953348146977 ], [ 5.675838335265713, 50.368514903056955 ], [ 5.393235055129962, 50.379364041803569 ], [ 5.221259291825812, 50.417297397919725 ], [ 5.028494827377699, 50.588821551725943 ], [ 5.227570570896432, 50.625756239134141 ], [ 5.394420725445277, 50.589828603960591 ] ] ] } },
{ "type": "Feature", "properties": { "NUTS_ID": "BE332", "name": "Arr. Liège" }, "geometry": { "type": "Polygon", "coordinates": [ [ [ 5.431686460583818, 50.719803127132415 ], [ 5.687622128701352, 50.811923975910311 ], [ 5.682000428534085, 50.757446428273049 ], [ 5.819051832354785, 50.714557353098357 ], [ 5.702544405652003, 50.403953348146977 ], [ 5.394420725445277, 50.589828603960591 ], [ 5.431686460583818, 50.719803127132415 ] ] ] } },
{ "type": "Feature", "properties": { "NUTS_ID": "BE334", "name": "Arr. Waremme" }, "geometry": { "type": "Polygon", "coordinates": [ [ [ 5.0195663335249, 50.750762065126004 ], [ 5.103480288918571, 50.709063981898687 ], [ 5.2369132483495, 50.727273126981267 ], [ 5.431686460583818, 50.719803127132415 ], [ 5.394420725445277, 50.589828603960591 ], [ 5.227570570896432, 50.625756239134141 ], [ 5.028494827377699, 50.588821551725943 ], [ 4.983340932098701, 50.642242595287101 ], [ 5.0195663335249, 50.750762065126004 ] ] ] } },
{ "type": "Feature", "properties": { "NUTS_ID": "BE335", "name": "Arr. Verviers — communes francophones" }, "geometry": { "type": "Polygon", "coordinates": [ [ [ 6.020999005664916, 50.754295369911581 ], [ 5.993509380373319, 50.643201943639951 ], [ 6.189312372615754, 50.566094054944024 ], [ 6.192200636658699, 50.521055481724687 ], [ 6.130458262466279, 50.39366996603907 ], [ 5.980197733367205, 50.329852891319206 ], [ 5.72154960441786, 50.261989541659318 ], [ 5.675838335265713, 50.368514903056955 ], [ 5.702544405652003, 50.403953348146977 ], [ 5.819051832354785, 50.714557353098357 ], [ 5.892072996513579, 50.755237581779625 ], [ 6.020999005664916, 50.754295369911581 ] ] ] } },
{ "type": "Feature", "properties": { "NUTS_ID": "BE336", "name": "Bezirk Verviers — Deutschsprachige Gemeinschaft" }, "geometry": { "type": "MultiPolygon", "coordinates": [ [ [ [ 6.195401546154168, 50.229657690217216 ], [ 6.137662259454002, 50.129951505348018 ], [ 6.024899633938699, 50.182779390294222 ], [ 5.980197733367205, 50.329852891319206 ], [ 6.130458262466279, 50.39366996603907 ], [ 6.192200636658699, 50.521055481724687 ], [ 6.315555889448737, 50.497042609453501 ], [ 6.405028614468013, 50.323308534883601 ], [ 6.195401546154168, 50.229657690217216 ] ] ], [ [ [ 6.194050729680329, 50.637636227792903 ], [ 6.189312372615754, 50.566094054944024 ], [ 5.993509380373319, 50.643201943639951 ], [ 6.020999005664916, 50.754295369911581 ], [ 6.194050729680329, 50.637636227792903 ] ] ] ] } },
{ "type": "Feature", "properties": { "NUTS_ID": "BE341", "name": "Arr. Arlon" }, "geometry": { "type": "Polygon", "coordinates": [ [ [ 5.700612070655159, 49.820659619615398 ], [ 5.746363995092075, 49.853614451826076 ], [ 5.893725008703598, 49.664883791961238 ], [ 5.818116879399927, 49.546310570859227 ], [ 5.734526862018468, 49.545770759716632 ], [ 5.684699404379951, 49.782394510487755 ], [ 5.700612070655159, 49.820659619615398 ] ] ] } },
{ "type": "Feature", "properties": { "NUTS_ID": "BE342", "name": "Arr. Bastogne" }, "geometry": { "type": "Polygon", "coordinates": [ [ [ 5.417419450431527, 50.048446523833945 ], [ 5.633095151116854, 50.106034013287093 ], [ 5.72154960441786, 50.261989541659318 ], [ 5.980197733367205, 50.329852891319206 ], [ 6.024899633938699, 50.182779390294222 ], [ 5.899197083132014, 50.102807946319921 ], [ 5.746363995092075, 49.853614451826076 ], [ 5.700612070655159, 49.820659619615398 ], [ 5.52381452852208, 49.889436678910812 ], [ 5.526114852304825, 49.962840334002365 ], [ 5.417419450431527, 50.048446523833945 ] ] ] } },
{ "type": "Feature", "properties": { "NUTS_ID": "BE343", "name": "Arr. Marche-en-Famenne" }, "geometry": { "type": "Polygon", "coordinates": [ [ [ 5.393235055129962, 50.379364041803569 ], [ 5.675838335265713, 50.368514903056955 ], [ 5.72154960441786, 50.261989541659318 ], [ 5.633095151116854, 50.106034013287093 ], [ 5.417419450431527, 50.048446523833945 ], [ 5.26306344074606, 50.108489846752136 ], [ 5.258113562568193, 50.222993592912658 ], [ 5.37807581385635, 50.294613939913077 ], [ 5.393235055129962, 50.379364041803569 ] ] ] } },
{ "type": "Feature", "properties": { "NUTS_ID": "BE344", "name": "Arr. Neufchâteau" }, "geometry": { "type": "Polygon", "coordinates": [ [ [ 4.96943102038776, 49.80182612480246 ], [ 5.096171078924681, 49.930438776724685 ], [ 5.007400754102315, 50.048118276506301 ], [ 5.26306344074606, 50.108489846752136 ], [ 5.417419450431527, 50.048446523833945 ], [ 5.526114852304825, 49.962840334002365 ], [ 5.52381452852208, 49.889436678910812 ], [ 5.700612070655159, 49.820659619615398 ], [ 5.684699404379951, 49.782394510487755 ], [ 5.231440286620994, 49.773636573033819 ], [ 5.153738464074949, 49.717925986490108 ], [ 4.96943102038776, 49.80182612480246 ] ] ] } },
{ "type": "Feature", "properties": { "NUTS_ID": "BE345", "name": "Arr. Virton" }, "geometry": { "type": "Polygon", "coordinates": [ [ [ 5.153738464074949, 49.717925986490108 ], [ 5.231440286620994, 49.773636573033819 ], [ 5.684699404379951, 49.782394510487755 ], [ 5.734526862018468, 49.545770759716632 ], [ 5.470716545629636, 49.49732447852081 ], [ 5.393511244511907, 49.617110893632656 ], [ 5.153738464074949, 49.717925986490108 ] ] ] } },
{ "type": "Feature", "properties": { "NUTS_ID": "BE351", "name": "Arr. Dinant" }, "geometry": { "type": "Polygon", "coordinates": [ [ [ 4.75336167558162, 50.275151048764755 ], [ 4.797983775572997, 50.347157372230846 ], [ 5.032959140419384, 50.349670606757243 ], [ 5.221259291825812, 50.417297397919725 ], [ 5.393235055129962, 50.379364041803569 ], [ 5.37807581385635, 50.294613939913077 ], [ 5.258113562568193, 50.222993592912658 ], [ 5.26306344074606, 50.108489846752136 ], [ 5.007400754102315, 50.048118276506301 ], [ 5.096171078924681, 49.930438776724685 ], [ 4.96943102038776, 49.80182612480246 ], [ 4.871562794475356, 49.810970532116045 ], [ 4.809950780428569, 49.97485706966615 ], [ 4.869741604169468, 50.128828800594491 ], [ 4.796697108254327, 50.148678157734864 ], [ 4.75336167558162, 50.275151048764755 ] ] ] } },
{ "type": "Feature", "properties": { "NUTS_ID": "BE352", "name": "Arr. Namur" }, "geometry": { "type": "Polygon", "coordinates": [ [ [ 4.983340932098701, 50.642242595287101 ], [ 5.028494827377699, 50.588821551725943 ], [ 5.221259291825812, 50.417297397919725 ], [ 5.032959140419384, 50.349670606757243 ], [ 4.797983775572997, 50.347157372230846 ], [ 4.75336167558162, 50.275151048764755 ], [ 4.588662257120102, 50.321315874032805 ], [ 4.577538223948476, 50.542285971130873 ], [ 4.983340932098701, 50.642242595287101 ] ] ] } },
{ "type": "Feature", "properties": { "NUTS_ID": "BE353", "name": "Arr. Philippeville" }, "geometry": { "type": "Polygon", "coordinates": [ [ [ 4.474987156592934, 50.327609895955213 ], [ 4.588662257120102, 50.321315874032805 ], [ 4.75336167558162, 50.275151048764755 ], [ 4.796697108254327, 50.148678157734864 ], [ 4.663390216554257, 49.994970607760536 ], [ 4.432493778654865, 49.941615969513123 ], [ 4.334357498008579, 50.255000124230222 ], [ 4.474987156592934, 50.327609895955213 ] ] ] } }
]
}
