{
"type": "FeatureCollection",
"name": "BG",
"crs": { "type": "name", "properties": { "name": "urn:ogc:def:crs:OGC:1.3:CRS84" } },
"features": [
{ "type": "Feature", "properties": { "NUTS_ID": "BG311", "name": "Vidin" }, "geometry": { "type": "Polygon", "coordinates": [ [ [ 22.675161314798697, 44.215662905919601 ], [ 22.966368951627395, 44.098288519061633 ], [ 23.01855179545786, 44.034917948581352 ], [ 22.892518655659924, 43.975891153072645 ], [ 22.859041655684848, 43.898197567856805 ], [ 22.997170932086586, 43.807867625668692 ], [ 23.034767051155484, 43.700278990737118 ], [ 22.7474537952559, 43.386613169232881 ], [ 22.666975488733261, 43.402747534159275 ], [ 22.536577007525587, 43.482445141484064 ], [ 22.430308629516453, 43.677047542930552 ], [ 22.367156685608844, 43.817735036725573 ], [ 22.410464489488927, 43.979214568154333 ], [ 22.430308629328749, 44.008408679794336 ], [ 22.536145114450662, 44.045511571783145 ], [ 22.675161314798697, 44.215662905919601 ] ] ] } },
{ "type": "Feature", "properties": { "NUTS_ID": "BG312", "name": "Montana" }, "geometry": { "type": "Polygon", "coordinates": [ [ [ 23.006209801678111, 43.192878429046175 ], [ 22.7474537952559, 43.386613169232881 ], [ 23.034767051155484, 43.700278990737118 ], [ 22.997170932086586, 43.807867625668692 ], [ 23.40964276548462, 43.849912641252708 ], [ 23.63039276549237, 43.791049821134834 ], [ 23.567028572310022, 43.515395859457144 ], [ 23.435612118559298, 43.478098662836651 ], [ 23.342473710901686, 43.307203798913754 ], [ 23.447340957784448, 43.224514153300376 ], [ 23.41276716352888, 43.160521907577184 ], [ 23.153570066428099, 43.125253895063132 ], [ 23.006209801678111, 43.192878429046175 ] ] ] } },
{ "type": "Feature", "properties": { "NUTS_ID": "BG313", "name": "Vratsa" }, "geometry": { "type": "Polygon", "coordinates": [ [ [ 23.41276716352888, 43.160521907577184 ], [ 23.447340957784448, 43.224514153300376 ], [ 23.342473710901686, 43.307203798913754 ], [ 23.435612118559298, 43.478098662836651 ], [ 23.567028572310022, 43.515395859457144 ], [ 23.63039276549237, 43.791049821134834 ], [ 24.112043469078795, 43.69994591813375 ], [ 24.323522460244565, 43.697685880485892 ], [ 24.020601780949796, 43.572188998217932 ], [ 24.048943808496414, 43.438483429878687 ], [ 23.95950156563686, 43.282272333035245 ], [ 24.032306936138387, 43.205626229426336 ], [ 23.971440545399815, 43.062282314292972 ], [ 23.561394056437042, 43.013745480257526 ], [ 23.41276716352888, 43.160521907577184 ] ] ] } },
{ "type": "Feature", "properties": { "NUTS_ID": "BG314", "name": "Pleven" }, "geometry": { "type": "Polygon", "coordinates": [ [ [ 24.323522460244565, 43.697685880485892 ], [ 24.491961181303459, 43.75295609799101 ], [ 24.654779713021473, 43.72358652900509 ], [ 25.296372664845077, 43.655419159732091 ], [ 25.207154832608325, 43.604797112798963 ], [ 25.186719168052381, 43.451777701988597 ], [ 25.234370089392577, 43.350302987185053 ], [ 25.140429932708567, 43.266830513112538 ], [ 25.048013675716049, 43.331298201892878 ], [ 24.752094618523962, 43.301646016827824 ], [ 24.563559010541407, 43.210775206947957 ], [ 24.370298080668299, 43.264152139535227 ], [ 24.032306936138387, 43.205626229426336 ], [ 23.95950156563686, 43.282272333035245 ], [ 24.048943808496414, 43.438483429878687 ], [ 24.020601780949796, 43.572188998217932 ], [ 24.323522460244565, 43.697685880485892 ] ] ] } },
{ "type": "Feature", "properties": { "NUTS_ID": "BG315", "name": "Lovech" }, "geometry": { "type": "Polygon", "coordinates": [ [ [ 23.971440545399815, 43.062282314292972 ], [ 24.032306936138387, 43.205626229426336 ], [ 24.370298080668299, 43.264152139535227 ], [ 24.563559010541407, 43.210775206947957 ], [ 24.752094618523962, 43.301646016827824 ], [ 25.048013675716049, 43.331298201892878 ], [ 25.140429932708567, 43.266830513112538 ], [ 25.076596973039223, 43.177780561919022 ], [ 24.974556787543296, 43.175570878219915 ], [ 24.880350113418562, 42.985142693312298 ], [ 24.964156322551993, 42.859353074199426 ], [ 25.014535026436199, 42.748023940198586 ], [ 25.007195252503688, 42.737619132720802 ], [ 24.747115744590158, 42.713532645857882 ], [ 24.532033063475239, 42.784603371797488 ], [ 24.385927022208481, 42.74995344565454 ], [ 24.183250180532813, 42.788820646190693 ], [ 24.169784000261771, 42.85935307458039 ], [ 23.971440545399815, 43.062282314292972 ] ] ] } },
{ "type": "Feature", "properties": { "NUTS_ID": "BG321", "name": "Veliko Tarnovo" }, "geometry": { "type": "Polygon", "coordinates": [ [ [ 25.614961615077988, 42.78680860869077 ], [ 25.613550782587968, 42.859353074707414 ], [ 25.555027182599702, 43.023246461835541 ], [ 25.231654117614937, 43.098824668794315 ], [ 25.127573001935666, 43.105107182641284 ], [ 25.076596973039223, 43.177780561919022 ], [ 25.140429932708567, 43.266830513112538 ], [ 25.234370089392577, 43.350302987185053 ], [ 25.186719168052381, 43.451777701988597 ], [ 25.207154832608325, 43.604797112798963 ], [ 25.296372664845077, 43.655419159732091 ], [ 25.54453953915834, 43.642845489064364 ], [ 25.484139761117451, 43.542411268554105 ], [ 25.613054717400544, 43.40970257371977 ], [ 26.004584956253911, 43.318754550518548 ], [ 26.081034332933282, 43.274962777336029 ], [ 26.067825087702307, 43.0822663123013 ], [ 26.167414469428344, 42.952155320726476 ], [ 26.053776199866828, 42.859353074086101 ], [ 25.837491220708738, 42.777227444258891 ], [ 25.614961615077988, 42.78680860869077 ] ] ] } },
{ "type": "Feature", "properties": { "NUTS_ID": "BG322", "name": "Gabrovo" }, "geometry": { "type": "Polygon", "coordinates": [ [ [ 25.014535026436199, 42.748023940198586 ], [ 24.964156322551993, 42.859353074199426 ], [ 24.880350113418562, 42.985142693312298 ], [ 24.974556787543296, 43.175570878219915 ], [ 25.076596973039223, 43.177780561919022 ], [ 25.127573001935666, 43.105107182641284 ], [ 25.231654117614937, 43.098824668794315 ], [ 25.555027182599702, 43.023246461835541 ], [ 25.613550782587968, 42.859353074707414 ], [ 25.614961615077988, 42.78680860869077 ], [ 25.014535026436199, 42.748023940198586 ] ] ] } },
{ "type": "Feature", "properties": { "NUTS_ID": "BG323", "name": "Ruse" }, "geometry": { "type": "Polygon", "coordinates": [ [ [ 25.54453953915834, 43.642845489064364 ], [ 25.672200966511038, 43.688148660396756 ], [ 26.118712478901209, 43.966670973526668 ], [ 26.358182171159669, 44.037160479522399 ], [ 26.389222384008495, 43.948152164082394 ], [ 26.346029367558454, 43.838212524730686 ], [ 26.434781993773999, 43.760049267111199 ], [ 26.411083719779484, 43.65779885092067 ], [ 26.19873160573286, 43.635856038443166 ], [ 26.17500644223168, 43.542411268719704 ], [ 26.046597285800861, 43.493980231171562 ], [ 25.979476831560692, 43.398341043491044 ], [ 26.004584956253911, 43.318754550518548 ], [ 25.613054717400544, 43.40970257371977 ], [ 25.484139761117451, 43.542411268554105 ], [ 25.54453953915834, 43.642845489064364 ] ] ] } },
{ "type": "Feature", "properties": { "NUTS_ID": "BG324", "name": "Razgrad" }, "geometry": { "type": "Polygon", "coordinates": [ [ [ 26.389222384008495, 43.948152164082394 ], [ 26.699290345566595, 43.845820794007516 ], [ 27.001888256513652, 43.696867638918064 ], [ 26.805435024577477, 43.542411268577588 ], [ 26.730439474693011, 43.410103433029413 ], [ 26.547405142893687, 43.348094469349405 ], [ 26.275077801855144, 43.533902134037611 ], [ 26.17500644223168, 43.542411268719704 ], [ 26.19873160573286, 43.635856038443166 ], [ 26.411083719779484, 43.65779885092067 ], [ 26.434781993773999, 43.760049267111199 ], [ 26.346029367558454, 43.838212524730686 ], [ 26.389222384008495, 43.948152164082394 ] ] ] } },
{ "type": "Feature", "properties": { "NUTS_ID": "BG325", "name": "Silistra" }, "geometry": { "type": "Polygon", "coordinates": [ [ [ 26.358182171159669, 44.037160479522399 ], [ 26.381823175563682, 44.038612069792293 ], [ 26.699290346170187, 44.080499636655105 ], [ 26.949016691319912, 44.138401688120219 ], [ 27.271340275074547, 44.126335360923363 ], [ 27.394614923157803, 44.02155446797736 ], [ 27.695410010063529, 43.987342921266574 ], [ 27.257076681726751, 43.777770949442271 ], [ 27.215601775385821, 43.665784411374631 ], [ 27.001888256513652, 43.696867638918064 ], [ 26.699290345566595, 43.845820794007516 ], [ 26.389222384008495, 43.948152164082394 ], [ 26.358182171159669, 44.037160479522399 ] ] ] } },
{ "type": "Feature", "properties": { "NUTS_ID": "BG331", "name": "Varna" }, "geometry": { "type": "Polygon", "coordinates": [ [ [ 27.094433537554011, 42.953910674422993 ], [ 27.192725957739217, 43.155330586180462 ], [ 27.277123647869224, 43.195965210703754 ], [ 27.339319785339971, 43.542411268394311 ], [ 27.405581232574061, 43.571097935194821 ], [ 27.429463561477661, 43.600267078523864 ], [ 27.491150588063753, 43.542411268562986 ], [ 28.060180704166399, 43.316444947015256 ], [ 27.943861155468646, 43.168968143796626 ], [ 27.882620200345169, 42.838413528446871 ], [ 27.267346505148485, 42.968448945228779 ], [ 27.094433537554011, 42.953910674422993 ] ] ] } },
{ "type": "Feature", "properties": { "NUTS_ID": "BG332", "name": "Dobrich" }, "geometry": { "type": "Polygon", "coordinates": [ [ [ 28.060180704166399, 43.316444947015256 ], [ 27.491150588063753, 43.542411268562986 ], [ 27.429463561477661, 43.600267078523864 ], [ 27.215601775385821, 43.665784411374631 ], [ 27.257076681726751, 43.777770949442271 ], [ 27.695410010063529, 43.987342921266574 ], [ 27.924004622493396, 43.98787781863313 ], [ 27.999943682209139, 43.854747741148834 ], [ 28.113114529359663, 43.798596731839396 ], [ 28.57886540207587, 43.738696446706165 ], [ 28.589401187691465, 43.513251988791311 ], [ 28.486507481585882, 43.389329515148276 ], [ 28.113114528817906, 43.385713648875004 ], [ 28.060180704166399, 43.316444947015256 ] ] ] } },
{ "type": "Feature", "properties": { "NUTS_ID": "BG333", "name": "Shumen" }, "geometry": { "type": "Polygon", "coordinates": [ [ [ 26.577725624110492, 42.985696884539379 ], [ 26.699290346477508, 43.151052463383714 ], [ 26.761270279065606, 43.223894365032535 ], [ 26.787538868258665, 43.37054574776765 ], [ 26.730439474693011, 43.410103433029413 ], [ 26.805435024577477, 43.542411268577588 ], [ 27.001888256513652, 43.696867638918064 ], [ 27.215601775385821, 43.665784411374631 ], [ 27.429463561477661, 43.600267078523864 ], [ 27.405581232574061, 43.571097935194821 ], [ 27.339319785339971, 43.542411268394311 ], [ 27.277123647869224, 43.195965210703754 ], [ 27.192725957739217, 43.155330586180462 ], [ 27.094433537554011, 42.953910674422993 ], [ 26.699290345739282, 42.903822094807168 ], [ 26.589988381308327, 42.920118435498004 ], [ 26.577725624110492, 42.985696884539379 ] ] ] } },
{ "type": "Feature", "properties": { "NUTS_ID": "BG334", "name": "Targovishte" }, "geometry": { "type": "Polygon", "coordinates": [ [ [ 26.004584956253911, 43.318754550518548 ], [ 25.979476831560692, 43.398341043491044 ], [ 26.046597285800861, 43.493980231171562 ], [ 26.17500644223168, 43.542411268719704 ], [ 26.275077801855144, 43.533902134037611 ], [ 26.547405142893687, 43.348094469349405 ], [ 26.730439474693011, 43.410103433029413 ], [ 26.787538868258665, 43.37054574776765 ], [ 26.761270279065606, 43.223894365032535 ], [ 26.699290346477508, 43.151052463383714 ], [ 26.577725624110492, 42.985696884539379 ], [ 26.320344659494111, 43.027816944849533 ], [ 26.167414469428344, 42.952155320726476 ], [ 26.067825087702307, 43.0822663123013 ], [ 26.081034332933282, 43.274962777336029 ], [ 26.004584956253911, 43.318754550518548 ] ] ] } },
{ "type": "Feature", "properties": { "NUTS_ID": "BG341", "name": "Burgas" }, "geometry": { "type": "Polygon", "coordinates": [ [ [ 27.209236883182022, 42.087598276096209 ], [ 27.071260364473485, 42.070786118886005 ], [ 27.059650519929694, 42.088337135676696 ], [ 26.94980037155393, 42.156284547533893 ], [ 26.888183401954247, 42.371895020286516 ], [ 26.926301195615935, 42.453183460087743 ], [ 26.714009387496034, 42.684561482103952 ], [ 26.591585096182207, 42.859353074333654 ], [ 26.589988381308327, 42.920118435498004 ], [ 26.699290345739282, 42.903822094807168 ], [ 27.094433537554011, 42.953910674422993 ], [ 27.267346505148485, 42.968448945228779 ], [ 27.882620200345169, 42.838413528446871 ], [ 27.866380284661979, 42.722599701737238 ], [ 27.519830143113545, 42.490561346036792 ], [ 27.677961918223478, 42.404376580185321 ], [ 28.035512349420401, 41.983079536930632 ], [ 27.991547048355017, 41.963846629234475 ], [ 27.859835932487826, 41.960975463109342 ], [ 27.78830728818313, 41.951975537829881 ], [ 27.555240724983303, 41.925413882215501 ], [ 27.428727858033831, 42.004578787773511 ], [ 27.40970321499718, 42.016483379851337 ], [ 27.257118022796771, 42.087361774344068 ], [ 27.209236883182022, 42.087598276096209 ] ] ] } },
{ "type": "Feature", "properties": { "NUTS_ID": "BG342", "name": "Sliven" }, "geometry": { "type": "Polygon", "coordinates": [ [ [ 25.837491220708738, 42.777227444258891 ], [ 26.053776199866828, 42.859353074086101 ], [ 26.167414469428344, 42.952155320726476 ], [ 26.320344659494111, 43.027816944849533 ], [ 26.577725624110492, 42.985696884539379 ], [ 26.589988381308327, 42.920118435498004 ], [ 26.591585096182207, 42.859353074333654 ], [ 26.714009387496034, 42.684561482103952 ], [ 26.244380643544503, 42.449707268225609 ], [ 26.175732146757642, 42.261461119686516 ], [ 25.92700122178319, 42.34686137458538 ], [ 25.837491220708738, 42.777227444258891 ] ] ] } },
{ "type": "Feature", "properties": { "NUTS_ID": "BG343", "name": "Yambol" }, "geometry": { "type": "Polygon", "coordinates": [ [ [ 27.071260364473485, 42.070786118886005 ], [ 26.965586800139128, 41.996477895497449 ], [ 26.869606544776325, 41.985027926157471 ], [ 26.599206467431589, 41.933456398976404 ], [ 26.571714957621669, 41.892917920035906 ], [ 26.561544258820302, 41.926273348333019 ], [ 26.537280407976223, 42.004578787975447 ], [ 26.498167960044729, 42.130804316052107 ], [ 26.192733593280547, 42.208130159762604 ], [ 26.175732146757642, 42.261461119686516 ], [ 26.244380643544503, 42.449707268225609 ], [ 26.714009387496034, 42.684561482103952 ], [ 26.926301195615935, 42.453183460087743 ], [ 26.888183401954247, 42.371895020286516 ], [ 26.94980037155393, 42.156284547533893 ], [ 27.059650519929694, 42.088337135676696 ], [ 27.071260364473485, 42.070786118886005 ] ] ] } },
{ "type": "Feature", "properties": { "NUTS_ID": "BG344", "name": "Stara Zagora" }, "geometry": { "type": "Polygon", "coordinates": [ [ [ 25.348064232519494, 42.11437745543715 ], [ 25.094975346064221, 42.192708558249997 ], [ 25.168716789477493, 42.479518879093433 ], [ 25.028315037547134, 42.54581856770826 ], [ 25.007195252503688, 42.737619132720802 ], [ 25.014535026436199, 42.748023940198586 ], [ 25.614961615077988, 42.78680860869077 ], [ 25.837491220708738, 42.777227444258891 ], [ 25.92700122178319, 42.34686137458538 ], [ 26.175732146757642, 42.261461119686516 ], [ 26.192733593280547, 42.208130159762604 ], [ 26.088675359690431, 42.02960400990473 ], [ 25.895473417867073, 42.112829531278685 ], [ 25.755036684724185, 42.076507967862753 ], [ 25.593372103773465, 42.180281084852496 ], [ 25.348064232519494, 42.11437745543715 ] ] ] } },
{ "type": "Feature", "properties": { "NUTS_ID": "BG411", "name": "Sofia (stolitsa)" }, "geometry": { "type": "Polygon", "coordinates": [ [ [ 23.290187042656772, 42.532709061512662 ], [ 23.056513924341356, 42.712733971152467 ], [ 23.197251753147821, 42.759047113594391 ], [ 23.289469534350218, 42.875063159245656 ], [ 23.604993738371721, 42.835646419039215 ], [ 23.536244910181683, 42.650377241580841 ], [ 23.59601317921615, 42.461733387031792 ], [ 23.290187042656772, 42.532709061512662 ] ] ] } },
{ "type": "Feature", "properties": { "NUTS_ID": "BG412", "name": "Sofia" }, "geometry": { "type": "Polygon", "coordinates": [ [ [ 23.495562373460729, 42.097557635660706 ], [ 23.457149984034341, 42.168124159881245 ], [ 23.338173053602787, 42.192174381540113 ], [ 23.360566578601805, 42.286720140367898 ], [ 23.224096111576404, 42.37702145720538 ], [ 23.290187042656772, 42.532709061512662 ], [ 23.59601317921615, 42.461733387031792 ], [ 23.536244910181683, 42.650377241580841 ], [ 23.604993738371721, 42.835646419039215 ], [ 23.289469534350218, 42.875063159245656 ], [ 23.197251753147821, 42.759047113594391 ], [ 23.056513924341356, 42.712733971152467 ], [ 22.771714961452918, 42.859353074813328 ], [ 22.748399735061533, 42.889787668292826 ], [ 23.006209801678111, 43.192878429046175 ], [ 23.153570066428099, 43.125253895063132 ], [ 23.41276716352888, 43.160521907577184 ], [ 23.561394056437042, 43.013745480257526 ], [ 23.971440545399815, 43.062282314292972 ], [ 24.169784000261771, 42.85935307458039 ], [ 24.183250180532813, 42.788820646190693 ], [ 24.385927022208481, 42.74995344565454 ], [ 24.377226927546676, 42.677421122506267 ], [ 24.45833179361798, 42.591528028421131 ], [ 24.421009703607353, 42.553063873708005 ], [ 24.238352781490477, 42.618569573322304 ], [ 23.926926335306494, 42.554582789542266 ], [ 24.029110425534533, 42.418806598622339 ], [ 23.966085954278288, 42.29810621031173 ], [ 23.772259771609594, 42.181185381773666 ], [ 23.495562373460729, 42.097557635660706 ] ] ] } },
{ "type": "Feature", "properties": { "NUTS_ID": "BG413", "name": "Blagoevgrad" }, "geometry": { "type": "Polygon", "coordinates": [ [ [ 22.927591411164041, 41.338539330316252 ], [ 22.968327256442915, 41.519835642995851 ], [ 23.013414726986888, 41.691821891569596 ], [ 22.901933665951198, 41.877642067681997 ], [ 22.867214076469004, 42.02219965774492 ], [ 22.948443460240728, 42.07996518433054 ], [ 23.495562373460729, 42.097557635660706 ], [ 23.772259771609594, 42.181185381773666 ], [ 23.782041581189105, 42.004578787993601 ], [ 23.790415513717335, 41.853390840669043 ], [ 24.074547492117016, 41.672703944988015 ], [ 24.059744082195312, 41.522112174279947 ], [ 24.022220181337353, 41.454831354947416 ], [ 23.624308285296834, 41.375698383720859 ], [ 22.927591411164041, 41.338539330316252 ] ] ] } },
{ "type": "Feature", "properties": { "NUTS_ID": "BG414", "name": "Pernik" }, "geometry": { "type": "Polygon", "coordinates": [ [ [ 22.461471801884823, 42.648490434563215 ], [ 22.442821703155978, 42.825456536578827 ], [ 22.515510739200675, 42.868538577692362 ], [ 22.748399735061533, 42.889787668292826 ], [ 22.771714961452918, 42.859353074813328 ], [ 23.056513924341356, 42.712733971152467 ], [ 23.290187042656772, 42.532709061512662 ], [ 23.224096111576404, 42.37702145720538 ], [ 22.8240927390389, 42.378587103540127 ], [ 22.58796704141643, 42.61799566103997 ], [ 22.461471801884823, 42.648490434563215 ] ] ] } },
{ "type": "Feature", "properties": { "NUTS_ID": "BG415", "name": "Kyustendil" }, "geometry": { "type": "Polygon", "coordinates": [ [ [ 22.867214076469004, 42.02219965774492 ], [ 22.66119596628241, 42.073034126665199 ], [ 22.510411952468537, 42.155158453196933 ], [ 22.360206291819384, 42.311157164360239 ], [ 22.538409793015134, 42.446431742702913 ], [ 22.461471801884823, 42.648490434563215 ], [ 22.58796704141643, 42.61799566103997 ], [ 22.8240927390389, 42.378587103540127 ], [ 23.224096111576404, 42.37702145720538 ], [ 23.360566578601805, 42.286720140367898 ], [ 23.338173053602787, 42.192174381540113 ], [ 23.457149984034341, 42.168124159881245 ], [ 23.495562373460729, 42.097557635660706 ], [ 22.948443460240728, 42.07996518433054 ], [ 22.867214076469004, 42.02219965774492 ] ] ] } },
{ "type": "Feature", "properties": { "NUTS_ID": "BG421", "name": "Plovdiv" }, "geometry": { "type": "Polygon", "coordinates": [ [ [ 24.439807136432812, 41.938218353156508 ], [ 24.442753681228758, 42.004578787766626 ], [ 24.447231703278931, 42.105430318528057 ], [ 24.512665310605598, 42.163380903513172 ], [ 24.421009703607353, 42.553063873708005 ], [ 24.45833179361798, 42.591528028421131 ], [ 24.377226927546676, 42.677421122506267 ], [ 24.385927022208481, 42.74995344565454 ], [ 24.532033063475239, 42.784603371797488 ], [ 24.747115744590158, 42.713532645857882 ], [ 25.007195252503688, 42.737619132720802 ], [ 25.028315037547134, 42.54581856770826 ], [ 25.168716789477493, 42.479518879093433 ], [ 25.094975346064221, 42.192708558249997 ], [ 25.348064232519494, 42.11437745543715 ], [ 25.282874756922642, 42.004578788227846 ], [ 25.218166811712596, 41.895591164323818 ], [ 25.074224631355111, 41.793476585547069 ], [ 24.999850922576424, 41.815842150855204 ], [ 24.835526372609468, 41.701275176867021 ], [ 24.739066232461667, 41.87983472326831 ], [ 24.439807136432812, 41.938218353156508 ] ] ] } },
{ "type": "Feature", "properties": { "NUTS_ID": "BG422", "name": "Haskovo" }, "geometry": { "type": "Polygon", "coordinates": [ [ [ 25.948626170277155, 41.320341912027423 ], [ 25.837804444366224, 41.427659330060791 ], [ 25.809319611087162, 41.639446928020142 ], [ 25.653597475165309, 41.620317325631518 ], [ 25.600986196392164, 41.743925484005523 ], [ 25.279224362907158, 41.818084785663039 ], [ 25.218166811712596, 41.895591164323818 ], [ 25.282874756922642, 42.004578788227846 ], [ 25.348064232519494, 42.11437745543715 ], [ 25.593372103773465, 42.180281084852496 ], [ 25.755036684724185, 42.076507967862753 ], [ 25.895473417867073, 42.112829531278685 ], [ 26.088675359690431, 42.02960400990473 ], [ 26.192733593280547, 42.208130159762604 ], [ 26.498167960044729, 42.130804316052107 ], [ 26.537280407976223, 42.004578787975447 ], [ 26.561544258820302, 41.926273348333019 ], [ 26.571714957621669, 41.892917920035906 ], [ 26.535237781907643, 41.839129340234493 ], [ 26.534864199333779, 41.837891794404506 ], [ 26.534311466102071, 41.837763412191116 ], [ 26.534236951431634, 41.83765353517682 ], [ 26.515874176236572, 41.833481026060852 ], [ 26.365953833974292, 41.798659381607173 ], [ 26.358149499877854, 41.714037444537261 ], [ 26.357879011590075, 41.71110454601785 ], [ 26.090573156212905, 41.704694328760198 ], [ 26.167201383446343, 41.429314004918282 ], [ 26.114253925926683, 41.358534939907955 ], [ 25.948626170277155, 41.320341912027423 ] ] ] } },
{ "type": "Feature", "properties": { "NUTS_ID": "BG423", "name": "Pazardzhik" }, "geometry": { "type": "Polygon", "coordinates": [ [ [ 23.772259771609594, 42.181185381773666 ], [ 23.966085954278288, 42.29810621031173 ], [ 24.029110425534533, 42.418806598622339 ], [ 23.926926335306494, 42.554582789542266 ], [ 24.238352781490477, 42.618569573322304 ], [ 24.421009703607353, 42.553063873708005 ], [ 24.512665310605598, 42.163380903513172 ], [ 24.447231703278931, 42.105430318528057 ], [ 24.442753681228758, 42.004578787766626 ], [ 24.439807136432812, 41.938218353156508 ], [ 24.288902824860742, 41.738855490916841 ], [ 24.074547492117016, 41.672703944988015 ], [ 23.790415513717335, 41.853390840669043 ], [ 23.782041581189105, 42.004578787993601 ], [ 23.772259771609594, 42.181185381773666 ] ] ] } },
{ "type": "Feature", "properties": { "NUTS_ID": "BG424", "name": "Smolyan" }, "geometry": { "type": "Polygon", "coordinates": [ [ [ 24.783955942217055, 41.36018913989296 ], [ 24.522035468197725, 41.547790866284259 ], [ 24.059744082195312, 41.522112174279947 ], [ 24.074547492117016, 41.672703944988015 ], [ 24.288902824860742, 41.738855490916841 ], [ 24.439807136432812, 41.938218353156508 ], [ 24.739066232461667, 41.87983472326831 ], [ 24.835526372609468, 41.701275176867021 ], [ 24.999850922576424, 41.815842150855204 ], [ 25.074224631355111, 41.793476585547069 ], [ 25.081655530420381, 41.6316298361237 ], [ 25.021469404517941, 41.554691421562154 ], [ 25.148775246638991, 41.49382156900694 ], [ 25.179375287305376, 41.310188062277781 ], [ 24.885109271531174, 41.390198682285366 ], [ 24.783955942217055, 41.36018913989296 ] ] ] } },
{ "type": "Feature", "properties": { "NUTS_ID": "BG425", "name": "Kardzhali" }, "geometry": { "type": "Polygon", "coordinates": [ [ [ 25.179375287305376, 41.310188062277781 ], [ 25.148775246638991, 41.49382156900694 ], [ 25.021469404517941, 41.554691421562154 ], [ 25.081655530420381, 41.6316298361237 ], [ 25.074224631355111, 41.793476585547069 ], [ 25.218166811712596, 41.895591164323818 ], [ 25.279224362907158, 41.818084785663039 ], [ 25.600986196392164, 41.743925484005523 ], [ 25.653597475165309, 41.620317325631518 ], [ 25.809319611087162, 41.639446928020142 ], [ 25.837804444366224, 41.427659330060791 ], [ 25.948626170277155, 41.320341912027423 ], [ 25.906437451680773, 41.307575070550051 ], [ 25.224698491864249, 41.264630841318855 ], [ 25.179375287305376, 41.310188062277781 ] ] ] } }
]
}
