{
"type": "FeatureCollection",
"name": "CH",
"crs": { "type": "name", "properties": { "name": "urn:ogc:def:crs:OGC:1.3:CRS84" } },
"features": [
{ "type": "Feature", "properties": { "NUTS_ID": "CH011", "name": "Vaud" }, "geometry": { "type": "MultiPolygon", "coordinates": [ [ [ [ 6.863046736958231, 46.505594152458926 ], [ 7.003008463913817, 46.456756512124635 ], [ 7.237020683463811, 46.553799868995299 ], [ 7.221457125824189, 46.329212469880275 ], [ 7.029418853500268, 46.206366396428201 ], [ 6.821063854843043, 46.427154371898162 ], [ 6.504427307173385, 46.449805835708531 ], [ 6.219546988692885, 46.311877919642335 ], [ 6.125607767618814, 46.317230017215365 ], [ 6.14553146990148, 46.367102670900351 ], [ 6.064002809851224, 46.416229118848761 ], [ 6.138105761744775, 46.557666996075753 ], [ 6.417484737137087, 46.758608126550492 ], [ 6.460010995009191, 46.851551541605929 ], [ 6.700119757162336, 46.919776760722414 ], [ 6.780045824399889, 46.852643164801549 ], [ 6.780112431367009, 46.797181686907095 ], [ 6.901814236607109, 46.714985836280484 ], [ 6.803638724282143, 46.620353332202363 ], [ 6.863046736958231, 46.505594152458926 ] ] ], [ [ [ 7.076006724516827, 46.91561595300395 ], [ 7.03995047185647, 46.879707067631188 ], [ 6.927902119648103, 46.953174636859586 ], [ 7.002286255281075, 46.986723530220829 ], [ 7.039971520892574, 46.979881113103644 ], [ 7.05184721137006, 46.977114868070458 ], [ 7.076006724516827, 46.91561595300395 ] ] ], [ [ [ 6.992821966537558, 46.806389187547623 ], [ 6.913380977504762, 46.779001784199615 ], [ 6.871492162365963, 46.875368135843722 ], [ 6.959650212842789, 46.885717557310727 ], [ 6.992821966537558, 46.806389187547623 ] ] ] ] } },
{ "type": "Feature", "properties": { "NUTS_ID": "CH012", "name": "Valais / Wallis" }, "geometry": { "type": "Polygon", "coordinates": [ [ [ 7.864076428328577, 45.916750421437115 ], [ 7.589798320623923, 45.979787148596117 ], [ 7.164979385485601, 45.862696361692336 ], [ 7.044886013638479, 45.922413068294127 ], [ 6.81807307207967, 46.155506907086846 ], [ 6.821063854843043, 46.427154371898162 ], [ 7.029418853500268, 46.206366396428201 ], [ 7.221457125824189, 46.329212469880275 ], [ 7.730452480915606, 46.428415371601915 ], [ 8.034842908670329, 46.552086409669933 ], [ 8.267255796142829, 46.540025883425798 ], [ 8.410411638087501, 46.65302045885737 ], [ 8.477673256171105, 46.527602610568756 ], [ 8.384716933731539, 46.452158565743893 ], [ 8.130197564243266, 46.274942133773557 ], [ 8.135858342074844, 46.148363014637553 ], [ 7.877137290648188, 45.926955137426276 ], [ 7.864076428328577, 45.916750421437115 ] ] ] } },
{ "type": "Feature", "properties": { "NUTS_ID": "CH013", "name": "Genève" }, "geometry": { "type": "Polygon", "coordinates": [ [ [ 6.125607767618814, 46.317230017215365 ], [ 6.219546988692885, 46.311877919642335 ], [ 6.260953864526128, 46.243721363439803 ], [ 6.215235999264411, 46.193952786851483 ], [ 5.956066776821599, 46.132095503840482 ], [ 6.125607767618814, 46.317230017215365 ] ] ] } },
{ "type": "Feature", "properties": { "NUTS_ID": "CH021", "name": "Bern / Berne" }, "geometry": { "type": "Polygon", "coordinates": [ [ [ 7.221457125824189, 46.329212469880275 ], [ 7.237020683463811, 46.553799868995299 ], [ 7.352139291838403, 46.679212022657744 ], [ 7.303873608368495, 46.755511210682933 ], [ 7.329924821416247, 46.874929821373087 ], [ 7.196822055079216, 46.994247476026693 ], [ 7.05184721137006, 46.977114868070458 ], [ 7.039971520892574, 46.979881113103644 ], [ 7.057310895509389, 47.097306173911633 ], [ 6.905936866671688, 47.112195974381606 ], [ 6.861454088590937, 47.165625666309005 ], [ 7.192644175832817, 47.286241791992445 ], [ 7.552322350240979, 47.321024091370511 ], [ 7.381620710254021, 47.213699619883592 ], [ 7.43063660457917, 47.133092608946356 ], [ 7.642946358467623, 47.166554772954875 ], [ 7.618883572398977, 47.279951324367964 ], [ 7.824728026449564, 47.265637411840515 ], [ 7.838685883679163, 47.234413987443318 ], [ 7.932462862328197, 47.001998652891757 ], [ 7.884005677442734, 46.85526064596867 ], [ 8.049088080441731, 46.788007929035061 ], [ 8.44895943623847, 46.764516881680919 ], [ 8.410411638087501, 46.65302045885737 ], [ 8.267255796142829, 46.540025883425798 ], [ 8.034842908670329, 46.552086409669933 ], [ 7.730452480915606, 46.428415371601915 ], [ 7.221457125824189, 46.329212469880275 ] ] ] } },
{ "type": "Feature", "properties": { "NUTS_ID": "CH022", "name": "Fribourg / Freiburg" }, "geometry": { "type": "Polygon", "coordinates": [ [ [ 6.927902119648103, 46.953174636859586 ], [ 7.03995047185647, 46.879707067631188 ], [ 7.076006724516827, 46.91561595300395 ], [ 7.05184721137006, 46.977114868070458 ], [ 7.196822055079216, 46.994247476026693 ], [ 7.329924821416247, 46.874929821373087 ], [ 7.303873608368495, 46.755511210682933 ], [ 7.352139291838403, 46.679212022657744 ], [ 7.237020683463811, 46.553799868995299 ], [ 7.003008463913817, 46.456756512124635 ], [ 6.863046736958231, 46.505594152458926 ], [ 6.803638724282143, 46.620353332202363 ], [ 6.901814236607109, 46.714985836280484 ], [ 6.780112431367009, 46.797181686907095 ], [ 6.780045824399889, 46.852643164801549 ], [ 6.927902119648103, 46.953174636859586 ] ], [ [ 6.871492162365963, 46.875368135843722 ], [ 6.913380977504762, 46.779001784199615 ], [ 6.992821966537558, 46.806389187547623 ], [ 6.959650212842789, 46.885717557310727 ], [ 6.871492162365963, 46.875368135843722 ] ] ] } },
{ "type": "Feature", "properties": { "NUTS_ID": "CH023", "name": "Solothurn" }, "geometry": { "type": "MultiPolygon", "coordinates": [ [ [ [ 7.671575877528523, 47.373398884080451 ], [ 7.801887169614479, 47.367411367270776 ], [ 7.956852950839111, 47.455200663888967 ], [ 8.005984523149689, 47.358886028214535 ], [ 7.824728026449564, 47.265637411840515 ], [ 7.618883572398977, 47.279951324367964 ], [ 7.642946358467623, 47.166554772954875 ], [ 7.43063660457917, 47.133092608946356 ], [ 7.381620710254021, 47.213699619883592 ], [ 7.552322350240979, 47.321024091370511 ], [ 7.43689018512792, 47.379970464984211 ], [ 7.672869067374457, 47.477875023760959 ], [ 7.671575877528523, 47.373398884080451 ] ] ], [ [ [ 7.507559534870258, 47.463130934782356 ], [ 7.375684280496714, 47.414077146585946 ], [ 7.380893940646048, 47.43189252137509 ], [ 7.51090573428759, 47.502582579004489 ], [ 7.507559534870258, 47.463130934782356 ] ] ] ] } },
{ "type": "Feature", "properties": { "NUTS_ID": "CH024", "name": "Neuchâtel" }, "geometry": { "type": "Polygon", "coordinates": [ [ [ 6.858913935720634, 47.16529459384396 ], [ 6.861454088590937, 47.165625666309005 ], [ 6.905936866671688, 47.112195974381606 ], [ 7.057310895509389, 47.097306173911633 ], [ 7.039971520892574, 46.979881113103644 ], [ 7.002286255281075, 46.986723530220829 ], [ 6.927902119648103, 46.953174636859586 ], [ 6.780045824399889, 46.852643164801549 ], [ 6.700119757162336, 46.919776760722414 ], [ 6.460010995009191, 46.851551541605929 ], [ 6.463757194756843, 46.933990451994241 ], [ 6.858913935720634, 47.16529459384396 ] ] ] } },
{ "type": "Feature", "properties": { "NUTS_ID": "CH025", "name": "Jura" }, "geometry": { "type": "Polygon", "coordinates": [ [ [ 7.380893940646048, 47.43189252137509 ], [ 7.375684280496714, 47.414077146585946 ], [ 7.43689018512792, 47.379970464984211 ], [ 7.552322350240979, 47.321024091370511 ], [ 7.192644175832817, 47.286241791992445 ], [ 6.861454088590937, 47.165625666309005 ], [ 6.858913935720634, 47.16529459384396 ], [ 7.023687589630391, 47.331801895815282 ], [ 6.937906823371682, 47.375441397603389 ], [ 6.939185973117248, 47.43370440354736 ], [ 7.130353228511457, 47.503040429008792 ], [ 7.223615156659127, 47.430181608127263 ], [ 7.380893940646048, 47.43189252137509 ] ] ] } },
{ "type": "Feature", "properties": { "NUTS_ID": "CH031", "name": "Basel-Stadt" }, "geometry": { "type": "Polygon", "coordinates": [ [ [ 7.589039168443982, 47.589878019553737 ], [ 7.634097170369114, 47.561113507279217 ], [ 7.593345462466297, 47.532540240161858 ], [ 7.555159637918207, 47.564563844786676 ], [ 7.589039168443982, 47.589878019553737 ] ] ] } },
{ "type": "Feature", "properties": { "NUTS_ID": "CH032", "name": "Basel-Landschaft" }, "geometry": { "type": "Polygon", "coordinates": [ [ [ 7.555159637918207, 47.564563844786676 ], [ 7.593345462466297, 47.532540240161858 ], [ 7.634097170369114, 47.561113507279217 ], [ 7.713784362883153, 47.539405003086564 ], [ 7.956852950839111, 47.455200663888967 ], [ 7.801887169614479, 47.367411367270776 ], [ 7.671575877528523, 47.373398884080451 ], [ 7.672869067374457, 47.477875023760959 ], [ 7.43689018512792, 47.379970464984211 ], [ 7.375684280496714, 47.414077146585946 ], [ 7.507559534870258, 47.463130934782356 ], [ 7.51090573428759, 47.502582579004489 ], [ 7.555159637918207, 47.564563844786676 ] ] ] } },
{ "type": "Feature", "properties": { "NUTS_ID": "CH033", "name": "Aargau" }, "geometry": { "type": "Polygon", "coordinates": [ [ [ 7.894107271671882, 47.586375113970377 ], [ 8.015890763651324, 47.555350731236054 ], [ 8.228042002340962, 47.611905794289754 ], [ 8.426434680008422, 47.567548922010324 ], [ 8.378674800413592, 47.463866956736659 ], [ 8.410715796555881, 47.248037406395056 ], [ 8.412129711505591, 47.140737549681269 ], [ 8.271232540966063, 47.263704357390296 ], [ 7.838685883679163, 47.234413987443318 ], [ 7.824728026449564, 47.265637411840515 ], [ 8.005984523149689, 47.358886028214535 ], [ 7.956852950839111, 47.455200663888967 ], [ 7.713784362883153, 47.539405003086564 ], [ 7.894107271671882, 47.586375113970377 ] ] ] } },
{ "type": "Feature", "properties": { "NUTS_ID": "CH040", "name": "Zürich" }, "geometry": { "type": "Polygon", "coordinates": [ [ [ 8.807784293054741, 47.220560134028325 ], [ 8.692483513347566, 47.163624939837113 ], [ 8.410715796555881, 47.248037406395056 ], [ 8.378674800413592, 47.463866956736659 ], [ 8.426434680008422, 47.567548922010324 ], [ 8.606369523029725, 47.669005578068131 ], [ 8.66335415961453, 47.685892632616216 ], [ 8.670461193533225, 47.684862441850115 ], [ 8.802542819570041, 47.637542349955282 ], [ 8.94363554200484, 47.375837651182486 ], [ 8.949570020058955, 47.284480384468914 ], [ 8.807784293054741, 47.220560134028325 ] ] ] } },
{ "type": "Feature", "properties": { "NUTS_ID": "CH051", "name": "Glarus" }, "geometry": { "type": "Polygon", "coordinates": [ [ [ 8.877168532730977, 46.813123615839118 ], [ 8.935079130448528, 46.92020815489726 ], [ 8.917784719863965, 47.027389186857576 ], [ 9.00456525702589, 47.173145371804672 ], [ 9.177504386414089, 47.107458949174486 ], [ 9.248880446555273, 46.916260843191232 ], [ 8.877168532730977, 46.813123615839118 ] ] ] } },
{ "type": "Feature", "properties": { "NUTS_ID": "CH052", "name": "Schaffhausen" }, "geometry": { "type": "MultiPolygon", "coordinates": [ [ [ [ 8.850247057345271, 47.704394747236719 ], [ 8.874888089644811, 47.654669926139242 ], [ 8.795708326923085, 47.675595535585323 ], [ 8.821322309672613, 47.704217464319541 ], [ 8.850247057345271, 47.704394747236719 ] ] ], [ [ [ 8.66335415961453, 47.685892632616216 ], [ 8.606369523029725, 47.669005578068131 ], [ 8.435063145881234, 47.676150284270207 ], [ 8.510114897850723, 47.7761904129746 ], [ 8.613831660502878, 47.801079061898491 ], [ 8.71538005023014, 47.750154841994096 ], [ 8.66335415961453, 47.685892632616216 ] ] ] ] } },
{ "type": "Feature", "properties": { "NUTS_ID": "CH053", "name": "Appenzell Ausserrhoden" }, "geometry": { "type": "Polygon", "coordinates": [ [ [ 9.342937535162438, 47.249336902819437 ], [ 9.230246830179015, 47.297283615681287 ], [ 9.258641228557403, 47.386474254847876 ], [ 9.515829445482577, 47.445124750552154 ], [ 9.502979172995971, 47.34737060543501 ], [ 9.364457928243354, 47.368936492928121 ], [ 9.323069234297067, 47.317283866758999 ], [ 9.342937535162438, 47.249336902819437 ] ] ] } },
{ "type": "Feature", "properties": { "NUTS_ID": "CH054", "name": "Appenzell Innerrhoden" }, "geometry": { "type": "Polygon", "coordinates": [ [ [ 9.342937535162438, 47.249336902819437 ], [ 9.323069234297067, 47.317283866758999 ], [ 9.364457928243354, 47.368936492928121 ], [ 9.502979172995971, 47.34737060543501 ], [ 9.445968004257491, 47.266988826275615 ], [ 9.342937535162438, 47.249336902819437 ] ] ] } },
{ "type": "Feature", "properties": { "NUTS_ID": "CH055", "name": "St. Gallen" }, "geometry": { "type": "Polygon", "coordinates": [ [ [ 9.248880446555273, 46.916260843191232 ], [ 9.177504386414089, 47.107458949174486 ], [ 9.00456525702589, 47.173145371804672 ], [ 8.807784293054741, 47.220560134028325 ], [ 8.949570020058955, 47.284480384468914 ], [ 8.94363554200484, 47.375837651182486 ], [ 9.045798845478888, 47.486512271776114 ], [ 9.395605054256665, 47.490748369888962 ], [ 9.50694722543259, 47.549736364505513 ], [ 9.558720701645559, 47.54189287460278 ], [ 9.655516696573102, 47.405211265380174 ], [ 9.530749051451899, 47.270581012081259 ], [ 9.510387870146436, 47.231780652939769 ], [ 9.487607900294439, 47.190294411659458 ], [ 9.515219953935688, 47.121946060678262 ], [ 9.512246786361596, 47.085359648964882 ], [ 9.480350925806068, 47.067670355359404 ], [ 9.476047355473506, 47.051797490728305 ], [ 9.526273945512017, 46.977310925386284 ], [ 9.462839742015641, 46.894973506077847 ], [ 9.248880446555273, 46.916260843191232 ] ], [ [ 9.342937535162438, 47.249336902819437 ], [ 9.445968004257491, 47.266988826275615 ], [ 9.502979172995971, 47.34737060543501 ], [ 9.515829445482577, 47.445124750552154 ], [ 9.258641228557403, 47.386474254847876 ], [ 9.230246830179015, 47.297283615681287 ], [ 9.342937535162438, 47.249336902819437 ] ] ] } },
{ "type": "Feature", "properties": { "NUTS_ID": "CH056", "name": "Graubünden / Grigioni / Grischun" }, "geometry": { "type": "Polygon", "coordinates": [ [ [ 10.4528011864139, 46.53068305387368 ], [ 10.208885221218065, 46.621747470086795 ], [ 10.084912314637617, 46.570596296297509 ], [ 10.048212119570106, 46.473138170691513 ], [ 10.131632638924437, 46.397432672754739 ], [ 10.153615759724159, 46.270524804614851 ], [ 10.097203280476789, 46.237583510920025 ], [ 9.91501254590505, 46.369679225172241 ], [ 9.696925689639629, 46.299869962782573 ], [ 9.546284511438991, 46.31600666592648 ], [ 9.438267698325829, 46.479373974040477 ], [ 9.317495114370795, 46.496360461186526 ], [ 9.263576577435824, 46.453248845497349 ], [ 9.248531338543906, 46.233767857136208 ], [ 9.159377254691004, 46.169600827015152 ], [ 9.071939149961388, 46.257762960924218 ], [ 9.086576035236702, 46.434260434816551 ], [ 9.014539577337237, 46.596304698231947 ], [ 8.678728929557257, 46.579189430100996 ], [ 8.680428914563629, 46.68316964007208 ], [ 8.877168532730977, 46.813123615839118 ], [ 9.248880446555273, 46.916260843191232 ], [ 9.462839742015641, 46.894973506077847 ], [ 9.526273945512017, 46.977310925386284 ], [ 9.476047355473506, 47.051797490728305 ], [ 9.53975146163261, 47.065144603275627 ], [ 9.602817781679216, 47.061893874467266 ], [ 9.607078007215934, 47.060774530370892 ], [ 9.817761053859488, 47.029599579158294 ], [ 9.904041989542071, 46.932877881292455 ], [ 10.144974674057718, 46.851009478634374 ], [ 10.393509979464147, 46.982830104621428 ], [ 10.47109680929425, 46.936839763618792 ], [ 10.469651302255382, 46.854908998200997 ], [ 10.398166799595137, 46.680282722609803 ], [ 10.472954115181354, 46.603405977727697 ], [ 10.4528011864139, 46.53068305387368 ] ] ] } },
{ "type": "Feature", "properties": { "NUTS_ID": "CH057", "name": "Thurgau" }, "geometry": { "type": "Polygon", "coordinates": [ [ [ 8.94363554200484, 47.375837651182486 ], [ 8.802542819570041, 47.637542349955282 ], [ 8.670461193533225, 47.684862441850115 ], [ 8.795708326923085, 47.675595535585323 ], [ 8.874888089644811, 47.654669926139242 ], [ 9.182192185698026, 47.65589045048349 ], [ 9.50694722543259, 47.549736364505513 ], [ 9.395605054256665, 47.490748369888962 ], [ 9.045798845478888, 47.486512271776114 ], [ 8.94363554200484, 47.375837651182486 ] ] ] } },
{ "type": "Feature", "properties": { "NUTS_ID": "CH061", "name": "Luzern" }, "geometry": { "type": "Polygon", "coordinates": [ [ [ 7.838685883679163, 47.234413987443318 ], [ 8.271232540966063, 47.263704357390296 ], [ 8.412129711505591, 47.140737549681269 ], [ 8.492978602527577, 47.100201082109358 ], [ 8.436936985379422, 47.075739865403989 ], [ 8.468156421815063, 46.996524629885279 ], [ 8.346719564100887, 47.013964249631123 ], [ 8.228819152701384, 46.973145509936636 ], [ 8.082250613432388, 46.884748876175038 ], [ 8.049088080441731, 46.788007929035061 ], [ 7.884005677442734, 46.85526064596867 ], [ 7.932462862328197, 47.001998652891757 ], [ 7.838685883679163, 47.234413987443318 ] ] ] } },
{ "type": "Feature", "properties": { "NUTS_ID": "CH062", "name": "Uri" }, "geometry": { "type": "Polygon", "coordinates": [ [ [ 8.410411638087501, 46.65302045885737 ], [ 8.44895943623847, 46.764516881680919 ], [ 8.47198762809241, 46.855351975244851 ], [ 8.571238894764708, 46.990161103245136 ], [ 8.686884471154542, 46.927263388897217 ], [ 8.935079130448528, 46.92020815489726 ], [ 8.877168532730977, 46.813123615839118 ], [ 8.680428914563629, 46.68316964007208 ], [ 8.678728929557257, 46.579189430100996 ], [ 8.477673256171105, 46.527602610568756 ], [ 8.410411638087501, 46.65302045885737 ] ] ] } },
{ "type": "Feature", "properties": { "NUTS_ID": "CH063", "name": "Schwyz" }, "geometry": { "type": "Polygon", "coordinates": [ [ [ 8.571238894764708, 46.990161103245136 ], [ 8.468156421815063, 46.996524629885279 ], [ 8.436936985379422, 47.075739865403989 ], [ 8.492978602527577, 47.100201082109358 ], [ 8.621268641173119, 47.101249677757544 ], [ 8.692483513347566, 47.163624939837113 ], [ 8.807784293054741, 47.220560134028325 ], [ 9.00456525702589, 47.173145371804672 ], [ 8.917784719863965, 47.027389186857576 ], [ 8.935079130448528, 46.92020815489726 ], [ 8.686884471154542, 46.927263388897217 ], [ 8.571238894764708, 46.990161103245136 ] ] ] } },
{ "type": "Feature", "properties": { "NUTS_ID": "CH064", "name": "Obwalden" }, "geometry": { "type": "Polygon", "coordinates": [ [ [ 8.049088080441731, 46.788007929035061 ], [ 8.082250613432388, 46.884748876175038 ], [ 8.228819152701384, 46.973145509936636 ], [ 8.317204544207321, 46.945835469309415 ], [ 8.339359986123831, 46.840888829754334 ], [ 8.47198762809241, 46.855351975244851 ], [ 8.44895943623847, 46.764516881680919 ], [ 8.049088080441731, 46.788007929035061 ] ] ] } },
{ "type": "Feature", "properties": { "NUTS_ID": "CH065", "name": "Nidwalden" }, "geometry": { "type": "Polygon", "coordinates": [ [ [ 8.47198762809241, 46.855351975244851 ], [ 8.339359986123831, 46.840888829754334 ], [ 8.317204544207321, 46.945835469309415 ], [ 8.228819152701384, 46.973145509936636 ], [ 8.346719564100887, 47.013964249631123 ], [ 8.468156421815063, 46.996524629885279 ], [ 8.571238894764708, 46.990161103245136 ], [ 8.47198762809241, 46.855351975244851 ] ] ] } },
{ "type": "Feature", "properties": { "NUTS_ID": "CH066", "name": "Zug" }, "geometry": { "type": "Polygon", "coordinates": [ [ [ 8.410715796555881, 47.248037406395056 ], [ 8.692483513347566, 47.163624939837113 ], [ 8.621268641173119, 47.101249677757544 ], [ 8.492978602527577, 47.100201082109358 ], [ 8.412129711505591, 47.140737549681269 ], [ 8.410715796555881, 47.248037406395056 ] ] ] } },
{ "type": "Feature", "properties": { "NUTS_ID": "CH070", "name": "Ticino" }, "geometry": { "type": "Polygon", "coordinates": [ [ [ 8.477673256171105, 46.527602610568756 ], [ 8.678728929557257, 46.579189430100996 ], [ 9.014539577337237, 46.596304698231947 ], [ 9.086576035236702, 46.434260434816551 ], [ 9.071939149961388, 46.257762960924218 ], [ 9.159377254691004, 46.169600827015152 ], [ 9.011459098694418, 46.013928673444561 ], [ 9.057613339545997, 45.860551795523214 ], [ 8.912146832221961, 45.830445076440007 ], [ 8.912914089369746, 45.918621614903884 ], [ 8.809260427737895, 45.995512180480333 ], [ 8.825443814276392, 46.069474889741848 ], [ 8.713935970650262, 46.097271949835765 ], [ 8.463298231116246, 46.251014087663357 ], [ 8.457142173561715, 46.420734265068404 ], [ 8.384716933731539, 46.452158565743893 ], [ 8.477673256171105, 46.527602610568756 ] ] ] } }
]
}
