{
"type": "FeatureCollection",
"name": "CY",
"crs": { "type": "name", "properties": { "name": "urn:ogc:def:crs:OGC:1.3:CRS84" } },
"features": [
{ "type": "Feature", "properties": { "NUTS_ID": "CY000", "name": "Kýpros" }, "geometry": { "type": "Polygon", "coordinates": [ [ [ 34.589055922073406, 35.693440913267132 ], [ 34.56288185136922, 35.636333847795555 ], [ 34.382042814671095, 35.531637564189232 ], [ 34.118779118588527, 35.428087643925934 ], [ 34.054173220337603, 35.328597392262161 ], [ 33.951360372688811, 35.296070925168124 ], [ 33.915668458274418, 35.184236256700579 ], [ 33.92042737940308, 35.112852426400543 ], [ 34.08698965042182, 34.965325844403885 ], [ 33.948581717636586, 35.00512122850904 ], [ 33.031052019691053, 34.615716519530451 ], [ 32.453158875943409, 34.758698362472494 ], [ 32.322339657644179, 34.91167439321066 ], [ 32.26096010360407, 35.081026980497299 ], [ 32.76561171124122, 35.188296301518491 ], [ 33.045363901223268, 35.366574618997035 ], [ 33.494503859622576, 35.331762839971503 ], [ 33.861583425990936, 35.413348812563441 ], [ 34.589055922073406, 35.693440913267132 ] ] ] } }
]
}
