{
"type": "FeatureCollection",
"name": "CZ",
"crs": { "type": "name", "properties": { "name": "urn:ogc:def:crs:OGC:1.3:CRS84" } },
"features": [
{ "type": "Feature", "properties": { "NUTS_ID": "CZ010", "name": "Hlavní město Praha" }, "geometry": { "type": "Polygon", "coordinates": [ [ [ 14.249759370782964, 50.100969224233026 ], [ 14.509868495582213, 50.180189024387509 ], [ 14.690853052611763, 50.075392599062539 ], [ 14.647743813203039, 50.003526551602761 ], [ 14.368358288143387, 49.95222065674146 ], [ 14.249759370782964, 50.100969224233026 ] ] ] } },
{ "type": "Feature", "properties": { "NUTS_ID": "CZ020", "name": "Středočeský kraj" }, "geometry": { "type": "Polygon", "coordinates": [ [ [ 15.437586626527199, 50.109857546751492 ], [ 15.420671079540373, 50.035229961166777 ], [ 15.517011071004848, 49.946563554933732 ], [ 15.496953093232973, 49.861184647120922 ], [ 15.228902205408936, 49.741087959227926 ], [ 15.205628802169672, 49.610567620069681 ], [ 14.932018726363331, 49.54910091617166 ], [ 14.784189247548639, 49.599866958983746 ], [ 14.652758937349569, 49.518185688849094 ], [ 14.26446276045375, 49.554399530448791 ], [ 13.765590469643774, 49.513990462350009 ], [ 13.823623902838982, 49.708318989493755 ], [ 13.803315919623881, 49.909953491669583 ], [ 13.407053290095718, 50.08961704705905 ], [ 14.030645672349534, 50.337324019098865 ], [ 14.321039717155257, 50.345058278647741 ], [ 14.486485545811153, 50.505027080004922 ], [ 14.667780385616853, 50.489723143002266 ], [ 14.939753872330876, 50.603292844403597 ], [ 15.146770549377544, 50.522942593224187 ], [ 15.150360281276654, 50.342671376772039 ], [ 15.366481419503257, 50.269916715710181 ], [ 15.371981181898544, 50.150595013856304 ], [ 15.437586626527199, 50.109857546751492 ] ], [ [ 14.249759370782964, 50.100969224233026 ], [ 14.368358288143387, 49.95222065674146 ], [ 14.647743813203039, 50.003526551602761 ], [ 14.690853052611763, 50.075392599062539 ], [ 14.509868495582213, 50.180189024387509 ], [ 14.249759370782964, 50.100969224233026 ] ] ] } },
{ "type": "Feature", "properties": { "NUTS_ID": "CZ031", "name": "Jihočeský kraj" }, "geometry": { "type": "Polygon", "coordinates": [ [ [ 13.839507129477148, 48.771605025728434 ], [ 13.551578318067449, 48.967787491903266 ], [ 13.773189733436302, 49.366410906991071 ], [ 13.765590469643774, 49.513990462350009 ], [ 14.26446276045375, 49.554399530448791 ], [ 14.652758937349569, 49.518185688849094 ], [ 14.784189247548639, 49.599866958983746 ], [ 14.932018726363331, 49.54910091617166 ], [ 14.903084553675109, 49.387280624725967 ], [ 14.946348332129093, 49.314746241128013 ], [ 15.538112038428578, 49.104443157877292 ], [ 15.586756447525303, 48.947159613585299 ], [ 15.542449603460929, 48.907696908661677 ], [ 15.015611872761564, 48.999242837480196 ], [ 14.952016051346385, 48.798113119415589 ], [ 14.818403696652886, 48.761041010820755 ], [ 14.691013826373037, 48.584301926872868 ], [ 14.489529155694907, 48.630204968940376 ], [ 14.345616987044242, 48.563311637832385 ], [ 14.114430933765902, 48.593379204386764 ], [ 13.839507129477148, 48.771605025728434 ] ] ] } },
{ "type": "Feature", "properties": { "NUTS_ID": "CZ032", "name": "Plzeňský kraj" }, "geometry": { "type": "Polygon", "coordinates": [ [ [ 13.407053290095718, 50.08961704705905 ], [ 13.803315919623881, 49.909953491669583 ], [ 13.823623902838982, 49.708318989493755 ], [ 13.765590469643774, 49.513990462350009 ], [ 13.773189733436302, 49.366410906991071 ], [ 13.551578318067449, 48.967787491903266 ], [ 13.416651532457561, 48.980035365222726 ], [ 13.170907942944529, 49.173579628373552 ], [ 12.984293566056765, 49.322934510310382 ], [ 12.792186180188279, 49.358154837338283 ], [ 12.6337634327997, 49.476195108856487 ], [ 12.6371073806766, 49.520279909947305 ], [ 12.593778744487658, 49.542191354505832 ], [ 12.401524208507894, 49.758373119054326 ], [ 12.550988701578722, 49.905088076665379 ], [ 12.923787943627152, 49.930822409241586 ], [ 13.086955007899384, 50.019949720969429 ], [ 13.215135681819797, 50.013783316715127 ], [ 13.301367234845147, 50.099643377070088 ], [ 13.407053290095718, 50.08961704705905 ] ] ] } },
{ "type": "Feature", "properties": { "NUTS_ID": "CZ041", "name": "Karlovarský kraj" }, "geometry": { "type": "Polygon", "coordinates": [ [ [ 13.301367234845147, 50.099643377070088 ], [ 13.215135681819797, 50.013783316715127 ], [ 13.086955007899384, 50.019949720969429 ], [ 12.923787943627152, 49.930822409241586 ], [ 12.550988701578722, 49.905088076665379 ], [ 12.260798922794876, 50.058156653040022 ], [ 12.160679128638748, 50.219849101156044 ], [ 12.100900624937974, 50.318028073181836 ], [ 12.173330873448766, 50.312226828729862 ], [ 12.316772118253605, 50.181643041390515 ], [ 12.410605048792103, 50.318182285114908 ], [ 12.583778452584477, 50.407078914137081 ], [ 12.805882302489875, 50.450163269883966 ], [ 12.948144599616004, 50.404311466954958 ], [ 13.209586981704897, 50.338684729868426 ], [ 13.301367234845147, 50.099643377070088 ] ] ] } },
{ "type": "Feature", "properties": { "NUTS_ID": "CZ042", "name": "Ústecký kraj" }, "geometry": { "type": "Polygon", "coordinates": [ [ [ 14.618799759626604, 50.85780447507743 ], [ 14.447539718920469, 50.78825019591666 ], [ 14.368710045115465, 50.690556283794272 ], [ 14.486485545811153, 50.505027080004922 ], [ 14.321039717155257, 50.345058278647741 ], [ 14.030645672349534, 50.337324019098865 ], [ 13.407053290095718, 50.08961704705905 ], [ 13.301367234845147, 50.099643377070088 ], [ 13.209586981704897, 50.338684729868426 ], [ 12.948144599616004, 50.404311466954958 ], [ 13.049709383691786, 50.498390466264333 ], [ 13.501846054285314, 50.633643030747912 ], [ 13.652174078192358, 50.730359932729627 ], [ 13.829683215793668, 50.732738471878328 ], [ 14.362585839509364, 50.904190289308183 ], [ 14.282124880801467, 51.000810358777372 ], [ 14.317873514431971, 51.054699131362433 ], [ 14.491221239470242, 51.043530409235274 ], [ 14.583493685508524, 50.98051129801371 ], [ 14.618799759626604, 50.85780447507743 ] ] ] } },
{ "type": "Feature", "properties": { "NUTS_ID": "CZ051", "name": "Liberecký kraj" }, "geometry": { "type": "Polygon", "coordinates": [ [ [ 15.535267653333049, 50.779375994673657 ], [ 15.585042921635594, 50.534522550395664 ], [ 15.146770549377544, 50.522942593224187 ], [ 14.939753872330876, 50.603292844403597 ], [ 14.667780385616853, 50.489723143002266 ], [ 14.486485545811153, 50.505027080004922 ], [ 14.368710045115465, 50.690556283794272 ], [ 14.447539718920469, 50.78825019591666 ], [ 14.618799759626604, 50.85780447507743 ], [ 14.755768952401572, 50.826100185080541 ], [ 14.823362000421843, 50.870550369710386 ], [ 14.975495677098825, 50.878695204442188 ], [ 15.072179248470244, 51.009693120981773 ], [ 15.242099654022422, 50.983897191955919 ], [ 15.376984481263436, 50.801499199158016 ], [ 15.535267653333049, 50.779375994673657 ] ] ] } },
{ "type": "Feature", "properties": { "NUTS_ID": "CZ052", "name": "Královéhradecký kraj" }, "geometry": { "type": "Polygon", "coordinates": [ [ [ 16.107318043110627, 50.662073016856034 ], [ 16.412450131782364, 50.602671954994982 ], [ 16.246438114972303, 50.431303299705839 ], [ 16.50747719978958, 50.259613182103543 ], [ 16.580289973043303, 50.142788096592604 ], [ 16.238694743883926, 50.044711776490892 ], [ 15.94703383814722, 50.158226157307183 ], [ 15.437586626527199, 50.109857546751492 ], [ 15.371981181898544, 50.150595013856304 ], [ 15.366481419503257, 50.269916715710181 ], [ 15.150360281276654, 50.342671376772039 ], [ 15.146770549377544, 50.522942593224187 ], [ 15.585042921635594, 50.534522550395664 ], [ 15.535267653333049, 50.779375994673657 ], [ 15.80730848927638, 50.739624854814068 ], [ 16.029246709912908, 50.634632132401549 ], [ 16.107318043110627, 50.662073016856034 ] ] ] } },
{ "type": "Feature", "properties": { "NUTS_ID": "CZ053", "name": "Pardubický kraj" }, "geometry": { "type": "Polygon", "coordinates": [ [ [ 16.863269830285379, 50.19812309777074 ], [ 16.746953515249569, 49.971593049672471 ], [ 16.755331187861184, 49.82559584907542 ], [ 16.832337813814195, 49.707670382989555 ], [ 16.804200031970709, 49.598813014795532 ], [ 16.60454059154867, 49.62605792505888 ], [ 16.393628168437122, 49.5806105971919 ], [ 15.496953093232973, 49.861184647120922 ], [ 15.517011071004848, 49.946563554933732 ], [ 15.420671079540373, 50.035229961166777 ], [ 15.437586626527199, 50.109857546751492 ], [ 15.94703383814722, 50.158226157307183 ], [ 16.238694743883926, 50.044711776490892 ], [ 16.580289973043303, 50.142788096592604 ], [ 16.714047805327933, 50.116210218928387 ], [ 16.863269830285379, 50.19812309777074 ] ] ] } },
{ "type": "Feature", "properties": { "NUTS_ID": "CZ063", "name": "Kraj Vysočina" }, "geometry": { "type": "Polygon", "coordinates": [ [ [ 16.393628168437122, 49.5806105971919 ], [ 16.390886132936945, 49.515319680460784 ], [ 16.242518749906285, 49.377811872773243 ], [ 16.251204173974322, 49.190856425413308 ], [ 16.185792601340392, 49.070249506580048 ], [ 15.586756447525303, 48.947159613585299 ], [ 15.538112038428578, 49.104443157877292 ], [ 14.946348332129093, 49.314746241128013 ], [ 14.903084553675109, 49.387280624725967 ], [ 14.932018726363331, 49.54910091617166 ], [ 15.205628802169672, 49.610567620069681 ], [ 15.228902205408936, 49.741087959227926 ], [ 15.496953093232973, 49.861184647120922 ], [ 16.393628168437122, 49.5806105971919 ] ] ] } },
{ "type": "Feature", "properties": { "NUTS_ID": "CZ064", "name": "Jihomoravský kraj" }, "geometry": { "type": "Polygon", "coordinates": [ [ [ 15.542449603460929, 48.907696908661677 ], [ 15.586756447525303, 48.947159613585299 ], [ 16.185792601340392, 49.070249506580048 ], [ 16.251204173974322, 49.190856425413308 ], [ 16.242518749906285, 49.377811872773243 ], [ 16.390886132936945, 49.515319680460784 ], [ 16.393628168437122, 49.5806105971919 ], [ 16.60454059154867, 49.62605792505888 ], [ 16.804200031970709, 49.598813014795532 ], [ 16.835400817888075, 49.412033708169687 ], [ 16.939866295083409, 49.476888133380157 ], [ 17.15990139024505, 49.275057398362925 ], [ 17.172204858824184, 49.092908245449308 ], [ 17.646930065533351, 48.854265880434816 ], [ 17.396725476005503, 48.813350116468172 ], [ 17.17233346495836, 48.854756710270436 ], [ 16.940278025624135, 48.617245444121018 ], [ 16.885865169861635, 48.708720423382374 ], [ 16.550801152717774, 48.807222848806624 ], [ 16.292756518093618, 48.733851929593591 ], [ 15.753633425545445, 48.852178442582527 ], [ 15.542449603460929, 48.907696908661677 ] ] ] } },
{ "type": "Feature", "properties": { "NUTS_ID": "CZ071", "name": "Olomoucký kraj" }, "geometry": { "type": "Polygon", "coordinates": [ [ [ 17.429605127301027, 50.254512985168382 ], [ 17.252290649679914, 50.136911476932468 ], [ 17.175717451541985, 49.860551814000104 ], [ 17.634554951534636, 49.755774025870608 ], [ 17.916856552926024, 49.537808938076786 ], [ 17.15990139024505, 49.275057398362925 ], [ 16.939866295083409, 49.476888133380157 ], [ 16.835400817888075, 49.412033708169687 ], [ 16.804200031970709, 49.598813014795532 ], [ 16.832337813814195, 49.707670382989555 ], [ 16.755331187861184, 49.82559584907542 ], [ 16.746953515249569, 49.971593049672471 ], [ 16.863269830285379, 50.19812309777074 ], [ 16.995412202570485, 50.269822887256041 ], [ 16.885837294231926, 50.406872596175866 ], [ 16.907924285709935, 50.449454076315305 ], [ 17.429605127301027, 50.254512985168382 ] ] ] } },
{ "type": "Feature", "properties": { "NUTS_ID": "CZ072", "name": "Zlínský kraj" }, "geometry": { "type": "Polygon", "coordinates": [ [ [ 18.403595554276631, 49.396745481822229 ], [ 18.322436010753059, 49.315059008905031 ], [ 18.169787688507007, 49.263515321085741 ], [ 18.066950743450498, 49.0496400342982 ], [ 17.646930065533351, 48.854265880434816 ], [ 17.172204858824184, 49.092908245449308 ], [ 17.15990139024505, 49.275057398362925 ], [ 17.916856552926024, 49.537808938076786 ], [ 18.269823363665896, 49.490752102165537 ], [ 18.403595554276631, 49.396745481822229 ] ] ] } },
{ "type": "Feature", "properties": { "NUTS_ID": "CZ080", "name": "Moravskoslezský kraj" }, "geometry": { "type": "Polygon", "coordinates": [ [ [ 18.03506107939371, 50.065772019856844 ], [ 18.326967652326157, 49.928493486701655 ], [ 18.575724146611829, 49.910422957243448 ], [ 18.612683533496526, 49.754738505044351 ], [ 18.798398669007383, 49.661298009950023 ], [ 18.851551020597427, 49.51718893547573 ], [ 18.57812054252771, 49.49797549015252 ], [ 18.403595554276631, 49.396745481822229 ], [ 18.269823363665896, 49.490752102165537 ], [ 17.916856552926024, 49.537808938076786 ], [ 17.634554951534636, 49.755774025870608 ], [ 17.175717451541985, 49.860551814000104 ], [ 17.252290649679914, 50.136911476932468 ], [ 17.429605127301027, 50.254512985168382 ], [ 17.728317119825761, 50.286230407267134 ], [ 17.736279737137142, 50.214247274652458 ], [ 17.654579408604707, 50.13423108931616 ], [ 17.843510831389281, 49.989814735148698 ], [ 18.03506107939371, 50.065772019856844 ] ] ] } }
]
}
