{
"type": "FeatureCollection",
"name": "DK",
"crs": { "type": "name", "properties": { "name": "urn:ogc:def:crs:OGC:1.3:CRS84" } },
"features": [
{ "type": "Feature", "properties": { "NUTS_ID": "DK011", "name": "Byen København" }, "geometry": { "type": "MultiPolygon", "coordinates": [ [ [ [ 12.781719070717374, 55.691449837940077 ], [ 12.809593063111933, 55.593022959587927 ], [ 12.680736956322983, 55.59640097714896 ], [ 12.735715324817875, 55.683310357399634 ], [ 12.781719070717374, 55.691449837940077 ] ] ], [ [ [ 12.654635730637914, 55.589819017866979 ], [ 12.566066668972155, 55.568599050294026 ], [ 12.504789477741687, 55.637340512050656 ], [ 12.479001481258317, 55.706161328134868 ], [ 12.584057890294735, 55.721808733712649 ], [ 12.654635730637914, 55.589819017866979 ] ] ] ] } },
{ "type": "Feature", "properties": { "NUTS_ID": "DK012", "name": "Københavns omegn" }, "geometry": { "type": "Polygon", "coordinates": [ [ [ 12.363475851062134, 55.593808394221298 ], [ 12.169808010497679, 55.630898637949961 ], [ 12.250787642748701, 55.708413913641202 ], [ 12.58257979639264, 55.808118603991574 ], [ 12.584057890294735, 55.721808733712649 ], [ 12.479001481258317, 55.706161328134868 ], [ 12.504789477741687, 55.637340512050656 ], [ 12.363475851062134, 55.593808394221298 ] ] ] } },
{ "type": "Feature", "properties": { "NUTS_ID": "DK013", "name": "Nordsjælland" }, "geometry": { "type": "Polygon", "coordinates": [ [ [ 12.58257979639264, 55.808118603991574 ], [ 12.250787642748701, 55.708413913641202 ], [ 12.08965011066903, 55.780855248379595 ], [ 11.980778747371653, 55.730123077947049 ], [ 11.876209550653204, 55.737443192588721 ], [ 11.93690085228231, 55.857620037059505 ], [ 11.883620588742788, 55.980919666998119 ], [ 12.266286589282172, 56.123534578219576 ], [ 12.59181472668562, 56.045693354662909 ], [ 12.535404749566103, 55.918016764651284 ], [ 12.58257979639264, 55.808118603991574 ] ] ] } },
{ "type": "Feature", "properties": { "NUTS_ID": "DK014", "name": "Bornholm" }, "geometry": { "type": "Polygon", "coordinates": [ [ [ 14.702640225337491, 55.123714700988472 ], [ 14.714947838767443, 55.216222103862393 ], [ 14.774421641087716, 55.285272806663279 ], [ 15.155020049335938, 55.123714701378894 ], [ 15.112933737360805, 55.019826677281486 ], [ 15.049556326438767, 54.993320804514639 ], [ 14.770874195183691, 55.057038473258679 ], [ 14.702640225337491, 55.123714700988472 ] ] ] } },
{ "type": "Feature", "properties": { "NUTS_ID": "DK021", "name": "Østsjælland" }, "geometry": { "type": "Polygon", "coordinates": [ [ [ 12.21682600351344, 55.427822009930182 ], [ 12.137205909744706, 55.37523998662666 ], [ 11.988822519262747, 55.400697151616299 ], [ 11.779643663323, 55.65899448884371 ], [ 11.876209550653204, 55.737443192588721 ], [ 11.980778747371653, 55.730123077947049 ], [ 12.08965011066903, 55.780855248379595 ], [ 12.250787642748701, 55.708413913641202 ], [ 12.169808010497679, 55.630898637949961 ], [ 12.363475851062134, 55.593808394221298 ], [ 12.230210192490103, 55.523813055914943 ], [ 12.21682600351344, 55.427822009930182 ] ] ] } },
{ "type": "Feature", "properties": { "NUTS_ID": "DK022", "name": "Vest- og Sydsjælland" }, "geometry": { "type": "Polygon", "coordinates": [ [ [ 12.21682600351344, 55.427822009930182 ], [ 12.367984196940435, 55.315764620667679 ], [ 12.172676769051057, 55.190331547058541 ], [ 12.161429589329021, 55.086978882789403 ], [ 12.341735868246193, 54.944337829758524 ], [ 11.980654866990712, 54.656321460721593 ], [ 11.886923920598825, 54.723339466745252 ], [ 11.757018209200277, 54.650983208654267 ], [ 11.484761711734679, 54.629520605936676 ], [ 11.094954248498251, 54.770360689031513 ], [ 11.065203637817426, 54.85620583849937 ], [ 11.133417020105052, 54.918227599628572 ], [ 11.555506913984537, 54.866084749254433 ], [ 11.83564066005054, 54.988638205677006 ], [ 11.693700904522796, 55.127603379993978 ], [ 11.224223298660009, 55.285191846091635 ], [ 11.104472299265794, 55.698860438824674 ], [ 11.644671253224129, 55.925344868187217 ], [ 11.721125325359356, 55.872161119888155 ], [ 11.779643663323, 55.65899448884371 ], [ 11.988822519262747, 55.400697151616299 ], [ 12.137205909744706, 55.37523998662666 ], [ 12.21682600351344, 55.427822009930182 ] ] ] } },
{ "type": "Feature", "properties": { "NUTS_ID": "DK031", "name": "Fyn" }, "geometry": { "type": "MultiPolygon", "coordinates": [ [ [ [ 10.251196333710075, 55.610345431432933 ], [ 10.508583651653842, 55.503269406389769 ], [ 10.649556773529305, 55.569046374811876 ], [ 10.786659466377834, 55.316182361016949 ], [ 10.770174634586247, 55.118184098506994 ], [ 10.588772106421008, 54.965557829969129 ], [ 10.156082335719121, 55.056715695232569 ], [ 10.08863474311311, 55.170247099334489 ], [ 9.954035861712594, 55.202052527317868 ], [ 9.705880383494282, 55.508247861067304 ], [ 10.251196333710075, 55.610345431432933 ] ] ], [ [ [ 10.777054175640234, 54.839121256015311 ], [ 10.681172037315429, 54.659709620435635 ], [ 10.557713397975128, 54.662222409077657 ], [ 10.430070400277277, 54.738283385310304 ], [ 10.777054175640234, 54.839121256015311 ] ] ], [ [ [ 10.529754183663046, 54.871248200945146 ], [ 10.449182322438743, 54.819889197105383 ], [ 10.337984713365525, 54.865219005307132 ], [ 10.445551113839027, 54.912972843978018 ], [ 10.529754183663046, 54.871248200945146 ] ] ] ] } },
{ "type": "Feature", "properties": { "NUTS_ID": "DK032", "name": "Sydjylland" }, "geometry": { "type": "MultiPolygon", "coordinates": [ [ [ [ 9.387011640411808, 55.924147922202273 ], [ 9.672103355705865, 55.712033227600706 ], [ 9.77995743877614, 55.606294054117036 ], [ 9.606601512447746, 55.39884378986924 ], [ 9.693206032161925, 55.229156830775679 ], [ 9.533240096087907, 55.168286873558728 ], [ 9.562800471439592, 55.037234602501002 ], [ 9.838098576461391, 55.052981190175466 ], [ 9.976868482512055, 54.988219491542289 ], [ 10.035787752329655, 54.883596138884364 ], [ 9.815798670566993, 54.907160942564282 ], [ 9.712983499383077, 54.854844914757329 ], [ 9.587624649284958, 54.894375094053224 ], [ 9.420151638211827, 54.831956402958284 ], [ 9.295612508488603, 54.808344763428828 ], [ 9.113097123687302, 54.873601596571817 ], [ 8.63599979826081, 54.911569266440281 ], [ 8.680765429269632, 55.168286874149587 ], [ 8.599603947539336, 55.429424403594766 ], [ 8.491976143424562, 55.442936750375338 ], [ 8.432841431239458, 55.364724276867861 ], [ 8.295200178560924, 55.562754603305301 ], [ 8.206503747437697, 55.520096227660616 ], [ 8.101341141076617, 55.561435606944784 ], [ 8.170765898171741, 55.815438923345809 ], [ 8.467717536442892, 55.784870624341082 ], [ 8.882248589586807, 55.887051793990381 ], [ 9.058403087888884, 55.848859635902279 ], [ 9.239440030327248, 55.943711612066977 ], [ 9.387011640411808, 55.924147922202273 ] ] ], [ [ [ 8.565177231950605, 55.09701796701772 ], [ 8.454679326119525, 55.081183283743762 ], [ 8.496073915262537, 55.200806229897296 ], [ 8.578554948716356, 55.206937883904132 ], [ 8.565177231950605, 55.09701796701772 ] ] ] ] } },
{ "type": "Feature", "properties": { "NUTS_ID": "DK041", "name": "Vestjylland" }, "geometry": { "type": "Polygon", "coordinates": [ [ [ 9.320450079422105, 56.671836467192286 ], [ 9.795823975599006, 56.561609903043916 ], [ 9.702061594192237, 56.334306030371053 ], [ 9.395377985859895, 56.356096914385851 ], [ 9.253482682825508, 56.285324040402671 ], [ 9.255329248521599, 56.226068398128106 ], [ 9.398949947681841, 56.134712521628174 ], [ 9.345107667369312, 56.05329746690105 ], [ 9.491509966935226, 55.958999378144519 ], [ 9.387011640411808, 55.924147922202273 ], [ 9.239440030327248, 55.943711612066977 ], [ 9.058403087888884, 55.848859635902279 ], [ 8.882248589586807, 55.887051793990381 ], [ 8.467717536442892, 55.784870624341082 ], [ 8.170765898171741, 55.815438923345809 ], [ 8.341178718789717, 55.935760184184041 ], [ 8.126970750548391, 56.152363355680926 ], [ 8.194858538469386, 56.377822955145092 ], [ 8.138581435314377, 56.560019616822309 ], [ 8.194072673876986, 56.651315174870206 ], [ 8.494131803749182, 56.551260308336474 ], [ 8.502610334121261, 56.65644990858187 ], [ 8.559784560360002, 56.667895583222993 ], [ 8.589598547904176, 56.547633946961014 ], [ 8.684977882821364, 56.482937914746607 ], [ 8.762558501247934, 56.646636276187536 ], [ 8.999327448517201, 56.818413101762268 ], [ 9.130355630754677, 56.722552343198181 ], [ 9.102127774480454, 56.588755721413001 ], [ 9.320450079422105, 56.671836467192286 ] ] ] } },
{ "type": "Feature", "properties": { "NUTS_ID": "DK042", "name": "Østjylland" }, "geometry": { "type": "MultiPolygon", "coordinates": [ [ [ [ 11.658221430225817, 56.714473665490495 ], [ 11.596013319739523, 56.661441467813688 ], [ 11.48663604167027, 56.7070974275955 ], [ 11.582485582668086, 56.754920425815158 ], [ 11.658221430225817, 56.714473665490495 ] ] ], [ [ [ 10.361240388027966, 56.561640332029093 ], [ 10.504314159515673, 56.514646397317769 ], [ 10.728152433339615, 56.532314435781572 ], [ 10.825132006420306, 56.531038233348809 ], [ 10.876453451676287, 56.491587375494184 ], [ 10.932116508025963, 56.387971817010879 ], [ 10.728152433525713, 56.160184177893385 ], [ 10.609952825472625, 56.216180413035516 ], [ 10.510246851802732, 56.124117998934231 ], [ 10.375308453426536, 56.188226932661976 ], [ 10.454816499662153, 56.256660772159684 ], [ 10.383200301226642, 56.279960399662521 ], [ 10.238327324532513, 56.164639486397341 ], [ 10.266802849620298, 55.971931120758654 ], [ 10.192014106327942, 55.865308214739102 ], [ 9.949001122902677, 55.694525148697707 ], [ 9.672103355705865, 55.712033227600706 ], [ 9.387011640411808, 55.924147922202273 ], [ 9.491509966935226, 55.958999378144519 ], [ 9.345107667369312, 56.05329746690105 ], [ 9.398949947681841, 56.134712521628174 ], [ 9.255329248521599, 56.226068398128106 ], [ 9.253482682825508, 56.285324040402671 ], [ 9.395377985859895, 56.356096914385851 ], [ 9.702061594192237, 56.334306030371053 ], [ 9.795823975599006, 56.561609903043916 ], [ 9.879136369273782, 56.56164033209415 ], [ 10.194849728544305, 56.684603859384339 ], [ 10.327594724589032, 56.683437243214307 ], [ 10.361240388027966, 56.561640332029093 ] ] ], [ [ [ 10.673182829395714, 55.916512556364886 ], [ 10.614769014229374, 55.78774945823352 ], [ 10.530853461562732, 55.812455358598761 ], [ 10.48321506563358, 55.962818154680399 ], [ 10.563384448019985, 56.008565914859659 ], [ 10.673182829395714, 55.916512556364886 ] ] ] ] } },
{ "type": "Feature", "properties": { "NUTS_ID": "DK050", "name": "Nordjylland" }, "geometry": { "type": "MultiPolygon", "coordinates": [ [ [ [ 11.117508964367103, 57.287560987642841 ], [ 11.020452953080369, 57.218118170007756 ], [ 10.89106832554212, 57.252360889320421 ], [ 11.020826703429817, 57.321140737254588 ], [ 11.117508964367103, 57.287560987642841 ] ] ], [ [ [ 10.527509252892871, 57.251853742781144 ], [ 10.29570651249408, 56.939210183497451 ], [ 10.287891437963637, 56.729404752848637 ], [ 10.194849728544305, 56.684603859384339 ], [ 9.879136369273782, 56.56164033209415 ], [ 9.795823975599006, 56.561609903043916 ], [ 9.320450079422105, 56.671836467192286 ], [ 9.205273723303184, 56.803391086567402 ], [ 9.20529584320456, 56.969426792893543 ], [ 9.125128606730314, 57.019110432179986 ], [ 8.959793620451789, 56.977218798019756 ], [ 8.844150062663187, 56.774732498977016 ], [ 8.71796033235688, 56.693253601323953 ], [ 8.60640550431537, 56.716257722159213 ], [ 8.605172313376958, 56.849842141552166 ], [ 8.384878364195146, 56.707564777405743 ], [ 8.272155417785401, 56.81735548985047 ], [ 8.380119577627887, 56.964168955211072 ], [ 8.579400740211188, 57.094123247605999 ], [ 9.385954769600112, 57.172399868446576 ], [ 9.936530655227536, 57.568892377622895 ], [ 10.475730694261831, 57.693617099644399 ], [ 10.527509252892871, 57.251853742781144 ] ] ] ] } }
]
}
