{
"type": "FeatureCollection",
"name": "EE",
"crs": { "type": "name", "properties": { "name": "urn:ogc:def:crs:OGC:1.3:CRS84" } },
"features": [
{ "type": "Feature", "properties": { "NUTS_ID": "EE001", "name": "Põhja-Eesti" }, "geometry": { "type": "MultiPolygon", "coordinates": [ [ [ [ 25.830155940642513, 59.564036484725719 ], [ 25.930121585637973, 59.293082595742838 ], [ 25.548319865716206, 59.240908804562558 ], [ 25.343286174671672, 59.024850975727773 ], [ 24.819132358256926, 59.219372441820255 ], [ 24.162573274435744, 59.02528657207538 ], [ 24.091771498770289, 59.11775170858192 ], [ 23.896174677837678, 59.1432906683129 ], [ 23.730544574885457, 59.237358507628123 ], [ 23.942920716547203, 59.362538548345228 ], [ 24.068081531449593, 59.285163848758138 ], [ 24.094455892739056, 59.368715135598109 ], [ 24.415745721609962, 59.459725799958555 ], [ 24.759024426373941, 59.465364152103071 ], [ 24.854833073367804, 59.548444079349856 ], [ 25.423933601802013, 59.509495071577376 ], [ 25.725839944491952, 59.628193838986711 ], [ 25.830155940642513, 59.564036484725719 ] ] ], [ [ [ 24.589734856950894, 59.52441370529904 ], [ 24.521051334380477, 59.521669731473189 ], [ 24.433756007398667, 59.575168207047682 ], [ 24.516772025660522, 59.626533957074855 ], [ 24.589734856950894, 59.52441370529904 ] ] ] ] } },
{ "type": "Feature", "properties": { "NUTS_ID": "EE004", "name": "Lääne-Eesti" }, "geometry": { "type": "MultiPolygon", "coordinates": [ [ [ [ 24.173634927607015, 58.694921240543273 ], [ 24.371492933774267, 58.664135912342893 ], [ 24.705787166489518, 58.744110965367796 ], [ 24.945016127505646, 58.685725930762821 ], [ 25.183011489504626, 58.724534568111622 ], [ 25.281329188428035, 58.69977685344093 ], [ 25.247408341613479, 58.628178795175607 ], [ 24.995438368658785, 58.430025476918843 ], [ 25.003886828900118, 58.33264623957124 ], [ 25.249016179340991, 58.248085514627689 ], [ 25.046306919071025, 58.040145986491552 ], [ 24.353252565829873, 57.876085498557728 ], [ 24.460290632349217, 58.04751041172436 ], [ 24.539492127431139, 58.348498091271004 ], [ 24.337772436375609, 58.373059994480435 ], [ 24.112673519363359, 58.232827912284783 ], [ 23.741680798266362, 58.36393891406906 ], [ 23.527072804344744, 58.615153504981549 ], [ 23.526722367386053, 58.692547497025366 ], [ 23.637449533669489, 58.757021347397085 ], [ 23.447149433556774, 58.898948710302911 ], [ 23.498227218650676, 58.950176863502385 ], [ 23.44396136483514, 59.05529959606244 ], [ 23.520633463205638, 59.102271371032565 ], [ 23.525100576144354, 59.211146300264737 ], [ 23.730544574885457, 59.237358507628123 ], [ 23.896174677837678, 59.1432906683129 ], [ 24.091771498770289, 59.11775170858192 ], [ 24.162573274435744, 59.02528657207538 ], [ 24.095113311256959, 58.953804879323847 ], [ 24.173634927607015, 58.694921240543273 ] ] ], [ [ [ 24.049152829040391, 58.166496995040724 ], [ 23.999860724702046, 58.078131335681306 ], [ 23.908120050872625, 58.100856424018012 ], [ 23.956868011443131, 58.172558608391114 ], [ 24.049152829040391, 58.166496995040724 ] ] ], [ [ [ 22.346792672006231, 58.166570990188255 ], [ 22.131018525387248, 58.017236642639183 ], [ 22.071126282899559, 58.148856683435554 ], [ 21.788859932360939, 58.373782050172295 ], [ 22.551365423752838, 58.61415909774724 ], [ 23.177751947075524, 58.646279364797088 ], [ 23.28265780086646, 58.603658811777912 ], [ 22.998743864010596, 58.370882292393937 ], [ 22.346792672006231, 58.166570990188255 ] ] ], [ [ [ 23.310357389586386, 59.042424775021509 ], [ 23.235961611766012, 58.949302818233058 ], [ 23.143005081909166, 58.975008749023189 ], [ 23.242919975879683, 59.049953427322883 ], [ 23.310357389586386, 59.042424775021509 ] ] ], [ [ [ 22.767394085281659, 58.803747498357602 ], [ 22.577943894561027, 58.694154986048041 ], [ 22.476463798934457, 58.733729779567547 ], [ 22.430308629734178, 58.865484245313567 ], [ 22.191999153809498, 58.888458480201493 ], [ 22.154029880946474, 58.92722436775469 ], [ 22.430308628327239, 58.962688800559967 ], [ 22.645810094825279, 59.07546827654906 ], [ 22.930563408909386, 58.9663049202384 ], [ 23.040558238439559, 58.844083396765534 ], [ 22.767394085281659, 58.803747498357602 ] ] ] ] } },
{ "type": "Feature", "properties": { "NUTS_ID": "EE008", "name": "Lõuna-Eesti" }, "geometry": { "type": "Polygon", "coordinates": [ [ [ 27.357040728152942, 58.787260919176603 ], [ 27.535168161641987, 58.397117314400141 ], [ 27.498135202518089, 58.239357737251396 ], [ 27.678213948117484, 58.008168765144731 ], [ 27.696830890554693, 57.994966979250023 ], [ 27.722376186579115, 57.856851128983557 ], [ 27.546048126238315, 57.79968414402942 ], [ 27.403278379190397, 57.662492133122761 ], [ 27.351577279489639, 57.518273513010165 ], [ 26.926515405366594, 57.623565331003995 ], [ 26.550303546968937, 57.529700552138053 ], [ 26.285555370450048, 57.606356089293307 ], [ 26.016346924322484, 57.847152793703259 ], [ 25.331553846629767, 58.048036593982779 ], [ 25.046306919071025, 58.040145986491552 ], [ 25.249016179340991, 58.248085514627689 ], [ 25.003886828900118, 58.33264623957124 ], [ 24.995438368658785, 58.430025476918843 ], [ 25.247408341613479, 58.628178795175607 ], [ 25.46140983184117, 58.613193987096935 ], [ 25.738478592403386, 58.681490132736101 ], [ 26.1893455826843, 58.891752294725613 ], [ 26.418080748411011, 58.891624131146976 ], [ 26.821386547765179, 59.034685001366142 ], [ 27.087115800540936, 59.000988070685459 ], [ 27.357040728152942, 58.787260919176603 ] ] ] } },
{ "type": "Feature", "properties": { "NUTS_ID": "EE009", "name": "Kesk-Eesti" }, "geometry": { "type": "Polygon", "coordinates": [ [ [ 26.961101566198355, 59.43594683199035 ], [ 26.79544036473149, 59.399182570803056 ], [ 26.74615233558211, 59.280910010862321 ], [ 26.925850651832018, 59.178080853270963 ], [ 26.828829089117558, 59.111311691952693 ], [ 26.821386547765179, 59.034685001366142 ], [ 26.418080748411011, 58.891624131146976 ], [ 26.1893455826843, 58.891752294725613 ], [ 25.738478592403386, 58.681490132736101 ], [ 25.46140983184117, 58.613193987096935 ], [ 25.247408341613479, 58.628178795175607 ], [ 25.281329188428035, 58.69977685344093 ], [ 25.183011489504626, 58.724534568111622 ], [ 24.945016127505646, 58.685725930762821 ], [ 24.705787166489518, 58.744110965367796 ], [ 24.371492933774267, 58.664135912342893 ], [ 24.173634927607015, 58.694921240543273 ], [ 24.095113311256959, 58.953804879323847 ], [ 24.162573274435744, 59.02528657207538 ], [ 24.819132358256926, 59.219372441820255 ], [ 25.343286174671672, 59.024850975727773 ], [ 25.548319865716206, 59.240908804562558 ], [ 25.930121585637973, 59.293082595742838 ], [ 25.830155940642513, 59.564036484725719 ], [ 26.034583138248063, 59.613769300383353 ], [ 26.478906527238284, 59.524053042565413 ], [ 26.67299522521617, 59.536892092416892 ], [ 26.961101566198355, 59.43594683199035 ] ] ] } },
{ "type": "Feature", "properties": { "NUTS_ID": "EE00A", "name": "Kirde-Eesti" }, "geometry": { "type": "Polygon", "coordinates": [ [ [ 28.044260008948452, 59.469076103294711 ], [ 28.171782404555401, 59.347240449870213 ], [ 27.858059129696741, 59.158587525393685 ], [ 27.738366367503399, 58.97790991545213 ], [ 27.646010355800144, 58.931499054129169 ], [ 27.524851717484566, 58.870614260356426 ], [ 27.451588824918463, 58.834223873674347 ], [ 27.357040728152942, 58.787260919176603 ], [ 27.087115800540936, 59.000988070685459 ], [ 26.821386547765179, 59.034685001366142 ], [ 26.828829089117558, 59.111311691952693 ], [ 26.925850651832018, 59.178080853270963 ], [ 26.74615233558211, 59.280910010862321 ], [ 26.79544036473149, 59.399182570803056 ], [ 26.961101566198355, 59.43594683199035 ], [ 27.853532818497879, 59.399431988574136 ], [ 28.044260008948452, 59.469076103294711 ] ] ] } }
]
}
