{
"type": "FeatureCollection",
"name": "EL",
"crs": { "type": "name", "properties": { "name": "urn:ogc:def:crs:OGC:1.3:CRS84" } },
"features": [
{ "type": "Feature", "properties": { "NUTS_ID": "EL301", "name": "Voreios Tomeas Athinon" }, "geometry": { "type": "Polygon", "coordinates": [ [ [ 23.823102791309868, 37.973921963803086 ], [ 23.791807004116603, 37.990051554794064 ], [ 23.745098213069468, 38.058239557634622 ], [ 23.859477080936408, 38.098404738217091 ], [ 23.875026155486822, 38.056230169890846 ], [ 23.823102791309868, 37.973921963803086 ] ] ] } },
{ "type": "Feature", "properties": { "NUTS_ID": "EL302", "name": "Dytikos Tomeas Athinon" }, "geometry": { "type": "Polygon", "coordinates": [ [ [ 23.720047287688832, 38.062956458483441 ], [ 23.735581295932231, 38.050304445038734 ], [ 23.686924909004084, 37.978173452379075 ], [ 23.685493013837689, 37.976382968519516 ], [ 23.587935093497535, 37.99940935979054 ], [ 23.597265892570277, 38.015648254257513 ], [ 23.720047287688832, 38.062956458483441 ] ] ] } },
{ "type": "Feature", "properties": { "NUTS_ID": "EL303", "name": "Kentrikos Tomeas Athinon" }, "geometry": { "type": "Polygon", "coordinates": [ [ [ 23.686924909004084, 37.978173452379075 ], [ 23.735581295932231, 38.050304445038734 ], [ 23.745098213069468, 38.058239557634622 ], [ 23.791807004116603, 37.990051554794064 ], [ 23.823102791309868, 37.973921963803086 ], [ 23.806859396141714, 37.917828489290926 ], [ 23.686924909004084, 37.978173452379075 ] ] ] } },
{ "type": "Feature", "properties": { "NUTS_ID": "EL304", "name": "Notios Tomeas Athinon" }, "geometry": { "type": "Polygon", "coordinates": [ [ [ 23.672228331710183, 37.941893031465412 ], [ 23.685493013837689, 37.976382968519516 ], [ 23.686924909004084, 37.978173452379075 ], [ 23.806859396141714, 37.917828489290926 ], [ 23.743593100100764, 37.853809459074071 ], [ 23.672228331710183, 37.941893031465412 ] ] ] } },
{ "type": "Feature", "properties": { "NUTS_ID": "EL305", "name": "Anatoliki Attiki" }, "geometry": { "type": "Polygon", "coordinates": [ [ [ 23.743593100100764, 37.853809459074071 ], [ 23.806859396141714, 37.917828489290926 ], [ 23.823102791309868, 37.973921963803086 ], [ 23.875026155486822, 38.056230169890846 ], [ 23.859477080936408, 38.098404738217091 ], [ 23.745098213069468, 38.058239557634622 ], [ 23.735581295932231, 38.050304445038734 ], [ 23.720047287688832, 38.062956458483441 ], [ 23.634494668884116, 38.211340927719299 ], [ 23.690417994487991, 38.340297388948358 ], [ 24.049774805091662, 38.208396657330859 ], [ 23.997896084633691, 38.090296268335436 ], [ 24.024553778489061, 37.999409360492777 ], [ 24.076700418782593, 37.770291304317482 ], [ 24.031592563704276, 37.663312256918609 ], [ 23.949717107857268, 37.661599679273422 ], [ 23.883103057211105, 37.772901856625438 ], [ 23.743593100100764, 37.853809459074071 ] ] ] } },
{ "type": "Feature", "properties": { "NUTS_ID": "EL306", "name": "Dytiki Attiki" }, "geometry": { "type": "Polygon", "coordinates": [ [ [ 23.1261790496015, 38.168399846132012 ], [ 23.329547814388217, 38.231873488928791 ], [ 23.507981243337085, 38.160569846038051 ], [ 23.634494668884116, 38.211340927719299 ], [ 23.720047287688832, 38.062956458483441 ], [ 23.597265892570277, 38.015648254257513 ], [ 23.587935093497535, 37.99940935979054 ], [ 23.416423881194298, 37.97223154856156 ], [ 23.414974181892745, 37.969785294906245 ], [ 23.247773763636545, 37.972340667658109 ], [ 23.17969936773401, 37.951590027394097 ], [ 23.106588180522824, 37.999409360163611 ], [ 23.117532031816793, 38.060645732780436 ], [ 23.21019311235537, 38.12998484321399 ], [ 23.1261790496015, 38.168399846132012 ] ] ] } },
{ "type": "Feature", "properties": { "NUTS_ID": "EL307", "name": "Peiraias, Nisoi" }, "geometry": { "type": "MultiPolygon", "coordinates": [ [ [ [ 23.335967587022022, 35.902986492034465 ], [ 23.355299007934477, 35.800999653368088 ], [ 23.276440679808871, 35.825696408902523 ], [ 23.229241441827678, 35.908453704120078 ], [ 23.335967587022022, 35.902986492034465 ] ] ], [ [ [ 23.514318790063417, 37.904563175355101 ], [ 23.432320784503823, 37.891523350294669 ], [ 23.414974181892745, 37.969785294906245 ], [ 23.416423881194298, 37.97223154856156 ], [ 23.587935093497535, 37.99940935979054 ], [ 23.685493013837689, 37.976382968519516 ], [ 23.672228331710183, 37.941893031465412 ], [ 23.514318790063417, 37.904563175355101 ] ] ], [ [ [ 23.400444584796951, 37.629610653237037 ], [ 23.499045217297954, 37.463311168204321 ], [ 23.424419604341157, 37.411701187188775 ], [ 23.423239597140292, 37.458612355678213 ], [ 23.200422845712154, 37.531090078962343 ], [ 23.200378692236985, 37.596652836654719 ], [ 23.315190448547739, 37.555725980041217 ], [ 23.33831721261749, 37.633026231955462 ], [ 23.400444584796951, 37.629610653237037 ] ] ], [ [ [ 23.547656817958881, 37.747546821416414 ], [ 23.493769097094575, 37.677619082302584 ], [ 23.435150197208927, 37.69045324718946 ], [ 23.416305311964127, 37.744961104224728 ], [ 23.510552304286154, 37.778337161822108 ], [ 23.547656817958881, 37.747546821416414 ] ] ], [ [ [ 23.071818936346862, 36.261281042778016 ], [ 23.040655149234063, 36.135977774437357 ], [ 22.927424502873798, 36.173038204588096 ], [ 22.881811544832797, 36.328081738122151 ], [ 22.95097309085153, 36.372270863390142 ], [ 23.071818936346862, 36.261281042778016 ] ] ], [ [ [ 23.217136838986139, 37.253670009234966 ], [ 23.151641758489628, 37.201236678148447 ], [ 23.062317458192016, 37.256928901824388 ], [ 23.127200349895649, 37.305997845139366 ], [ 23.217136838986139, 37.253670009234966 ] ] ] ] } },
{ "type": "Feature", "properties": { "NUTS_ID": "EL411", "name": "Lesvos, Limnos" }, "geometry": { "type": "MultiPolygon", "coordinates": [ [ [ [ 26.573123388860516, 39.022269126849665 ], [ 26.465809993695089, 38.961405112039969 ], [ 26.233601381146229, 38.991152893987817 ], [ 25.805941548615529, 39.213735318409988 ], [ 26.123765486237676, 39.36329106402269 ], [ 26.303936755356936, 39.381066006924875 ], [ 26.482399262799628, 39.204980403514526 ], [ 26.466954292567912, 39.087125981050796 ], [ 26.573123388860516, 39.022269126849665 ] ] ], [ [ [ 25.429017219208244, 39.974612826864188 ], [ 25.327021775384814, 39.799868791820991 ], [ 25.241524332943737, 39.892758054755127 ], [ 25.173691964755228, 39.808268657308375 ], [ 25.063197463486283, 39.846464984322999 ], [ 25.035173447676172, 39.959159119913174 ], [ 25.176824461235075, 40.002139276216504 ], [ 25.429017219208244, 39.974612826864188 ] ] ], [ [ [ 25.069410969917925, 39.549014169115672 ], [ 24.991721162195976, 39.448092649557978 ], [ 24.94021991777516, 39.50313785273476 ], [ 25.003590570961439, 39.577234192214796 ], [ 25.069410969917925, 39.549014169115672 ] ] ] ] } },
{ "type": "Feature", "properties": { "NUTS_ID": "EL412", "name": "Ikaria, Samos" }, "geometry": { "type": "MultiPolygon", "coordinates": [ [ [ [ 26.993910890068111, 37.706892532928137 ], [ 26.8136531116022, 37.623529694099879 ], [ 26.562605685092912, 37.742450811419616 ], [ 26.799353194309269, 37.82562914547313 ], [ 26.993910890068111, 37.706892532928137 ] ] ], [ [ [ 26.569575152961818, 37.631418756037213 ], [ 26.509337602810717, 37.546958475928079 ], [ 26.41122597969726, 37.561149793283626 ], [ 26.502607324280593, 37.645894750944663 ], [ 26.569575152961818, 37.631418756037213 ] ] ], [ [ [ 26.267302109317047, 37.608554618084682 ], [ 26.160866135222985, 37.53537415033248 ], [ 25.980869840827047, 37.588469217819075 ], [ 26.138424711114222, 37.662230605086926 ], [ 26.267302109317047, 37.608554618084682 ] ] ] ] } },
{ "type": "Feature", "properties": { "NUTS_ID": "EL413", "name": "Chios" }, "geometry": { "type": "MultiPolygon", "coordinates": [ [ [ [ 26.151852421363213, 38.316584493997198 ], [ 26.015547000797046, 38.158997697016737 ], [ 25.88095471750416, 38.235809414621265 ], [ 25.976426658035773, 38.359794861416177 ], [ 25.822937078669451, 38.548762759112812 ], [ 25.987717184597095, 38.606710714892593 ], [ 26.145170004650645, 38.538641639368656 ], [ 26.151852421363213, 38.316584493997198 ] ] ], [ [ [ 25.627178519087593, 38.531316962579417 ], [ 25.558998645980417, 38.522133531114228 ], [ 25.498035137169808, 38.610105130036267 ], [ 25.617878945486108, 38.611184445119797 ], [ 25.627178519087593, 38.531316962579417 ] ] ] ] } },
{ "type": "Feature", "properties": { "NUTS_ID": "EL421", "name": "Kalymnos, Karpathos, Kasos, Kos, Rodos" }, "geometry": { "type": "MultiPolygon", "coordinates": [ [ [ [ 28.068575928816021, 36.077565184403397 ], [ 27.781923559889503, 35.888234549188148 ], [ 27.728528650008229, 35.929042714815196 ], [ 27.73681335300083, 35.970017541789197 ], [ 27.729966310910655, 36.153564297461365 ], [ 27.781923559846849, 36.207039997411336 ], [ 27.908237727072112, 36.333463755184923 ], [ 28.227500480618801, 36.40671365433812 ], [ 28.068575928816021, 36.077565184403397 ] ] ], [ [ [ 27.908501203861533, 36.58967691880963 ], [ 27.842845723385562, 36.546506075810925 ], [ 27.748118583997908, 36.59604458445164 ], [ 27.845977157508766, 36.647012396557564 ], [ 27.908501203861533, 36.58967691880963 ] ] ], [ [ [ 27.278440560175774, 35.836171019960602 ], [ 27.200948549072987, 35.811371754171823 ], [ 27.117111455469608, 35.871715021222847 ], [ 27.223289479396541, 35.906489873214952 ], [ 27.278440560175774, 35.836171019960602 ] ] ], [ [ [ 27.416680693561521, 36.416226204270686 ], [ 27.361590272682665, 36.389664246593178 ], [ 27.258954918500599, 36.427494173005314 ], [ 27.351804879678419, 36.492689060521002 ], [ 27.416680693561521, 36.416226204270686 ] ] ], [ [ [ 27.186870431191, 35.684891285592776 ], [ 27.151997278727229, 35.42248201293399 ], [ 27.068354356029499, 35.470062307458704 ], [ 27.010394271389377, 35.613639071315575 ], [ 27.186870431191, 35.684891285592776 ] ] ], [ [ [ 26.92125156942998, 35.351927003764324 ], [ 26.853147008350149, 35.349123869948727 ], [ 26.830615857443892, 35.452573426742546 ], [ 26.951527843645817, 35.417945833859562 ], [ 26.92125156942998, 35.351927003764324 ] ] ], [ [ [ 27.237282799747561, 36.603229798342895 ], [ 27.200657774794699, 36.546143865556502 ], [ 27.078420399742932, 36.556894997357951 ], [ 27.14909974473872, 36.632699752544113 ], [ 27.237282799747561, 36.603229798342895 ] ] ], [ [ [ 27.293321450966868, 36.883771576343015 ], [ 27.183657257367521, 36.776943956075492 ], [ 27.019964115108003, 36.815353766596012 ], [ 27.179459411363954, 36.907679591559841 ], [ 27.293321450966868, 36.883771576343015 ] ] ], [ [ [ 26.984919013669852, 36.680089889859183 ], [ 26.935154370819983, 36.669477498541362 ], [ 26.893179899924544, 36.712453603609561 ], [ 26.926676836371239, 36.788604367821094 ], [ 26.978933107442266, 36.785421385906005 ], [ 26.984919013669852, 36.680089889859183 ] ] ], [ [ [ 27.057599699532659, 36.983898978819951 ], [ 27.001999397329186, 36.926047501611201 ], [ 26.897742505358551, 36.945542201825468 ], [ 26.972252953214642, 37.031147951543588 ], [ 27.057599699532659, 36.983898978819951 ] ] ], [ [ [ 27.043080621420476, 37.461353015268422 ], [ 26.977476237302746, 37.404319299825097 ], [ 26.885604102039601, 37.486276596778559 ], [ 26.984641727426848, 37.505672932894157 ], [ 27.043080621420476, 37.461353015268422 ] ] ], [ [ [ 26.882202912374193, 37.172547036105605 ], [ 26.811465930424934, 37.134515134457047 ], [ 26.717244103720855, 37.188313395456753 ], [ 26.8225689418536, 37.231292949535806 ], [ 26.882202912374193, 37.172547036105605 ] ] ], [ [ [ 26.38007300249696, 36.541638507779382 ], [ 26.308581871287121, 36.510331721379671 ], [ 26.240375028138327, 36.589293158884765 ], [ 26.351833558590243, 36.61110815084438 ], [ 26.38007300249696, 36.541638507779382 ] ] ], [ [ [ 26.410321243778188, 36.983008444947473 ], [ 26.335548861994479, 36.934724640307905 ], [ 26.253435044705238, 36.978559450674233 ], [ 26.343406383220032, 37.037820802708701 ], [ 26.410321243778188, 36.983008444947473 ] ] ] ] } },
{ "type": "Feature", "properties": { "NUTS_ID": "EL422", "name": "Andros, Thira, Kea - Kythnos, Milos, Mykonos, Naxos, Paros,  Syros, Tinos" }, "geometry": { "type": "MultiPolygon", "coordinates": [ [ [ [ 25.989480647826234, 36.914751367504394 ], [ 25.892402036812584, 36.780725576705898 ], [ 25.7262640737646, 36.797730850560463 ], [ 25.886157024874713, 36.916094666045304 ], [ 25.989480647826234, 36.914751367504394 ] ] ], [ [ [ 25.834965184552885, 36.383120170599184 ], [ 25.786877930429991, 36.326458555956144 ], [ 25.676897463685499, 36.357493246676555 ], [ 25.766560810470423, 36.425269000554628 ], [ 25.834965184552885, 36.383120170599184 ] ] ], [ [ [ 25.49363767053746, 36.401556868304588 ], [ 25.444603592908919, 36.333837855255886 ], [ 25.326936772630468, 36.375426369007961 ], [ 25.428112123146853, 36.4468052203244 ], [ 25.49363767053746, 36.401556868304588 ] ] ], [ [ [ 25.572170283777197, 36.981906649128057 ], [ 25.480050044476489, 36.913552455728542 ], [ 25.337643730483236, 37.068344225852776 ], [ 25.514781696370829, 37.205161377820382 ], [ 25.600119639933439, 37.137422898532073 ], [ 25.572170283777197, 36.981906649128057 ] ] ], [ [ [ 25.405319937744284, 36.687001809665425 ], [ 25.349398258298361, 36.645556455111439 ], [ 25.233050909399623, 36.733763770303412 ], [ 25.290431998222289, 36.788087453070254 ], [ 25.405319937744284, 36.687001809665425 ] ] ], [ [ [ 25.441569465157354, 37.467399892890931 ], [ 25.373652282442919, 37.400622277443446 ], [ 25.275465175496066, 37.43939024495792 ], [ 25.346063194479591, 37.504200672975941 ], [ 25.441569465157354, 37.467399892890931 ] ] ], [ [ [ 25.298095635588336, 37.10510907139399 ], [ 25.205056838857654, 36.999551602989513 ], [ 25.026223727523931, 37.03390567789252 ], [ 25.170969174115356, 37.127184569634757 ], [ 25.298095635588336, 37.10510907139399 ] ] ], [ [ [ 25.195983709513303, 36.722841115382202 ], [ 25.134578203996316, 36.635204353149817 ], [ 25.037935572338657, 36.652136345290479 ], [ 25.101449845879511, 36.722501010731676 ], [ 25.195983709513303, 36.722841115382202 ] ] ], [ [ [ 25.277353890335473, 37.377804722954465 ], [ 25.178115935500696, 37.316852477791358 ], [ 25.191254004382355, 37.426005710605374 ], [ 25.27126668749775, 37.452154034842081 ], [ 25.277353890335473, 37.377804722954465 ] ] ], [ [ [ 25.289017659840422, 37.584267020006884 ], [ 25.177369659545938, 37.527195329164115 ], [ 25.03340450618126, 37.595543827969799 ], [ 25.184885710775418, 37.642924244781938 ], [ 25.289017659840422, 37.584267020006884 ] ] ], [ [ [ 24.983815696250506, 36.585087703650032 ], [ 24.90978585554279, 36.571422901940316 ], [ 24.832462090501988, 36.624472040191215 ], [ 24.940846538399793, 36.669974254544542 ], [ 24.983815696250506, 36.585087703650032 ] ] ], [ [ [ 24.97796888049141, 37.407456375808962 ], [ 24.868951759861972, 37.347002174239734 ], [ 24.890070768263964, 37.465872596854439 ], [ 24.931916430867918, 37.488771417215446 ], [ 24.97796888049141, 37.407456375808962 ] ] ], [ [ [ 24.97382234777546, 37.823284152970793 ], [ 24.982411214192606, 37.726295347373323 ], [ 24.73390524668477, 37.869138013259239 ], [ 24.680304181590561, 37.958980727413973 ], [ 24.84329435294454, 37.943754096200138 ], [ 24.97382234777546, 37.823284152970793 ] ] ], [ [ [ 24.770330853143921, 36.940611412320408 ], [ 24.703555946471106, 36.911646316562241 ], [ 24.633150198078077, 36.986274811680453 ], [ 24.70373340460651, 37.029237995769698 ], [ 24.770330853143921, 36.940611412320408 ] ] ], [ [ [ 24.630776764570324, 36.795511237700943 ], [ 24.561013895062707, 36.746911583350375 ], [ 24.480857343912255, 36.798509342295446 ], [ 24.564830582061251, 36.854489134732312 ], [ 24.630776764570324, 36.795511237700943 ] ] ], [ [ [ 24.530488052448138, 36.699716748758576 ], [ 24.430120559867937, 36.646890910370757 ], [ 24.274228801532004, 36.698074962539899 ], [ 24.412498028522027, 36.758708811724844 ], [ 24.530488052448138, 36.699716748758576 ] ] ], [ [ [ 24.541915368464611, 37.191951750621165 ], [ 24.506716770888506, 37.108664980676977 ], [ 24.401370736999301, 37.148195704602287 ], [ 24.480287378097451, 37.215271409501455 ], [ 24.541915368464611, 37.191951750621165 ] ] ], [ [ [ 24.467140996740483, 37.409346691856442 ], [ 24.399233973489537, 37.310178801091283 ], [ 24.356924587586903, 37.430455146219501 ], [ 24.412921950096528, 37.461598274281108 ], [ 24.467140996740483, 37.409346691856442 ] ] ], [ [ [ 24.411185823052502, 37.673267420139211 ], [ 24.31341627793886, 37.528050462078212 ], [ 24.240404562384882, 37.572629946001904 ], [ 24.310345090641668, 37.680849163782781 ], [ 24.411185823052502, 37.673267420139211 ] ] ] ] } },
{ "type": "Feature", "properties": { "NUTS_ID": "EL431", "name": "Irakleio" }, "geometry": { "type": "Polygon", "coordinates": [ [ [ 25.550567783286876, 34.990756787719832 ], [ 24.973273962848697, 34.932859999746675 ], [ 24.776415707044112, 34.943074399470355 ], [ 24.722516918146759, 35.092544566503719 ], [ 24.901140299487157, 35.219549491675274 ], [ 24.928003505487407, 35.406910157828086 ], [ 24.973273962564953, 35.425181124472523 ], [ 25.089316653862902, 35.343538991705003 ], [ 25.490698015822126, 35.29833176436297 ], [ 25.421797691897499, 35.154976259273589 ], [ 25.550567783286876, 34.990756787719832 ] ] ] } },
{ "type": "Feature", "properties": { "NUTS_ID": "EL432", "name": "Lasithi" }, "geometry": { "type": "Polygon", "coordinates": [ [ [ 25.550567783286876, 34.990756787719832 ], [ 25.421797691897499, 35.154976259273589 ], [ 25.490698015822126, 35.29833176436297 ], [ 25.70512390408642, 35.334056308181239 ], [ 25.775141743210042, 35.123989966530729 ], [ 26.235404996010143, 35.260555999140891 ], [ 26.289327584827429, 35.201888870838992 ], [ 26.254066302467525, 35.070711342416914 ], [ 26.168235525644107, 35.017550737343264 ], [ 25.550567783286876, 34.990756787719832 ] ] ] } },
{ "type": "Feature", "properties": { "NUTS_ID": "EL433", "name": "Rethymni" }, "geometry": { "type": "Polygon", "coordinates": [ [ [ 24.928003505487407, 35.406910157828086 ], [ 24.901140299487157, 35.219549491675274 ], [ 24.722516918146759, 35.092544566503719 ], [ 24.287523304584418, 35.176006527400169 ], [ 24.317410808624796, 35.353774958285783 ], [ 24.928003505487407, 35.406910157828086 ] ] ] } },
{ "type": "Feature", "properties": { "NUTS_ID": "EL434", "name": "Chania" }, "geometry": { "type": "MultiPolygon", "coordinates": [ [ [ [ 23.745217538098377, 35.657509534401314 ], [ 23.846110329678112, 35.53619369068597 ], [ 24.161996896625485, 35.575978085771297 ], [ 24.317410808624796, 35.353774958285783 ], [ 24.287523304584418, 35.176006527400169 ], [ 23.614839876735147, 35.235669429496333 ], [ 23.532459414902004, 35.332196337020839 ], [ 23.581340586451454, 35.524581458776211 ], [ 23.701288247639198, 35.5205226458515 ], [ 23.745217538098377, 35.657509534401314 ] ] ], [ [ [ 24.16918046188702, 34.841462515884899 ], [ 24.094632164108674, 34.800814939367996 ], [ 23.99779492431048, 34.851923847227134 ], [ 24.095520712082237, 34.894930883648918 ], [ 24.16918046188702, 34.841462515884899 ] ] ] ] } },
{ "type": "Feature", "properties": { "NUTS_ID": "EL511", "name": "Evros" }, "geometry": { "type": "MultiPolygon", "coordinates": [ [ [ [ 26.054078376541899, 40.718249419475335 ], [ 26.061448732439398, 40.699051112408199 ], [ 26.03275803002693, 40.730256852477119 ], [ 25.939959658357836, 40.835100387912391 ], [ 25.632429073758985, 40.862804720955985 ], [ 25.641874756916209, 40.95366978261 ], [ 25.820616657499546, 41.014439583452649 ], [ 25.900714902163415, 41.121287846785854 ], [ 25.906437451680773, 41.307575070550051 ], [ 25.948626170277155, 41.320341912027423 ], [ 26.114253925926683, 41.358534939907955 ], [ 26.167201383446343, 41.429314004918282 ], [ 26.090573156212905, 41.704694328760198 ], [ 26.357879011590075, 41.71110454601785 ], [ 26.358149499877854, 41.714037444537261 ], [ 26.399281721903257, 41.690590410034432 ], [ 26.577652020074375, 41.6022118391815 ], [ 26.5806111432364, 41.587225291419628 ], [ 26.58829830550129, 41.582843296951019 ], [ 26.612053498398637, 41.427984734494807 ], [ 26.622647477080957, 41.374331273930061 ], [ 26.620446180880791, 41.37327337787282 ], [ 26.620665619897206, 41.371842865566371 ], [ 26.601997496752141, 41.36440733702365 ], [ 26.403414362127549, 41.268972548431449 ], [ 26.344537185183068, 41.234779871750909 ], [ 26.339184432649098, 41.098996001359708 ], [ 26.350606372315859, 41.008166597646593 ], [ 26.334789696429326, 40.987514210683429 ], [ 26.333781629661921, 40.961942486611775 ], [ 26.288535288562937, 40.927118216680299 ], [ 26.285172986326657, 40.922727940077749 ], [ 26.054078376541899, 40.718249419475335 ] ] ], [ [ [ 25.723127208857345, 40.435942072184005 ], [ 25.599583347259756, 40.393480532600108 ], [ 25.461496150578977, 40.464227673660872 ], [ 25.615465351776127, 40.505940218115391 ], [ 25.723127208857345, 40.435942072184005 ] ] ] ] } },
{ "type": "Feature", "properties": { "NUTS_ID": "EL512", "name": "Xanthi" }, "geometry": { "type": "Polygon", "coordinates": [ [ [ 24.813489843241204, 40.858085670692994 ], [ 24.678491507800864, 41.188766684707282 ], [ 24.494161720876498, 41.201450632075321 ], [ 24.783955942217055, 41.36018913989296 ], [ 24.885109271531174, 41.390198682285366 ], [ 25.179375287305376, 41.310188062277781 ], [ 25.224698491864249, 41.264630841318855 ], [ 25.068183356831128, 41.158513085724415 ], [ 25.139545089795678, 40.990687389230004 ], [ 24.813489843241204, 40.858085670692994 ] ] ] } },
{ "type": "Feature", "properties": { "NUTS_ID": "EL513", "name": "Rodopi" }, "geometry": { "type": "Polygon", "coordinates": [ [ [ 25.139545089795678, 40.990687389230004 ], [ 25.068183356831128, 41.158513085724415 ], [ 25.224698491864249, 41.264630841318855 ], [ 25.906437451680773, 41.307575070550051 ], [ 25.900714902163415, 41.121287846785854 ], [ 25.820616657499546, 41.014439583452649 ], [ 25.641874756916209, 40.95366978261 ], [ 25.632429073758985, 40.862804720955985 ], [ 25.139545089795678, 40.990687389230004 ] ] ] } },
{ "type": "Feature", "properties": { "NUTS_ID": "EL514", "name": "Drama" }, "geometry": { "type": "Polygon", "coordinates": [ [ [ 23.624308285296834, 41.375698383720859 ], [ 24.022220181337353, 41.454831354947416 ], [ 24.059744082195312, 41.522112174279947 ], [ 24.522035468197725, 41.547790866284259 ], [ 24.783955942217055, 41.36018913989296 ], [ 24.494161720876498, 41.201450632075321 ], [ 24.373932953183644, 41.079132364200078 ], [ 24.118339912822698, 41.00632018190651 ], [ 23.798656445056448, 41.150936404111036 ], [ 23.624308285296834, 41.375698383720859 ] ] ] } },
{ "type": "Feature", "properties": { "NUTS_ID": "EL515", "name": "Thasos, Kavala" }, "geometry": { "type": "MultiPolygon", "coordinates": [ [ [ [ 24.77383629239382, 40.602717616001975 ], [ 24.665959801047428, 40.564490503210827 ], [ 24.487595362407131, 40.656171822166741 ], [ 24.651068838896997, 40.811201853849511 ], [ 24.793081259106156, 40.684531195087736 ], [ 24.77383629239382, 40.602717616001975 ] ] ], [ [ [ 24.678491507800864, 41.188766684707282 ], [ 24.813489843241204, 40.858085670692994 ], [ 24.64562337905463, 40.865409951522246 ], [ 24.495639083265839, 40.946153179619898 ], [ 24.1193105714203, 40.735649952305081 ], [ 23.867746335760302, 40.778728451873775 ], [ 24.118339912822698, 41.00632018190651 ], [ 24.373932953183644, 41.079132364200078 ], [ 24.494161720876498, 41.201450632075321 ], [ 24.678491507800864, 41.188766684707282 ] ] ] ] } },
{ "type": "Feature", "properties": { "NUTS_ID": "EL521", "name": "Imathia" }, "geometry": { "type": "Polygon", "coordinates": [ [ [ 22.663957370552872, 40.491554657628754 ], [ 22.468243639679635, 40.52723102675273 ], [ 22.183820970805467, 40.302276923706998 ], [ 22.09106742646853, 40.432721925225145 ], [ 21.923572482360267, 40.51031643298569 ], [ 21.906011319035031, 40.682091875843085 ], [ 22.091067426426878, 40.728447719315334 ], [ 22.298463484942197, 40.661693941803989 ], [ 22.491366797431116, 40.711267379536004 ], [ 22.682408959491568, 40.528966439153244 ], [ 22.663957370552872, 40.491554657628754 ] ] ] } },
{ "type": "Feature", "properties": { "NUTS_ID": "EL522", "name": "Thessaloniki" }, "geometry": { "type": "Polygon", "coordinates": [ [ [ 22.682408959491568, 40.528966439153244 ], [ 22.491366797431116, 40.711267379536004 ], [ 22.639318984049908, 40.840664527444105 ], [ 22.922010365507024, 40.820265635819439 ], [ 23.03462094235466, 40.934427117386761 ], [ 23.240373868424456, 41.006034869670216 ], [ 23.38468711432942, 40.86302361833917 ], [ 23.765077322102076, 40.75789232447255 ], [ 23.718965742514712, 40.682664985324536 ], [ 23.756864525421921, 40.634563328189842 ], [ 23.41976266743491, 40.572790448066449 ], [ 23.004153257615805, 40.350336355670443 ], [ 22.86731097981702, 40.467729621216314 ], [ 22.961245724766069, 40.562270840465288 ], [ 22.934883197521199, 40.619309946239511 ], [ 22.682408959491568, 40.528966439153244 ] ] ] } },
{ "type": "Feature", "properties": { "NUTS_ID": "EL523", "name": "Kilkis" }, "geometry": { "type": "Polygon", "coordinates": [ [ [ 22.639318984049908, 40.840664527444105 ], [ 22.428981456570135, 40.876088338207012 ], [ 22.277281693478585, 40.97031185078017 ], [ 22.332051845521679, 41.120272519843418 ], [ 22.605696166522574, 41.126569031569353 ], [ 22.666470054781563, 41.186339606386923 ], [ 22.748710886523931, 41.173064974658281 ], [ 22.75830663142024, 41.246044030759613 ], [ 22.757236831193975, 41.302991106564541 ], [ 22.779613253161155, 41.327059134035537 ], [ 22.799353129911378, 41.34089947340096 ], [ 22.879178667829702, 41.34065311360839 ], [ 22.89543415212534, 41.212667829296379 ], [ 23.177975392561475, 41.108837631001208 ], [ 23.240373868424456, 41.006034869670216 ], [ 23.03462094235466, 40.934427117386761 ], [ 22.922010365507024, 40.820265635819439 ], [ 22.639318984049908, 40.840664527444105 ] ] ] } },
{ "type": "Feature", "properties": { "NUTS_ID": "EL524", "name": "Pella" }, "geometry": { "type": "Polygon", "coordinates": [ [ [ 21.906011319035031, 40.682091875843085 ], [ 21.821787209712319, 40.696691637807369 ], [ 21.738022072220549, 40.814911896841288 ], [ 21.7873777739993, 40.931125359895717 ], [ 21.910150180437174, 41.081946557672495 ], [ 21.929438063566312, 41.100350402714973 ], [ 22.09106742654992, 41.138007273756571 ], [ 22.216216165370927, 41.170457396084025 ], [ 22.332051845521679, 41.120272519843418 ], [ 22.277281693478585, 40.97031185078017 ], [ 22.428981456570135, 40.876088338207012 ], [ 22.639318984049908, 40.840664527444105 ], [ 22.491366797431116, 40.711267379536004 ], [ 22.298463484942197, 40.661693941803989 ], [ 22.091067426426878, 40.728447719315334 ], [ 21.906011319035031, 40.682091875843085 ] ] ] } },
{ "type": "Feature", "properties": { "NUTS_ID": "EL525", "name": "Pieria" }, "geometry": { "type": "Polygon", "coordinates": [ [ [ 22.662430082907946, 39.975547938786214 ], [ 22.539496738649554, 39.961843112077979 ], [ 22.365295608191882, 40.100993637448134 ], [ 22.324578173818715, 40.170083221974878 ], [ 22.226462882086825, 40.112675490571114 ], [ 22.1822657662895, 40.186767507408057 ], [ 22.115703312493729, 40.190248854796472 ], [ 22.183820970805467, 40.302276923706998 ], [ 22.468243639679635, 40.52723102675273 ], [ 22.663957370552872, 40.491554657628754 ], [ 22.609014744507924, 40.454929593039687 ], [ 22.644588936290258, 40.357157019325541 ], [ 22.565523208329605, 40.100993637454415 ], [ 22.662430082907946, 39.975547938786214 ] ] ] } },
{ "type": "Feature", "properties": { "NUTS_ID": "EL526", "name": "Serres" }, "geometry": { "type": "Polygon", "coordinates": [ [ [ 23.765077322102076, 40.75789232447255 ], [ 23.38468711432942, 40.86302361833917 ], [ 23.240373868424456, 41.006034869670216 ], [ 23.177975392561475, 41.108837631001208 ], [ 22.89543415212534, 41.212667829296379 ], [ 22.879178667829702, 41.34065311360839 ], [ 22.927591411164041, 41.338539330316252 ], [ 23.624308285296834, 41.375698383720859 ], [ 23.798656445056448, 41.150936404111036 ], [ 24.118339912822698, 41.00632018190651 ], [ 23.867746335760302, 40.778728451873775 ], [ 23.765077322102076, 40.75789232447255 ] ] ] } },
{ "type": "Feature", "properties": { "NUTS_ID": "EL527", "name": "Chalkidiki" }, "geometry": { "type": "MultiPolygon", "coordinates": [ [ [ [ 24.006992886378015, 40.377934405269393 ], [ 24.008504877837229, 40.365803051489443 ], [ 24.00624779958541, 40.357160839637139 ], [ 24.015039887625928, 40.333149379703571 ], [ 24.005042944117999, 40.314567691036316 ], [ 24.005042962871496, 40.314567625127395 ], [ 23.895115162698779, 40.366440603263776 ], [ 23.740693913514448, 40.337126677985886 ], [ 23.714479190361949, 40.272677260563206 ], [ 23.984187469401878, 40.100993637009815 ], [ 23.99831986958781, 40.004716637472185 ], [ 23.936678372591665, 39.958343112149066 ], [ 23.77347426120561, 40.100993636784352 ], [ 23.621098549676351, 40.227593141698129 ], [ 23.41209370255682, 40.263216514048395 ], [ 23.319440147355458, 40.219337047305672 ], [ 23.004153257615805, 40.350336355670443 ], [ 23.41976266743491, 40.572790448066449 ], [ 23.756864525421921, 40.634563328189842 ], [ 23.866336921610419, 40.451118810466049 ], [ 24.010988298189098, 40.389434307010745 ], [ 24.006992886378015, 40.377934405269393 ] ] ], [ [ [ 23.567246113752425, 39.962981745418972 ], [ 23.394974770857736, 39.958619153488243 ], [ 23.22171743538016, 40.112835754256167 ], [ 23.427786965472841, 40.130920754579464 ], [ 23.567246113752425, 39.962981745418972 ] ] ] ] } },
{ "type": "Feature", "properties": { "NUTS_ID": "EL531", "name": "Grevena, Kozani" }, "geometry": { "type": "Polygon", "coordinates": [ [ [ 21.917692226723652, 39.852048506344516 ], [ 21.514247471478217, 39.893531575907971 ], [ 21.295599920224824, 39.857457982381618 ], [ 21.108697399053266, 39.88403748318175 ], [ 21.082146636458837, 40.019683419303497 ], [ 20.98528453073579, 40.097680280018295 ], [ 21.004012209016445, 40.154066410331367 ], [ 21.098044547398505, 40.320606007971513 ], [ 21.424364082070181, 40.391828142062508 ], [ 21.509808352078068, 40.52499790123936 ], [ 21.759788146708051, 40.615357424799143 ], [ 21.821787209712319, 40.696691637807369 ], [ 21.906011319035031, 40.682091875843085 ], [ 21.923572482360267, 40.51031643298569 ], [ 22.09106742646853, 40.432721925225145 ], [ 22.183820970805467, 40.302276923706998 ], [ 22.115703312493729, 40.190248854796472 ], [ 21.92303407017447, 39.97328635152062 ], [ 21.917692226723652, 39.852048506344516 ] ] ] } },
{ "type": "Feature", "properties": { "NUTS_ID": "EL532", "name": "Kastoria" }, "geometry": { "type": "Polygon", "coordinates": [ [ [ 20.778451799528874, 40.348730593551068 ], [ 20.795661213294476, 40.43378955641505 ], [ 20.946587173490133, 40.484594681993336 ], [ 21.05606836890853, 40.616695330727453 ], [ 21.262723388521874, 40.730437134176164 ], [ 21.509808352078068, 40.52499790123936 ], [ 21.424364082070181, 40.391828142062508 ], [ 21.098044547398505, 40.320606007971513 ], [ 21.004012209016445, 40.154066410331367 ], [ 20.884522185065922, 40.325589463258048 ], [ 20.778451799528874, 40.348730593551068 ] ] ] } },
{ "type": "Feature", "properties": { "NUTS_ID": "EL533", "name": "Florina" }, "geometry": { "type": "Polygon", "coordinates": [ [ [ 21.509808352078068, 40.52499790123936 ], [ 21.262723388521874, 40.730437134176164 ], [ 21.05606836890853, 40.616695330727453 ], [ 20.980204391010304, 40.855665050155736 ], [ 21.119612153603477, 40.854682876503446 ], [ 21.242826563725988, 40.874186132918005 ], [ 21.502939050508914, 40.910607339940121 ], [ 21.7873777739993, 40.931125359895717 ], [ 21.738022072220549, 40.814911896841288 ], [ 21.821787209712319, 40.696691637807369 ], [ 21.759788146708051, 40.615357424799143 ], [ 21.509808352078068, 40.52499790123936 ] ] ] } },
{ "type": "Feature", "properties": { "NUTS_ID": "EL541", "name": "Arta, Preveza" }, "geometry": { "type": "MultiPolygon", "coordinates": [ [ [ [ 21.148593094139638, 39.115716039856025 ], [ 21.108608480406332, 39.046146477510248 ], [ 20.80721465261945, 39.060679769105221 ], [ 20.733723939877109, 38.972442122649554 ], [ 20.477821569292509, 39.274841483714084 ], [ 20.680452828916255, 39.288344068925426 ], [ 20.736010808932775, 39.356161159842188 ], [ 21.181609671471342, 39.501088404045902 ], [ 21.403234301033425, 39.320499297654095 ], [ 21.372894295390402, 39.174613927862204 ], [ 21.148593094139638, 39.115716039856025 ] ] ], [ [ [ 20.38254758042175, 39.344028585704152 ], [ 20.464247135805273, 39.27310185197009 ], [ 20.343242515862947, 39.287293268485527 ], [ 20.300678563430683, 39.315735222953954 ], [ 20.38254758042175, 39.344028585704152 ] ] ] ] } },
{ "type": "Feature", "properties": { "NUTS_ID": "EL542", "name": "Thesprotia" }, "geometry": { "type": "Polygon", "coordinates": [ [ [ 20.008812646770885, 39.691292235121281 ], [ 20.045223645890072, 39.689458555020799 ], [ 20.133379684260852, 39.659131451736087 ], [ 20.211144650256571, 39.65438163738731 ], [ 20.269277761274594, 39.68793440152664 ], [ 20.304106967711473, 39.72345879212255 ], [ 20.302345082595789, 39.812743109891152 ], [ 20.39130787986635, 39.78848353741315 ], [ 20.49634716496541, 39.728320562897871 ], [ 20.680452828916255, 39.288344068925426 ], [ 20.477821569292509, 39.274841483714084 ], [ 20.464247135805273, 39.27310185197009 ], [ 20.38254758042175, 39.344028585704152 ], [ 20.300678563430683, 39.315735222953954 ], [ 20.163618718937755, 39.612688651333343 ], [ 20.008812646770885, 39.691292235121281 ] ] ] } },
{ "type": "Feature", "properties": { "NUTS_ID": "EL543", "name": "Ioannina" }, "geometry": { "type": "Polygon", "coordinates": [ [ [ 20.39130787986635, 39.78848353741315 ], [ 20.342241742736302, 39.949809382223457 ], [ 20.40190651363606, 40.019683419476941 ], [ 20.612876563311108, 40.079653468487081 ], [ 20.778451799528874, 40.348730593551068 ], [ 20.884522185065922, 40.325589463258048 ], [ 21.004012209016445, 40.154066410331367 ], [ 20.98528453073579, 40.097680280018295 ], [ 21.082146636458837, 40.019683419303497 ], [ 21.108697399053266, 39.88403748318175 ], [ 21.295599920224824, 39.857457982381618 ], [ 21.145976327406249, 39.677778514261398 ], [ 21.181609671471342, 39.501088404045902 ], [ 20.736010808932775, 39.356161159842188 ], [ 20.680452828916255, 39.288344068925426 ], [ 20.49634716496541, 39.728320562897871 ], [ 20.39130787986635, 39.78848353741315 ] ] ] } },
{ "type": "Feature", "properties": { "NUTS_ID": "EL611", "name": "Karditsa, Trikala" }, "geometry": { "type": "Polygon", "coordinates": [ [ [ 21.181609671471342, 39.501088404045902 ], [ 21.145976327406249, 39.677778514261398 ], [ 21.295599920224824, 39.857457982381618 ], [ 21.514247471478217, 39.893531575907971 ], [ 21.917692226723652, 39.852048506344516 ], [ 21.95612666665733, 39.73426316446384 ], [ 22.091067426376895, 39.652693486106109 ], [ 22.180586433215627, 39.616824902630576 ], [ 22.256335338475317, 39.413073530948694 ], [ 22.258201610673098, 39.272195187157315 ], [ 22.091067426410468, 39.094620791618972 ], [ 21.938509896437434, 39.065081595694082 ], [ 21.85835284723132, 39.135000490311491 ], [ 21.755322136541274, 39.1188118610213 ], [ 21.660513797428109, 39.238339698164943 ], [ 21.396377975654669, 39.164741350118845 ], [ 21.372894295390402, 39.174613927862204 ], [ 21.403234301033425, 39.320499297654095 ], [ 21.181609671471342, 39.501088404045902 ] ] ] } },
{ "type": "Feature", "properties": { "NUTS_ID": "EL612", "name": "Larisa" }, "geometry": { "type": "Polygon", "coordinates": [ [ [ 22.915911000647331, 39.602935921987203 ], [ 22.652739452068253, 39.39914020791408 ], [ 22.504899631327458, 39.130523349908174 ], [ 22.258201610673098, 39.272195187157315 ], [ 22.256335338475317, 39.413073530948694 ], [ 22.180586433215627, 39.616824902630576 ], [ 22.091067426376895, 39.652693486106109 ], [ 21.95612666665733, 39.73426316446384 ], [ 21.917692226723652, 39.852048506344516 ], [ 21.92303407017447, 39.97328635152062 ], [ 22.115703312493729, 40.190248854796472 ], [ 22.1822657662895, 40.186767507408057 ], [ 22.226462882086825, 40.112675490571114 ], [ 22.324578173818715, 40.170083221974878 ], [ 22.365295608191882, 40.100993637448134 ], [ 22.539496738649554, 39.961843112077979 ], [ 22.662430082907946, 39.975547938786214 ], [ 22.700667460439263, 39.952103698973481 ], [ 22.737914965964244, 39.873200287377806 ], [ 22.848389349280456, 39.795394275405556 ], [ 22.915911000647331, 39.602935921987203 ] ] ] } },
{ "type": "Feature", "properties": { "NUTS_ID": "EL613", "name": "Magnisia, Sporades" }, "geometry": { "type": "MultiPolygon", "coordinates": [ [ [ [ 24.229225340927457, 39.492050899593259 ], [ 24.197077009324754, 39.442341682527669 ], [ 24.113921560992281, 39.474219994712556 ], [ 24.152705513389478, 39.535866396785941 ], [ 24.217875010207955, 39.558200951199794 ], [ 24.229225340927457, 39.492050899593259 ] ] ], [ [ [ 24.104912459662437, 39.296630314684542 ], [ 23.993986629525796, 39.292522516646017 ], [ 24.057360597295787, 39.391570205111549 ], [ 24.128048494978742, 39.364267092783429 ], [ 24.104912459662437, 39.296630314684542 ] ] ], [ [ [ 23.984779243134394, 39.291889270840876 ], [ 23.913469988436628, 39.162406753650629 ], [ 23.834294203499244, 39.186961524572339 ], [ 23.932717276053101, 39.283076432449903 ], [ 23.984779243134394, 39.291889270840876 ] ] ], [ [ [ 23.792095837763075, 39.11306418504202 ], [ 23.743215213460797, 39.074880612056944 ], [ 23.669020821805912, 39.08484564658383 ], [ 23.632632620629089, 39.149665933394196 ], [ 23.677580642055847, 39.163271247887891 ], [ 23.792095837763075, 39.11306418504202 ] ] ], [ [ [ 23.549259908411976, 39.156734451394136 ], [ 23.49430642249526, 39.112768050501614 ], [ 23.384450839992425, 39.165327446531997 ], [ 23.470134119263701, 39.211956279485634 ], [ 23.549259908411976, 39.156734451394136 ] ] ], [ [ [ 23.16697803131412, 39.413073530995781 ], [ 23.322161870464502, 39.232730590855496 ], [ 23.299008569554012, 39.148619257695643 ], [ 23.231868486963098, 39.146498811320782 ], [ 23.127982614725024, 39.292175424294328 ], [ 22.975878330608406, 39.339941542728191 ], [ 22.835888805489052, 39.260781491026641 ], [ 23.016162592344411, 39.00328419372584 ], [ 22.524740386531427, 39.051854231680991 ], [ 22.504899631327458, 39.130523349908174 ], [ 22.652739452068253, 39.39914020791408 ], [ 22.915911000647331, 39.602935921987203 ], [ 23.090854938967794, 39.498286599134474 ], [ 23.16697803131412, 39.413073530995781 ] ] ], [ [ [ 23.136862437822266, 39.100933135874271 ], [ 23.059619501508227, 39.08160807605281 ], [ 23.026056953815239, 39.180588220519979 ], [ 23.111807780532025, 39.189746632451552 ], [ 23.136862437822266, 39.100933135874271 ] ] ] ] } },
{ "type": "Feature", "properties": { "NUTS_ID": "EL621", "name": "Zakynthos" }, "geometry": { "type": "Polygon", "coordinates": [ [ [ 20.589183604400716, 37.875988836699165 ], [ 20.719736168017345, 37.907067293698098 ], [ 20.907902017455591, 37.733206533121468 ], [ 20.801197465077383, 37.670205149252311 ], [ 20.589183604400716, 37.875988836699165 ] ] ] } },
{ "type": "Feature", "properties": { "NUTS_ID": "EL622", "name": "Kerkyra" }, "geometry": { "type": "Polygon", "coordinates": [ [ [ 19.599936567044971, 39.771888841994929 ], [ 19.889063686485816, 39.78442163220943 ], [ 19.964726652278962, 39.450600080737033 ], [ 19.851197130238454, 39.488145115049534 ], [ 19.599936567044971, 39.771888841994929 ] ] ] } },
{ "type": "Feature", "properties": { "NUTS_ID": "EL623", "name": "Ithaki, Kefallinia" }, "geometry": { "type": "MultiPolygon", "coordinates": [ [ [ [ 20.571656097943279, 38.391503283510339 ], [ 20.786080267307682, 38.102549173032081 ], [ 20.55372513367724, 38.112038827179418 ], [ 20.34992360651529, 38.206458171235994 ], [ 20.409305475541522, 38.314240976625605 ], [ 20.571656097943279, 38.391503283510339 ] ] ], [ [ [ 20.694234427860714, 38.44994258459181 ], [ 20.785374206415021, 38.29152022939936 ], [ 20.693785974900724, 38.304673177673713 ], [ 20.589254049994985, 38.459310757978237 ], [ 20.694234427860714, 38.44994258459181 ] ] ] ] } },
{ "type": "Feature", "properties": { "NUTS_ID": "EL624", "name": "Lefkada" }, "geometry": { "type": "MultiPolygon", "coordinates": [ [ [ [ 20.89529737659393, 38.575048767200919 ], [ 20.79555392947789, 38.537248101029654 ], [ 20.725813236506159, 38.59124380428981 ], [ 20.812290404974455, 38.630875499206255 ], [ 20.89529737659393, 38.575048767200919 ] ] ], [ [ [ 20.720126881606042, 38.641038314195043 ], [ 20.533554804154456, 38.587252395723482 ], [ 20.592027567749739, 38.766587986777431 ], [ 20.697917195964607, 38.835996282878412 ], [ 20.720126881606042, 38.641038314195043 ] ] ] ] } },
{ "type": "Feature", "properties": { "NUTS_ID": "EL631", "name": "Aitoloakarnania" }, "geometry": { "type": "Polygon", "coordinates": [ [ [ 21.108608480406332, 39.046146477510248 ], [ 21.148593094139638, 39.115716039856025 ], [ 21.372894295390402, 39.174613927862204 ], [ 21.396377975654669, 39.164741350118845 ], [ 21.396987973847523, 39.024434746588355 ], [ 21.580996281901843, 38.869175588641603 ], [ 21.588487882298118, 38.740091284845313 ], [ 21.776547055620458, 38.697572032506791 ], [ 21.946002000501903, 38.784002082811334 ], [ 21.999425627435816, 38.768609817913955 ], [ 21.96753075558015, 38.60826815017731 ], [ 21.996983941448129, 38.532041981264669 ], [ 21.851722661969912, 38.374525213359114 ], [ 21.510258336219195, 38.31287431810685 ], [ 21.38147710893637, 38.384125995652937 ], [ 21.167577077004324, 38.311822420690063 ], [ 21.019865702853945, 38.608268150061363 ], [ 20.864914084480009, 38.775398975151049 ], [ 20.747610308453378, 38.817275540793432 ], [ 20.8467066920897, 38.925481998603459 ], [ 21.093846896868943, 38.892258723031787 ], [ 21.146151571364971, 38.97093516932226 ], [ 21.108608480406332, 39.046146477510248 ] ] ] } },
{ "type": "Feature", "properties": { "NUTS_ID": "EL632", "name": "Achaia" }, "geometry": { "type": "Polygon", "coordinates": [ [ [ 22.372972484952452, 38.142223650561355 ], [ 22.335671733330344, 37.999409359957475 ], [ 22.238070827225719, 37.925298242918402 ], [ 22.264304770645087, 37.839156018556288 ], [ 22.091067426182434, 37.813122857080565 ], [ 22.008952190778516, 37.795081758892671 ], [ 21.889741552221484, 37.865894432290176 ], [ 21.796613585655045, 37.922941417002328 ], [ 21.657718735523318, 37.86983009699992 ], [ 21.351074370594326, 38.102138454518347 ], [ 21.386334187325115, 38.19749660948812 ], [ 21.62803859263575, 38.156236841335463 ], [ 21.851607905508704, 38.329146201305633 ], [ 22.091067426461404, 38.256613284003656 ], [ 22.372972484952452, 38.142223650561355 ] ] ] } },
{ "type": "Feature", "properties": { "NUTS_ID": "EL633", "name": "Ileia" }, "geometry": { "type": "Polygon", "coordinates": [ [ [ 21.351074370594326, 38.102138454518347 ], [ 21.657718735523318, 37.86983009699992 ], [ 21.796613585655045, 37.922941417002328 ], [ 21.889741552221484, 37.865894432290176 ], [ 21.806666239996954, 37.782013770828286 ], [ 21.806650938490527, 37.615690341111794 ], [ 21.934289160392005, 37.556712967507629 ], [ 21.965592544436628, 37.483448586657779 ], [ 21.680233141123047, 37.377433728142506 ], [ 21.542685865865735, 37.550574169732187 ], [ 21.148355536535835, 37.852230815177428 ], [ 21.14981596341465, 37.927770579786191 ], [ 21.351074370594326, 38.102138454518347 ] ] ] } },
{ "type": "Feature", "properties": { "NUTS_ID": "EL641", "name": "Voiotia" }, "geometry": { "type": "Polygon", "coordinates": [ [ [ 22.608068681612714, 38.359401626590319 ], [ 22.523994621668166, 38.510330331329591 ], [ 22.582128579171172, 38.559373140339062 ], [ 23.333858514604536, 38.525402659317699 ], [ 23.328288840142761, 38.501220342307278 ], [ 23.293008033141824, 38.43299355981992 ], [ 23.403359698882859, 38.451608623465468 ], [ 23.514318790185218, 38.375290411721508 ], [ 23.65513453686129, 38.352496827751601 ], [ 23.690417994487991, 38.340297388948358 ], [ 23.634494668884116, 38.211340927719299 ], [ 23.507981243337085, 38.160569846038051 ], [ 23.329547814388217, 38.231873488928791 ], [ 23.1261790496015, 38.168399846132012 ], [ 22.928420295426221, 38.191910656032064 ], [ 22.608068681612714, 38.359401626590319 ] ] ] } },
{ "type": "Feature", "properties": { "NUTS_ID": "EL642", "name": "Evvoia" }, "geometry": { "type": "MultiPolygon", "coordinates": [ [ [ [ 24.107014796514864, 38.625089300519086 ], [ 24.2744023379027, 38.275803622016831 ], [ 24.490983263105125, 38.13865429482685 ], [ 24.525872207159132, 38.031165059124831 ], [ 24.445388780615374, 37.988981607471956 ], [ 24.274875371257139, 38.025154358328301 ], [ 23.992252050520086, 38.365487195332108 ], [ 23.65513453686129, 38.352496827751601 ], [ 23.514318790185218, 38.375290411721508 ], [ 23.403359698882859, 38.451608623465468 ], [ 23.293008033141824, 38.43299355981992 ], [ 23.328288840142761, 38.501220342307278 ], [ 23.496124546478129, 38.578110944735066 ], [ 23.066883253887269, 38.88358352461686 ], [ 23.284709440393534, 38.986217219455959 ], [ 23.608109788132367, 38.779812636755771 ], [ 24.107014796514864, 38.625089300519086 ] ] ], [ [ [ 24.671992415401782, 38.781408454248862 ], [ 24.587475572758937, 38.760947357003666 ], [ 24.414727620798217, 38.884165136881265 ], [ 24.521926915867727, 38.968412006488343 ], [ 24.671992415401782, 38.781408454248862 ] ] ] ] } },
{ "type": "Feature", "properties": { "NUTS_ID": "EL643", "name": "Evrytania" }, "geometry": { "type": "Polygon", "coordinates": [ [ [ 21.396377975654669, 39.164741350118845 ], [ 21.660513797428109, 39.238339698164943 ], [ 21.755322136541274, 39.1188118610213 ], [ 21.85835284723132, 39.135000490311491 ], [ 21.938509896437434, 39.065081595694082 ], [ 21.847678611576011, 38.954420606945845 ], [ 21.946002000501903, 38.784002082811334 ], [ 21.776547055620458, 38.697572032506791 ], [ 21.588487882298118, 38.740091284845313 ], [ 21.580996281901843, 38.869175588641603 ], [ 21.396987973847523, 39.024434746588355 ], [ 21.396377975654669, 39.164741350118845 ] ] ] } },
{ "type": "Feature", "properties": { "NUTS_ID": "EL644", "name": "Fthiotida" }, "geometry": { "type": "Polygon", "coordinates": [ [ [ 23.333858514604536, 38.525402659317699 ], [ 22.582128579171172, 38.559373140339062 ], [ 22.444912219995938, 38.707447122856458 ], [ 22.282060164279407, 38.783593943709903 ], [ 22.157616617907657, 38.736615713301525 ], [ 21.999425627435816, 38.768609817913955 ], [ 21.946002000501903, 38.784002082811334 ], [ 21.847678611576011, 38.954420606945845 ], [ 21.938509896437434, 39.065081595694082 ], [ 22.091067426410468, 39.094620791618972 ], [ 22.258201610673098, 39.272195187157315 ], [ 22.504899631327458, 39.130523349908174 ], [ 22.524740386531427, 39.051854231680991 ], [ 23.016162592344411, 39.00328419372584 ], [ 22.786183772383438, 38.838200866960051 ], [ 23.216220895740399, 38.65694989782213 ], [ 23.333858514604536, 38.525402659317699 ] ] ] } },
{ "type": "Feature", "properties": { "NUTS_ID": "EL645", "name": "Fokida" }, "geometry": { "type": "Polygon", "coordinates": [ [ [ 21.851722661969912, 38.374525213359114 ], [ 21.996983941448129, 38.532041981264669 ], [ 21.96753075558015, 38.60826815017731 ], [ 21.999425627435816, 38.768609817913955 ], [ 22.157616617907657, 38.736615713301525 ], [ 22.282060164279407, 38.783593943709903 ], [ 22.444912219995938, 38.707447122856458 ], [ 22.582128579171172, 38.559373140339062 ], [ 22.523994621668166, 38.510330331329591 ], [ 22.608068681612714, 38.359401626590319 ], [ 22.576973029273685, 38.305051457968908 ], [ 22.452308969676984, 38.41017428402921 ], [ 22.351408202836051, 38.34631937493949 ], [ 22.091067426159665, 38.373581853374127 ], [ 21.851722661969912, 38.374525213359114 ] ] ] } },
{ "type": "Feature", "properties": { "NUTS_ID": "EL651", "name": "Argolida, Arkadia" }, "geometry": { "type": "Polygon", "coordinates": [ [ [ 22.980757526196236, 37.047947263480737 ], [ 22.731547561638632, 37.063696693761315 ], [ 22.473206767783388, 37.317560419845044 ], [ 22.170983588624008, 37.178352212600842 ], [ 22.000204837851236, 37.336389834658604 ], [ 21.965592544436628, 37.483448586657779 ], [ 21.934289160392005, 37.556712967507629 ], [ 21.806650938490527, 37.615690341111794 ], [ 21.806666239996954, 37.782013770828286 ], [ 21.889741552221484, 37.865894432290176 ], [ 22.008952190778516, 37.795081758892671 ], [ 22.091067426182434, 37.813122857080565 ], [ 22.264304770645087, 37.839156018556288 ], [ 22.372603828422779, 37.802836595836986 ], [ 22.493922197203112, 37.839285261339242 ], [ 22.996440267301026, 37.708662017300689 ], [ 23.120031738657566, 37.729985046843332 ], [ 23.200378692236985, 37.596652836654719 ], [ 23.200422845712154, 37.531090078962343 ], [ 23.423239597140292, 37.458612355678213 ], [ 23.424419604341157, 37.411701187188775 ], [ 23.29869396560321, 37.393508230019705 ], [ 23.198460567478836, 37.304048679716843 ], [ 23.141488360556735, 37.304048680062159 ], [ 23.086049993449375, 37.441507642969974 ], [ 22.758558631344844, 37.571014708476866 ], [ 22.730862139704914, 37.496629493301619 ], [ 22.830343652931617, 37.304048679978266 ], [ 22.980757526196236, 37.047947263480737 ] ] ] } },
{ "type": "Feature", "properties": { "NUTS_ID": "EL652", "name": "Korinthia" }, "geometry": { "type": "Polygon", "coordinates": [ [ [ 23.117532031816793, 38.060645732780436 ], [ 23.106588180522824, 37.999409360163611 ], [ 23.17969936773401, 37.951590027394097 ], [ 23.065367787271573, 37.890877880943378 ], [ 23.133368693709798, 37.806267587841589 ], [ 23.120031738657566, 37.729985046843332 ], [ 22.996440267301026, 37.708662017300689 ], [ 22.493922197203112, 37.839285261339242 ], [ 22.372603828422779, 37.802836595836986 ], [ 22.264304770645087, 37.839156018556288 ], [ 22.238070827225719, 37.925298242918402 ], [ 22.335671733330344, 37.999409359957475 ], [ 22.372972484952452, 38.142223650561355 ], [ 22.525497090056618, 38.120565287986217 ], [ 22.77447841365808, 37.999409359979374 ], [ 22.809765543119198, 37.96223207744184 ], [ 22.889492463371816, 37.933937919927232 ], [ 22.958153207031515, 37.957214482582614 ], [ 22.936516272284461, 37.999409359695306 ], [ 22.943224581706691, 38.066098952669392 ], [ 23.117532031816793, 38.060645732780436 ] ] ] } },
{ "type": "Feature", "properties": { "NUTS_ID": "EL653", "name": "Lakonia, Messinia" }, "geometry": { "type": "Polygon", "coordinates": [ [ [ 21.680233141123047, 37.377433728142506 ], [ 21.965592544436628, 37.483448586657779 ], [ 22.000204837851236, 37.336389834658604 ], [ 22.170983588624008, 37.178352212600842 ], [ 22.473206767783388, 37.317560419845044 ], [ 22.731547561638632, 37.063696693761315 ], [ 22.980757526196236, 37.047947263480737 ], [ 23.082939433524913, 36.805492672224197 ], [ 23.036348156503056, 36.650671265498978 ], [ 23.154015674538574, 36.503619779429002 ], [ 23.120334928011484, 36.444838264794306 ], [ 22.704151279088077, 36.801106439662931 ], [ 22.54942573805684, 36.728392822678316 ], [ 22.480039073065452, 36.45786299572223 ], [ 22.401491133963109, 36.473366832147583 ], [ 22.31306385076925, 36.779207323171434 ], [ 22.091067425553302, 37.026759396333702 ], [ 21.940553080947403, 36.966693252211861 ], [ 21.908838033523367, 36.750778911814727 ], [ 21.731573112712294, 36.809624468729432 ], [ 21.574552102262491, 37.093569506506107 ], [ 21.649563146431966, 37.250554567295211 ], [ 21.680233141123047, 37.377433728142506 ] ] ] } }
]
}
