{
"type": "FeatureCollection",
"name": "ES",
"crs": { "type": "name", "properties": { "name": "urn:ogc:def:crs:OGC:1.3:CRS84" } },
"features": [
{ "type": "Feature", "properties": { "NUTS_ID": "ES111", "name": "A Coruña" }, "geometry": { "type": "Polygon", "coordinates": [ [ [ -7.699736359589825, 43.735114825194522 ], [ -7.764739338087461, 43.505193248483423 ], [ -7.933317698127583, 43.22848986940587 ], [ -7.929623812661827, 43.083459307569662 ], [ -7.919590770607106, 42.989205566687339 ], [ -7.999684702367119, 42.84885816205361 ], [ -8.198368989826564, 42.842306146882493 ], [ -8.462765201794246, 42.746639395638454 ], [ -8.743960189434144, 42.647217317006479 ], [ -9.017827442128088, 42.587336178214002 ], [ -9.026827170507511, 42.74663939540784 ], [ -9.20240037333487, 42.950871128662158 ], [ -9.12077910996752, 43.144041245130488 ], [ -8.843692036546598, 43.306223440902428 ], [ -8.32528431508101, 43.378669493419565 ], [ -8.119297621254631, 43.633316015676584 ], [ -7.699736359589825, 43.735114825194522 ] ] ] } },
{ "type": "Feature", "properties": { "NUTS_ID": "ES112", "name": "Lugo" }, "geometry": { "type": "Polygon", "coordinates": [ [ [ -7.031836889928454, 43.5444714180502 ], [ -7.146426467237702, 43.378309378311656 ], [ -6.947987612719168, 43.161589397623032 ], [ -6.851693034655124, 43.151469747716625 ], [ -6.879158593512413, 43.116627801456616 ], [ -6.905304986912646, 43.083459307980782 ], [ -6.942346934255338, 43.036469055708885 ], [ -6.896358570351197, 42.989205566601854 ], [ -6.824167129891851, 42.915012465709083 ], [ -6.871793014075902, 42.801609973741655 ], [ -6.948938341572824, 42.746639395033633 ], [ -7.077069197312975, 42.508000676473245 ], [ -7.201312502887042, 42.368355206180155 ], [ -7.353024024519962, 42.430616852748443 ], [ -7.559268941690445, 42.392578678371322 ], [ -7.839925234370078, 42.489749102142135 ], [ -7.898146309556352, 42.546713022570195 ], [ -7.930711001346177, 42.578574551127737 ], [ -7.910613120249113, 42.746639394973265 ], [ -7.999684702367119, 42.84885816205361 ], [ -7.919590770607106, 42.989205566687339 ], [ -7.929623812661827, 43.083459307569662 ], [ -7.933317698127583, 43.22848986940587 ], [ -7.764739338087461, 43.505193248483423 ], [ -7.699736359589825, 43.735114825194522 ], [ -7.462374819352812, 43.715585846568239 ], [ -7.259477599796414, 43.580995267358638 ], [ -7.031836889928454, 43.5444714180502 ] ] ] } },
{ "type": "Feature", "properties": { "NUTS_ID": "ES113", "name": "Ourense" }, "geometry": { "type": "Polygon", "coordinates": [ [ [ -7.077069197312975, 42.508000676473245 ], [ -6.828455593645771, 42.45021292761146 ], [ -6.76743474024196, 42.354146861783995 ], [ -6.784307801760373, 42.253608632353327 ], [ -6.970562116364521, 42.13178154171564 ], [ -6.985800483593589, 41.971447052084685 ], [ -7.159142738516231, 41.973218458517344 ], [ -7.200464406593146, 41.879749416123516 ], [ -7.416413121340458, 41.827564133089844 ], [ -7.734402095573435, 41.902139739780026 ], [ -8.0518627247626, 41.820613920919243 ], [ -8.165075345114177, 41.818302138718735 ], [ -8.199102370838824, 41.921580072715997 ], [ -8.100540088964232, 42.037390006279097 ], [ -8.199000323681684, 42.154419059346353 ], [ -8.236713199883518, 42.256714238118882 ], [ -8.31505647953807, 42.469218310401665 ], [ -8.179620377900257, 42.550412791985266 ], [ -7.930711001346177, 42.578574551127737 ], [ -7.898146309556352, 42.546713022570195 ], [ -7.839925234370078, 42.489749102142135 ], [ -7.559268941690445, 42.392578678371322 ], [ -7.353024024519962, 42.430616852748443 ], [ -7.201312502887042, 42.368355206180155 ], [ -7.077069197312975, 42.508000676473245 ] ] ] } },
{ "type": "Feature", "properties": { "NUTS_ID": "ES114", "name": "Pontevedra" }, "geometry": { "type": "Polygon", "coordinates": [ [ [ -8.743960189434144, 42.647217317006479 ], [ -8.462765201794246, 42.746639395638454 ], [ -8.198368989826564, 42.842306146882493 ], [ -7.999684702367119, 42.84885816205361 ], [ -7.910613120249113, 42.746639394973265 ], [ -7.930711001346177, 42.578574551127737 ], [ -8.179620377900257, 42.550412791985266 ], [ -8.31505647953807, 42.469218310401665 ], [ -8.236713199883518, 42.256714238118882 ], [ -8.199000323681684, 42.154419059346353 ], [ -8.602654374634024, 42.053905473165607 ], [ -8.86318583914499, 41.872066458235651 ], [ -8.882937492188429, 42.103300251783637 ], [ -8.725750189566988, 42.25671423808479 ], [ -8.844493716524576, 42.445854187001046 ], [ -8.743960189434144, 42.647217317006479 ] ] ] } },
{ "type": "Feature", "properties": { "NUTS_ID": "ES120", "name": "Asturias" }, "geometry": { "type": "Polygon", "coordinates": [ [ [ -4.512301090466758, 43.393203817058399 ], [ -4.563856528524609, 43.296017754728489 ], [ -4.841023183738982, 43.180780111464941 ], [ -4.925914988477254, 43.220158968353687 ], [ -5.113725691602982, 43.116627801697994 ], [ -5.149311218643206, 43.097011181256001 ], [ -5.268267212637892, 43.083459308027571 ], [ -5.702271400274064, 43.034016063112468 ], [ -5.77690950924039, 42.989205566294252 ], [ -5.85486209911257, 42.989205566944612 ], [ -6.060525447239618, 43.066441207721255 ], [ -6.367229880637311, 43.042428504675833 ], [ -6.438319208250239, 42.989205566407492 ], [ -6.52685352721948, 42.922921965027626 ], [ -6.824167129891851, 42.915012465709083 ], [ -6.896358570351197, 42.989205566601854 ], [ -6.942346934255338, 43.036469055708885 ], [ -6.905304986912646, 43.083459307980782 ], [ -6.879158593512413, 43.116627801456616 ], [ -6.851693034655124, 43.151469747716625 ], [ -6.947987612719168, 43.161589397623032 ], [ -7.146426467237702, 43.378309378311656 ], [ -7.031836889928454, 43.5444714180502 ], [ -6.112061001685605, 43.563595303387025 ], [ -5.841577719925062, 43.640719617954986 ], [ -5.684995637462341, 43.553811013408428 ], [ -5.37745611605864, 43.549493074601919 ], [ -4.662752933405409, 43.404936247404549 ], [ -4.512301090466758, 43.393203817058399 ] ] ] } },
{ "type": "Feature", "properties": { "NUTS_ID": "ES130", "name": "Cantabria" }, "geometry": { "type": "Polygon", "coordinates": [ [ [ -3.15333810966044, 43.353222108331607 ], [ -3.344420395733918, 43.273476263252505 ], [ -3.423207382673743, 43.240595482987352 ], [ -3.417607936840278, 43.133315972506693 ], [ -3.641969537530922, 43.153569595074188 ], [ -3.716995343113274, 43.116627801615373 ], [ -3.784357881832867, 43.083459307373481 ], [ -3.865122602834383, 43.043691741588702 ], [ -3.913778604522263, 42.989205566386346 ], [ -3.949682202359832, 42.948999842416072 ], [ -3.834423786941092, 42.938972019121103 ], [ -3.859018760910825, 42.818569901321808 ], [ -4.081458445147208, 42.761623081620691 ], [ -4.361844362323321, 42.989205566182413 ], [ -4.427828428007579, 43.042763240258139 ], [ -4.662752934092905, 43.021088688569058 ], [ -4.737845317656626, 43.020944020598591 ], [ -4.778200371229782, 43.083459307947578 ], [ -4.799611395463611, 43.116627801518042 ], [ -4.841023183738982, 43.180780111464941 ], [ -4.563856528524609, 43.296017754728489 ], [ -4.512301090466758, 43.393203817058399 ], [ -4.228531158507851, 43.394636690623656 ], [ -3.858478457914387, 43.482471794367768 ], [ -3.800612302095575, 43.43315786297039 ], [ -3.589209308635241, 43.502521882720572 ], [ -3.344420396234825, 43.418673879980929 ], [ -3.226578799614414, 43.378309378349385 ], [ -3.15333810966044, 43.353222108331607 ] ] ] } },
{ "type": "Feature", "properties": { "NUTS_ID": "ES211", "name": "Araba/Álava" }, "geometry": { "type": "Polygon", "coordinates": [ [ [ -2.250807096526806, 42.895691171511949 ], [ -2.29569935925635, 42.746639394924792 ], [ -2.334329148907858, 42.662134802375576 ], [ -2.434929983935182, 42.63050058181382 ], [ -2.42071917363312, 42.489269348430049 ], [ -2.651812488256299, 42.494419893963304 ], [ -2.681149992232317, 42.546713022135584 ], [ -2.711785427517492, 42.601319668033426 ], [ -2.858067527076788, 42.638384173980697 ], [ -3.028062647285225, 42.74663939554403 ], [ -3.189579292820877, 42.862024230822101 ], [ -3.07427139750444, 42.965929667535789 ], [ -3.141839497649118, 43.161136498853338 ], [ -2.998880340519269, 43.169184278798134 ], [ -2.816367096349575, 43.044647783835167 ], [ -2.546386834311964, 43.088008940709443 ], [ -2.562061609281974, 42.989205566543298 ], [ -2.525732871806841, 42.960738052348596 ], [ -2.250807096526806, 42.895691171511949 ] ], [ [ -2.919311927636096, 42.746639395346435 ], [ -2.739263431280289, 42.665241963131535 ], [ -2.624483892168154, 42.701636449708587 ], [ -2.6458267593596, 42.746639395130352 ], [ -2.725083636141298, 42.80303475801751 ], [ -2.919311927636096, 42.746639395346435 ] ] ] } },
{ "type": "Feature", "properties": { "NUTS_ID": "ES212", "name": "Gipuzkoa" }, "geometry": { "type": "Polygon", "coordinates": [ [ [ -1.785981393981024, 43.350584323511072 ], [ -1.728903006250957, 43.296088949382117 ], [ -1.895641192810533, 43.209547184463275 ], [ -1.948536340538328, 43.136595593944108 ], [ -2.055404703446736, 42.989205566721196 ], [ -2.250807096526806, 42.895691171511949 ], [ -2.525732871806841, 42.960738052348596 ], [ -2.562061609281974, 42.989205566543298 ], [ -2.546386834311964, 43.088008940709443 ], [ -2.412846795133367, 43.321082961925946 ], [ -2.150656391426426, 43.295954019291358 ], [ -1.948536339927365, 43.326232705943227 ], [ -1.785981393981024, 43.350584323511072 ] ] ] } },
{ "type": "Feature", "properties": { "NUTS_ID": "ES213", "name": "Bizkaia" }, "geometry": { "type": "Polygon", "coordinates": [ [ [ -2.412846795133367, 43.321082961925946 ], [ -2.546386834311964, 43.088008940709443 ], [ -2.816367096349575, 43.044647783835167 ], [ -2.998880340519269, 43.169184278798134 ], [ -3.141839497649118, 43.161136498853338 ], [ -3.261622676394285, 43.188298101532752 ], [ -3.344420395796989, 43.159113325497458 ], [ -3.417607936840278, 43.133315972506693 ], [ -3.423207382673743, 43.240595482987352 ], [ -3.344420395733918, 43.273476263252505 ], [ -3.15333810966044, 43.353222108331607 ], [ -2.790148401855431, 43.422869950545859 ], [ -2.412846795133367, 43.321082961925946 ] ] ] } },
{ "type": "Feature", "properties": { "NUTS_ID": "ES220", "name": "Navarra" }, "geometry": { "type": "MultiPolygon", "coordinates": [ [ [ [ -0.930306948885923, 42.989205566706772 ], [ -0.796602164062258, 42.958536171874506 ], [ -0.754234952462883, 42.960269628532501 ], [ -0.72450116191046, 42.920158666877626 ], [ -0.897151634444097, 42.746639395519175 ], [ -0.901080265864484, 42.742690993666962 ], [ -1.156965317363401, 42.617739775016531 ], [ -1.322165127402156, 42.384947048189098 ], [ -1.403231689470761, 41.964136835308523 ], [ -1.546461567434493, 41.930813353877951 ], [ -1.847183447461349, 42.007988108598099 ], [ -1.877126738703881, 42.093882177746437 ], [ -1.711174423204037, 42.147687515306941 ], [ -1.713639671879144, 42.197090707613619 ], [ -1.948536339998372, 42.335045968482156 ], [ -2.42071917363312, 42.489269348430049 ], [ -2.434929983935182, 42.63050058181382 ], [ -2.334329148907858, 42.662134802375576 ], [ -2.29569935925635, 42.746639394924792 ], [ -2.250807096526806, 42.895691171511949 ], [ -2.055404703446736, 42.989205566721196 ], [ -1.948536340538328, 43.136595593944108 ], [ -1.895641192810533, 43.209547184463275 ], [ -1.728903006250957, 43.296088949382117 ], [ -1.436838575784401, 43.25126756128406 ], [ -1.4028965534869, 43.064071330050197 ], [ -0.930306948885923, 42.989205566706772 ] ] ], [ [ [ -1.01917919877649, 42.491446748036196 ], [ -1.073123503196965, 42.428653796919576 ], [ -1.187177659458074, 42.459432414609381 ], [ -1.099005887359965, 42.519790344156334 ], [ -1.01917919877649, 42.491446748036196 ] ] ] ] } },
{ "type": "Feature", "properties": { "NUTS_ID": "ES230", "name": "La Rioja" }, "geometry": { "type": "Polygon", "coordinates": [ [ [ -1.847183447461349, 42.007988108598099 ], [ -1.856539461211073, 41.966388318224922 ], [ -1.948536339853157, 41.953744381950145 ], [ -2.048242664175941, 41.94004086868236 ], [ -2.16575526938213, 42.088105858124763 ], [ -2.360180133714008, 42.137438276419914 ], [ -2.484271507940885, 42.115011345293347 ], [ -2.604065041457656, 42.002804916065543 ], [ -2.720258647996025, 42.016106410164511 ], [ -2.755031201514581, 42.104930215072137 ], [ -2.91363774858763, 42.022838563412378 ], [ -3.099689933374925, 42.168433449950911 ], [ -3.100989139704853, 42.25671423788156 ], [ -3.102354273503706, 42.349474638864059 ], [ -3.07367528258337, 42.54671302243765 ], [ -3.061592807967921, 42.629809661034891 ], [ -2.858067527076788, 42.638384173980697 ], [ -2.711785427517492, 42.601319668033426 ], [ -2.681149992232317, 42.546713022135584 ], [ -2.651812488256299, 42.494419893963304 ], [ -2.42071917363312, 42.489269348430049 ], [ -1.948536339998372, 42.335045968482156 ], [ -1.713639671879144, 42.197090707613619 ], [ -1.711174423204037, 42.147687515306941 ], [ -1.877126738703881, 42.093882177746437 ], [ -1.847183447461349, 42.007988108598099 ] ] ] } },
{ "type": "Feature", "properties": { "NUTS_ID": "ES241", "name": "Huesca" }, "geometry": { "type": "Polygon", "coordinates": [ [ [ -0.313341956515901, 42.84936493228723 ], [ -0.120433341113095, 42.746639395140178 ], [ 0.01081640494592, 42.697023550417256 ], [ 0.477670137657815, 42.700047380608716 ], [ 0.670759356548681, 42.679686687598746 ], [ 0.747495982004292, 42.598376779587689 ], [ 0.705701416420339, 42.481548864230781 ], [ 0.750711471994634, 42.311867898646511 ], [ 0.670759355431022, 42.103001827231601 ], [ 0.633083873459557, 42.00457878835131 ], [ 0.580183056709707, 41.86638124820572 ], [ 0.345471247700631, 41.688235176028918 ], [ 0.430790904115775, 41.563455920791746 ], [ 0.335948368893268, 41.407432344004576 ], [ 0.216368999631397, 41.398956817426622 ], [ -0.046887008790328, 41.395832700029281 ], [ -0.17930111837223, 41.570454118639553 ], [ -0.48497488118568, 41.729289632051852 ], [ -0.661877064195244, 41.933411431146986 ], [ -0.84248010145039, 41.996128974213427 ], [ -0.747469416658789, 42.258419158027685 ], [ -0.849627045355219, 42.328047263992708 ], [ -0.901080265864484, 42.742690993666962 ], [ -0.897151634444097, 42.746639395519175 ], [ -0.72450116191046, 42.920158666877626 ], [ -0.656193984387015, 42.859353074301914 ], [ -0.55151808873145, 42.796207564319829 ], [ -0.313341956515901, 42.84936493228723 ] ] ] } },
{ "type": "Feature", "properties": { "NUTS_ID": "ES242", "name": "Teruel" }, "geometry": { "type": "Polygon", "coordinates": [ [ [ -1.142361357078673, 39.971855639422465 ], [ -1.165153812934844, 40.010108937013136 ], [ -1.106957807848292, 40.047304033050693 ], [ -1.156246250420247, 40.104661156740605 ], [ -1.448831389544627, 40.145358618107053 ], [ -1.805663978596711, 40.397994813005219 ], [ -1.681605190564534, 40.558411245674705 ], [ -1.55815707779748, 40.604929997567496 ], [ -1.617433433364231, 40.94374118094413 ], [ -1.079183153263604, 41.148491149066331 ], [ -0.932798725085059, 41.140455419101201 ], [ -0.727045239902019, 41.129160642103834 ], [ -0.525686070184001, 41.33273120486642 ], [ 0.013190789000928, 41.081942876426865 ], [ 0.220754469066904, 41.071330564563304 ], [ 0.276517577504077, 40.973348117629726 ], [ 0.260212760271596, 40.824033310771711 ], [ 0.216368999813763, 40.779520179936938 ], [ 0.17048530740335, 40.732935972232347 ], [ 0.059323800079368, 40.7041905886474 ], [ -0.183231365539554, 40.767445029471745 ], [ -0.35466186350941, 40.660299236332591 ], [ -0.299269303811056, 40.573051663512466 ], [ -0.303614240320649, 40.366194790209811 ], [ -0.54411597468649, 40.22414965485045 ], [ -0.656249432528384, 40.057788577971259 ], [ -0.749893595659918, 40.03997822233061 ], [ -0.796602163613854, 39.990580741839544 ], [ -0.830521449295494, 39.941534627133514 ], [ -0.797643189801484, 39.881076549144581 ], [ -0.879667682074148, 39.865055625231527 ], [ -0.93279872543675, 39.922598248510923 ], [ -0.977386887233004, 39.970888657500659 ], [ -1.079183152639607, 39.971485326592891 ], [ -1.142361357078673, 39.971855639422465 ] ] ] } },
{ "type": "Feature", "properties": { "NUTS_ID": "ES243", "name": "Zaragoza" }, "geometry": { "type": "Polygon", "coordinates": [ [ [ 0.335948368893268, 41.407432344004576 ], [ 0.38555777040421, 41.278612426592815 ], [ 0.220754469066904, 41.071330564563304 ], [ 0.013190789000928, 41.081942876426865 ], [ -0.525686070184001, 41.33273120486642 ], [ -0.727045239902019, 41.129160642103834 ], [ -0.932798725085059, 41.140455419101201 ], [ -1.079183153263604, 41.148491149066331 ], [ -1.617433433364231, 40.94374118094413 ], [ -1.828073933758765, 41.097739199389189 ], [ -1.948536339819809, 41.124199705477551 ], [ -2.05168975154697, 41.146858157162299 ], [ -2.138743594075184, 41.211555998598051 ], [ -2.149210394000388, 41.352084291397368 ], [ -2.101631305226138, 41.418166787069161 ], [ -1.966719854829807, 41.420857502846786 ], [ -1.97261431045043, 41.571959453482464 ], [ -1.948536339742115, 41.601196950098966 ], [ -1.797761774820792, 41.69709604281978 ], [ -1.856539461211073, 41.966388318224922 ], [ -1.847183447461349, 42.007988108598099 ], [ -1.546461567434493, 41.930813353877951 ], [ -1.403231689470761, 41.964136835308523 ], [ -1.322165127402156, 42.384947048189098 ], [ -1.156965317363401, 42.617739775016531 ], [ -0.901080265864484, 42.742690993666962 ], [ -0.849627045355219, 42.328047263992708 ], [ -0.747469416658789, 42.258419158027685 ], [ -0.84248010145039, 41.996128974213427 ], [ -0.661877064195244, 41.933411431146986 ], [ -0.48497488118568, 41.729289632051852 ], [ -0.17930111837223, 41.570454118639553 ], [ -0.046887008790328, 41.395832700029281 ], [ 0.216368999631397, 41.398956817426622 ], [ 0.335948368893268, 41.407432344004576 ] ], [ [ -1.187177659458074, 42.459432414609381 ], [ -1.073123503196965, 42.428653796919576 ], [ -1.01917919877649, 42.491446748036196 ], [ -1.099005887359965, 42.519790344156334 ], [ -1.187177659458074, 42.459432414609381 ] ] ] } },
{ "type": "Feature", "properties": { "NUTS_ID": "ES300", "name": "Madrid" }, "geometry": { "type": "MultiPolygon", "coordinates": [ [ [ [ -3.168355993095363, 40.289465362853548 ], [ -3.139240859255533, 40.251403624283661 ], [ -3.067810462667703, 40.158023829892116 ], [ -3.161419552975571, 40.064897183036251 ], [ -3.344420396356995, 40.033591080435059 ], [ -3.686281462503506, 39.975108630958722 ], [ -3.659424232262381, 40.113588416732448 ], [ -4.084744069776201, 40.258895734629725 ], [ -4.579075754465816, 40.217195977422008 ], [ -4.33658452560826, 40.422896227483953 ], [ -4.301553651003841, 40.566498452877589 ], [ -4.16029359275985, 40.68985341530707 ], [ -3.983231522398917, 40.805004384619515 ], [ -3.903603600559359, 40.951677750836083 ], [ -3.539573248331638, 41.164993401482782 ], [ -3.408643238030032, 41.019961342227155 ], [ -3.48549984762966, 40.779418296271722 ], [ -3.344420396437284, 40.640031799309902 ], [ -3.212937717351369, 40.510126914396743 ], [ -3.149121389880251, 40.397409578991137 ], [ -3.168355993095363, 40.289465362853548 ] ] ], [ [ [ -3.71361683950794, 39.931769740456595 ], [ -3.77817412930987, 39.881405804251131 ], [ -3.887151986675804, 39.926246319439912 ], [ -3.788343589565269, 39.974085799839877 ], [ -3.71361683950794, 39.931769740456595 ] ] ] ] } },
{ "type": "Feature", "properties": { "NUTS_ID": "ES411", "name": "Ávila" }, "geometry": { "type": "Polygon", "coordinates": [ [ [ -4.16029359275985, 40.68985341530707 ], [ -4.301553651003841, 40.566498452877589 ], [ -4.33658452560826, 40.422896227483953 ], [ -4.579075754465816, 40.217195977422008 ], [ -4.724251926442877, 40.263861021408466 ], [ -4.972605187895678, 40.126110758285485 ], [ -5.336016433947607, 40.115856064828286 ], [ -5.370458537401868, 40.253817984144241 ], [ -5.549522289616156, 40.206161887256116 ], [ -5.737602367779236, 40.294163002911681 ], [ -5.663079468893775, 40.427672744028314 ], [ -5.489815351529849, 40.457207295807628 ], [ -5.380140628302342, 40.659794323254921 ], [ -5.181298764340497, 40.801390027355019 ], [ -5.105121294463936, 40.960370751806927 ], [ -5.124956972652779, 41.132056919157648 ], [ -4.722127432692358, 41.14933015762746 ], [ -4.408897422173569, 40.651872385734919 ], [ -4.319343841808903, 40.647599397341693 ], [ -4.274096252353758, 40.677072336530017 ], [ -4.16029359275985, 40.68985341530707 ] ] ] } },
{ "type": "Feature", "properties": { "NUTS_ID": "ES412", "name": "Burgos" }, "geometry": { "type": "MultiPolygon", "coordinates": [ [ [ [ -2.624483892168154, 42.701636449708587 ], [ -2.739263431280289, 42.665241963131535 ], [ -2.919311927636096, 42.746639395346435 ], [ -2.725083636141298, 42.80303475801751 ], [ -2.6458267593596, 42.746639395130352 ], [ -2.624483892168154, 42.701636449708587 ] ] ], [ [ [ -3.141839497649118, 43.161136498853338 ], [ -3.07427139750444, 42.965929667535789 ], [ -3.189579292820877, 42.862024230822101 ], [ -3.028062647285225, 42.74663939554403 ], [ -2.858067527076788, 42.638384173980697 ], [ -3.061592807967921, 42.629809661034891 ], [ -3.07367528258337, 42.54671302243765 ], [ -3.102354273503706, 42.349474638864059 ], [ -3.100989139704853, 42.25671423788156 ], [ -3.099689933374925, 42.168433449950911 ], [ -2.91363774858763, 42.022838563412378 ], [ -3.139240859033524, 41.834778191000588 ], [ -3.274583242070936, 41.831897711398454 ], [ -3.541595980953999, 41.577602514667305 ], [ -3.744672525191512, 41.480984185382525 ], [ -3.980689379009756, 41.583366313606618 ], [ -4.040900398639056, 41.768344527578222 ], [ -3.993626599496257, 41.986567928983057 ], [ -4.077346667480091, 42.126591437506058 ], [ -4.21650282036814, 42.197254475952612 ], [ -4.300569015175381, 42.400495474190727 ], [ -4.25755318008413, 42.64694446548598 ], [ -4.104466643265798, 42.746639395713146 ], [ -4.081458445147208, 42.761623081620691 ], [ -3.859018760910825, 42.818569901321808 ], [ -3.834423786941092, 42.938972019121103 ], [ -3.949682202359832, 42.948999842416072 ], [ -3.913778604522263, 42.989205566386346 ], [ -3.865122602834383, 43.043691741588702 ], [ -3.784357881832867, 43.083459307373481 ], [ -3.716995343113274, 43.116627801615373 ], [ -3.641969537530922, 43.153569595074188 ], [ -3.417607936840278, 43.133315972506693 ], [ -3.344420395796989, 43.159113325497458 ], [ -3.261622676394285, 43.188298101532752 ], [ -3.141839497649118, 43.161136498853338 ] ] ] ] } },
{ "type": "Feature", "properties": { "NUTS_ID": "ES413", "name": "León" }, "geometry": { "type": "Polygon", "coordinates": [ [ [ -4.737845317656626, 43.020944020598591 ], [ -4.765129169266308, 42.989205566856036 ], [ -4.889967422509155, 42.8439851177869 ], [ -4.893439532298459, 42.746639394958876 ], [ -4.911078554527573, 42.440177643424022 ], [ -5.00215459985078, 42.289104677564517 ], [ -5.230233135913078, 42.256714237902443 ], [ -5.346286238685816, 42.240233025637934 ], [ -5.376311274653953, 42.041457862364183 ], [ -5.42160551178845, 42.030666671123655 ], [ -5.472304883026623, 42.048838991528285 ], [ -5.520905724352041, 42.097129977214323 ], [ -6.784307801760373, 42.253608632353327 ], [ -6.76743474024196, 42.354146861783995 ], [ -6.828455593645771, 42.45021292761146 ], [ -7.077069197312975, 42.508000676473245 ], [ -6.948938341572824, 42.746639395033633 ], [ -6.871793014075902, 42.801609973741655 ], [ -6.824167129891851, 42.915012465709083 ], [ -6.52685352721948, 42.922921965027626 ], [ -6.438319208250239, 42.989205566407492 ], [ -6.367229880637311, 43.042428504675833 ], [ -6.060525447239618, 43.066441207721255 ], [ -5.85486209911257, 42.989205566944612 ], [ -5.77690950924039, 42.989205566294252 ], [ -5.702271400274064, 43.034016063112468 ], [ -5.268267212637892, 43.083459308027571 ], [ -5.149311218643206, 43.097011181256001 ], [ -5.113725691602982, 43.116627801697994 ], [ -4.925914988477254, 43.220158968353687 ], [ -4.841023183738982, 43.180780111464941 ], [ -4.799611395463611, 43.116627801518042 ], [ -4.778200371229782, 43.083459307947578 ], [ -4.737845317656626, 43.020944020598591 ] ] ] } },
{ "type": "Feature", "properties": { "NUTS_ID": "ES414", "name": "Palencia" }, "geometry": { "type": "Polygon", "coordinates": [ [ [ -4.081458445147208, 42.761623081620691 ], [ -4.104466643265798, 42.746639395713146 ], [ -4.25755318008413, 42.64694446548598 ], [ -4.300569015175381, 42.400495474190727 ], [ -4.21650282036814, 42.197254475952612 ], [ -4.077346667480091, 42.126591437506058 ], [ -3.993626599496257, 41.986567928983057 ], [ -4.040900398639056, 41.768344527578222 ], [ -4.462457244520524, 41.786983450681156 ], [ -4.919343522464888, 41.900208764413094 ], [ -5.00215459985078, 42.289104677564517 ], [ -4.911078554527573, 42.440177643424022 ], [ -4.893439532298459, 42.746639394958876 ], [ -4.889967422509155, 42.8439851177869 ], [ -4.765129169266308, 42.989205566856036 ], [ -4.737845317656626, 43.020944020598591 ], [ -4.662752934092905, 43.021088688569058 ], [ -4.427828428007579, 43.042763240258139 ], [ -4.361844362323321, 42.989205566182413 ], [ -4.081458445147208, 42.761623081620691 ] ] ] } },
{ "type": "Feature", "properties": { "NUTS_ID": "ES415", "name": "Salamanca" }, "geometry": { "type": "Polygon", "coordinates": [ [ [ -6.929864671971187, 41.029336226676442 ], [ -6.808730904469676, 41.055148108304117 ], [ -6.689786233769235, 41.205241370033022 ], [ -6.479713167971152, 41.294379828543576 ], [ -5.960396076455402, 41.163100207897763 ], [ -5.883022661780968, 41.22648235895003 ], [ -5.67793480270139, 41.234834247530095 ], [ -5.344483887879651, 41.137875157459526 ], [ -5.288770882525352, 41.182006871146086 ], [ -5.124956972652779, 41.132056919157648 ], [ -5.105121294463936, 40.960370751806927 ], [ -5.181298764340497, 40.801390027355019 ], [ -5.380140628302342, 40.659794323254921 ], [ -5.489815351529849, 40.457207295807628 ], [ -5.663079468893775, 40.427672744028314 ], [ -5.737602367779236, 40.294163002911681 ], [ -5.810616916068756, 40.339945739429098 ], [ -5.971416044453124, 40.299276852164482 ], [ -6.221805219679458, 40.471405198561889 ], [ -6.610104658022654, 40.276512998291388 ], [ -6.865144205992289, 40.270694538718956 ], [ -6.800541786856703, 40.361405435418249 ], [ -6.81851744296867, 40.862823984667884 ], [ -6.929864671971187, 41.029336226676442 ] ] ] } },
{ "type": "Feature", "properties": { "NUTS_ID": "ES416", "name": "Segovia" }, "geometry": { "type": "Polygon", "coordinates": [ [ [ -3.541595980953999, 41.577602514667305 ], [ -3.344420395629288, 41.416334617595062 ], [ -3.207373051898179, 41.30424499462606 ], [ -3.344420395937999, 41.246797524675699 ], [ -3.539573248331638, 41.164993401482782 ], [ -3.903603600559359, 40.951677750836083 ], [ -3.983231522398917, 40.805004384619515 ], [ -4.16029359275985, 40.68985341530707 ], [ -4.274096252353758, 40.677072336530017 ], [ -4.319343841808903, 40.647599397341693 ], [ -4.408897422173569, 40.651872385734919 ], [ -4.722127432692358, 41.14933015762746 ], [ -4.462852425350246, 41.415599758685268 ], [ -4.057839057027258, 41.498385554542317 ], [ -3.980689379009756, 41.583366313606618 ], [ -3.744672525191512, 41.480984185382525 ], [ -3.541595980953999, 41.577602514667305 ] ] ] } },
{ "type": "Feature", "properties": { "NUTS_ID": "ES417", "name": "Soria" }, "geometry": { "type": "Polygon", "coordinates": [ [ [ -2.91363774858763, 42.022838563412378 ], [ -2.755031201514581, 42.104930215072137 ], [ -2.720258647996025, 42.016106410164511 ], [ -2.604065041457656, 42.002804916065543 ], [ -2.484271507940885, 42.115011345293347 ], [ -2.360180133714008, 42.137438276419914 ], [ -2.16575526938213, 42.088105858124763 ], [ -2.048242664175941, 41.94004086868236 ], [ -1.948536339853157, 41.953744381950145 ], [ -1.856539461211073, 41.966388318224922 ], [ -1.797761774820792, 41.69709604281978 ], [ -1.948536339742115, 41.601196950098966 ], [ -1.97261431045043, 41.571959453482464 ], [ -1.966719854829807, 41.420857502846786 ], [ -2.101631305226138, 41.418166787069161 ], [ -2.149210394000388, 41.352084291397368 ], [ -2.138743594075184, 41.211555998598051 ], [ -2.05168975154697, 41.146858157162299 ], [ -2.415908783271178, 41.072642801384589 ], [ -2.697153920144876, 41.259936329886621 ], [ -3.139240858876822, 41.298328229877896 ], [ -3.207373051898179, 41.30424499462606 ], [ -3.344420395629288, 41.416334617595062 ], [ -3.541595980953999, 41.577602514667305 ], [ -3.274583242070936, 41.831897711398454 ], [ -3.139240859033524, 41.834778191000588 ], [ -2.91363774858763, 42.022838563412378 ] ] ] } },
{ "type": "Feature", "properties": { "NUTS_ID": "ES418", "name": "Valladolid" }, "geometry": { "type": "MultiPolygon", "coordinates": [ [ [ [ -4.722127432692358, 41.14933015762746 ], [ -5.124956972652779, 41.132056919157648 ], [ -5.288770882525352, 41.182006871146086 ], [ -5.325833858309792, 41.428255538022405 ], [ -5.260789586670227, 41.536430398989154 ], [ -5.36639977017004, 41.730779188816641 ], [ -5.299206623643597, 41.949136796774155 ], [ -5.376311274653953, 42.041457862364183 ], [ -5.346286238685816, 42.240233025637934 ], [ -5.230233135913078, 42.256714237902443 ], [ -5.00215459985078, 42.289104677564517 ], [ -4.919343522464888, 41.900208764413094 ], [ -4.462457244520524, 41.786983450681156 ], [ -4.040900398639056, 41.768344527578222 ], [ -3.980689379009756, 41.583366313606618 ], [ -4.057839057027258, 41.498385554542317 ], [ -4.462852425350246, 41.415599758685268 ], [ -4.722127432692358, 41.14933015762746 ] ] ], [ [ [ -5.42160551178845, 42.030666671123655 ], [ -5.466826790261234, 41.982258183163061 ], [ -5.520905724352041, 42.097129977214323 ], [ -5.472304883026623, 42.048838991528285 ], [ -5.42160551178845, 42.030666671123655 ] ] ] ] } },
{ "type": "Feature", "properties": { "NUTS_ID": "ES419", "name": "Zamora" }, "geometry": { "type": "Polygon", "coordinates": [ [ [ -5.376311274653953, 42.041457862364183 ], [ -5.299206623643597, 41.949136796774155 ], [ -5.36639977017004, 41.730779188816641 ], [ -5.260789586670227, 41.536430398989154 ], [ -5.325833858309792, 41.428255538022405 ], [ -5.288770882525352, 41.182006871146086 ], [ -5.344483887879651, 41.137875157459526 ], [ -5.67793480270139, 41.234834247530095 ], [ -5.883022661780968, 41.22648235895003 ], [ -5.960396076455402, 41.163100207897763 ], [ -6.479713167971152, 41.294379828543576 ], [ -6.330944256272895, 41.395494831649685 ], [ -6.220442953834654, 41.59860633574057 ], [ -6.516592708080802, 41.682937809810227 ], [ -6.577088063113657, 41.935157455169552 ], [ -6.985800483593589, 41.971447052084685 ], [ -6.970562116364521, 42.13178154171564 ], [ -6.784307801760373, 42.253608632353327 ], [ -5.520905724352041, 42.097129977214323 ], [ -5.466826790261234, 41.982258183163061 ], [ -5.42160551178845, 42.030666671123655 ], [ -5.376311274653953, 42.041457862364183 ] ] ] } },
{ "type": "Feature", "properties": { "NUTS_ID": "ES421", "name": "Albacete" }, "geometry": { "type": "Polygon", "coordinates": [ [ [ -2.551273856857096, 38.084118010374929 ], [ -2.450561726902845, 38.208082352240908 ], [ -2.490469847390613, 38.374655414520511 ], [ -2.588244434010128, 38.482548176818014 ], [ -2.762069113465767, 38.532779621468293 ], [ -2.65154933175023, 38.714016039810865 ], [ -2.85606371443845, 38.938493702012686 ], [ -2.742931063409934, 39.318295000796603 ], [ -2.526012224465033, 39.334553223077833 ], [ -2.272929648522201, 39.24145732860682 ], [ -2.073803222738631, 39.278985351004465 ], [ -2.06627783937706, 39.350232736177709 ], [ -1.948536340334514, 39.326500376395799 ], [ -1.781006485251059, 39.292732515136713 ], [ -1.505244665461642, 39.417639126423673 ], [ -1.209847096710834, 39.302760099214503 ], [ -1.219333261930947, 39.033035671018027 ], [ -1.138901791961408, 38.951837039032888 ], [ -0.96557801469385, 38.910218794355131 ], [ -0.928884604869928, 38.78384012461656 ], [ -1.026869790877226, 38.655509407849706 ], [ -1.079183152793367, 38.684369929878962 ], [ -1.181650855895638, 38.740899871548244 ], [ -1.396023774593068, 38.68040042121558 ], [ -1.524251939947767, 38.350445897330509 ], [ -1.63142414240651, 38.31384281895749 ], [ -1.760374583353985, 38.363992312866586 ], [ -1.948536339588915, 38.315375369177318 ], [ -2.053403907260541, 38.28827985043764 ], [ -2.218635899952923, 38.186757496140075 ], [ -2.341195296811597, 38.025868979446045 ], [ -2.551273856857096, 38.084118010374929 ] ] ] } },
{ "type": "Feature", "properties": { "NUTS_ID": "ES422", "name": "Ciudad Real" }, "geometry": { "type": "MultiPolygon", "coordinates": [ [ [ [ -4.054150205589656, 39.517438404650868 ], [ -4.128533821003527, 39.376146371210588 ], [ -3.85162892614079, 39.269945085199033 ], [ -3.538233069355979, 39.311714673416581 ], [ -3.344420395866802, 39.418746590455456 ], [ -3.233414730175846, 39.480048821338578 ], [ -3.139240858856423, 39.477365221101891 ], [ -2.931765930405306, 39.471452966713414 ], [ -2.742931063409934, 39.318295000796603 ], [ -2.85606371443845, 38.938493702012686 ], [ -2.65154933175023, 38.714016039810865 ], [ -2.762069113465767, 38.532779621468293 ], [ -2.889850976645442, 38.462638258124173 ], [ -3.139240858589153, 38.464896674484777 ], [ -3.344420395857351, 38.466754732508505 ], [ -4.268894881193223, 38.347213072469287 ], [ -5.0469958462996, 38.729133570370088 ], [ -4.851420021780868, 38.905718469513026 ], [ -4.945899382803421, 39.038543393075855 ], [ -4.728898579206942, 39.222007257351017 ], [ -4.686936371518947, 39.449729488053045 ], [ -4.539222174532972, 39.519864199797233 ], [ -4.240896005350946, 39.492546088446517 ], [ -4.081456482337558, 39.57290459383092 ], [ -4.054150205589656, 39.517438404650868 ] ] ], [ [ [ -4.755411130804012, 39.415760076757259 ], [ -4.94078337980862, 39.395164379086374 ], [ -4.847077012521462, 39.539887469881762 ], [ -4.775038717453461, 39.505175459541398 ], [ -4.755411130804012, 39.415760076757259 ] ] ] ] } },
{ "type": "Feature", "properties": { "NUTS_ID": "ES423", "name": "Cuenca" }, "geometry": { "type": "Polygon", "coordinates": [ [ [ -1.505244665461642, 39.417639126423673 ], [ -1.781006485251059, 39.292732515136713 ], [ -1.948536340334514, 39.326500376395799 ], [ -2.06627783937706, 39.350232736177709 ], [ -2.073803222738631, 39.278985351004465 ], [ -2.272929648522201, 39.24145732860682 ], [ -2.526012224465033, 39.334553223077833 ], [ -2.742931063409934, 39.318295000796603 ], [ -2.931765930405306, 39.471452966713414 ], [ -2.919694153134866, 39.633506281084557 ], [ -3.107715273818318, 39.874511159985211 ], [ -3.13924085957731, 39.986271916226109 ], [ -3.161419552975571, 40.064897183036251 ], [ -3.067810462667703, 40.158023829892116 ], [ -2.86607866118246, 40.182960142849929 ], [ -2.792532145349079, 40.389315114127683 ], [ -2.54406012563407, 40.435775304487265 ], [ -2.382350500529949, 40.594807215524753 ], [ -2.254048627552039, 40.629144318409367 ], [ -1.948536340103411, 40.586861172512961 ], [ -1.805663978596711, 40.397994813005219 ], [ -1.448831389544627, 40.145358618107053 ], [ -1.361223682390311, 40.021415190044202 ], [ -1.165153812934844, 40.010108937013136 ], [ -1.142361357078673, 39.971855639422465 ], [ -1.283472919152794, 39.714247392612286 ], [ -1.498262934355308, 39.547733745116872 ], [ -1.505244665461642, 39.417639126423673 ] ] ] } },
{ "type": "Feature", "properties": { "NUTS_ID": "ES424", "name": "Guadalajara" }, "geometry": { "type": "Polygon", "coordinates": [ [ [ -1.617433433364231, 40.94374118094413 ], [ -1.55815707779748, 40.604929997567496 ], [ -1.681605190564534, 40.558411245674705 ], [ -1.805663978596711, 40.397994813005219 ], [ -1.948536340103411, 40.586861172512961 ], [ -2.254048627552039, 40.629144318409367 ], [ -2.382350500529949, 40.594807215524753 ], [ -2.54406012563407, 40.435775304487265 ], [ -2.792532145349079, 40.389315114127683 ], [ -2.86607866118246, 40.182960142849929 ], [ -3.067810462667703, 40.158023829892116 ], [ -3.139240859255533, 40.251403624283661 ], [ -3.168355993095363, 40.289465362853548 ], [ -3.149121389880251, 40.397409578991137 ], [ -3.212937717351369, 40.510126914396743 ], [ -3.344420396437284, 40.640031799309902 ], [ -3.48549984762966, 40.779418296271722 ], [ -3.408643238030032, 41.019961342227155 ], [ -3.539573248331638, 41.164993401482782 ], [ -3.344420395937999, 41.246797524675699 ], [ -3.207373051898179, 41.30424499462606 ], [ -3.139240858876822, 41.298328229877896 ], [ -2.697153920144876, 41.259936329886621 ], [ -2.415908783271178, 41.072642801384589 ], [ -2.05168975154697, 41.146858157162299 ], [ -1.948536339819809, 41.124199705477551 ], [ -1.828073933758765, 41.097739199389189 ], [ -1.617433433364231, 40.94374118094413 ] ] ] } },
{ "type": "Feature", "properties": { "NUTS_ID": "ES425", "name": "Toledo" }, "geometry": { "type": "Polygon", "coordinates": [ [ [ -5.336016433947607, 40.115856064828286 ], [ -4.972605187895678, 40.126110758285485 ], [ -4.724251926442877, 40.263861021408466 ], [ -4.579075754465816, 40.217195977422008 ], [ -4.084744069776201, 40.258895734629725 ], [ -3.659424232262381, 40.113588416732448 ], [ -3.686281462503506, 39.975108630958722 ], [ -3.344420396356995, 40.033591080435059 ], [ -3.161419552975571, 40.064897183036251 ], [ -3.13924085957731, 39.986271916226109 ], [ -3.107715273818318, 39.874511159985211 ], [ -2.919694153134866, 39.633506281084557 ], [ -2.931765930405306, 39.471452966713414 ], [ -3.139240858856423, 39.477365221101891 ], [ -3.233414730175846, 39.480048821338578 ], [ -3.344420395866802, 39.418746590455456 ], [ -3.538233069355979, 39.311714673416581 ], [ -3.85162892614079, 39.269945085199033 ], [ -4.128533821003527, 39.376146371210588 ], [ -4.054150205589656, 39.517438404650868 ], [ -4.081456482337558, 39.57290459383092 ], [ -4.240896005350946, 39.492546088446517 ], [ -4.539222174532972, 39.519864199797233 ], [ -4.686936371518947, 39.449729488053045 ], [ -4.755411130804012, 39.415760076757259 ], [ -4.775038717453461, 39.505175459541398 ], [ -4.847077012521462, 39.539887469881762 ], [ -4.94078337980862, 39.395164379086374 ], [ -4.952554687598054, 39.39503855607569 ], [ -5.180963280719427, 39.586988107093013 ], [ -5.165370677891681, 39.772809502610194 ], [ -5.285541595586515, 39.76646627046285 ], [ -5.387708429753956, 39.894322620143086 ], [ -5.336016433947607, 40.115856064828286 ] ], [ [ -3.887151986675804, 39.926246319439912 ], [ -3.77817412930987, 39.881405804251131 ], [ -3.71361683950794, 39.931769740456595 ], [ -3.788343589565269, 39.974085799839877 ], [ -3.887151986675804, 39.926246319439912 ] ] ] } },
{ "type": "Feature", "properties": { "NUTS_ID": "ES431", "name": "Badajoz" }, "geometry": { "type": "Polygon", "coordinates": [ [ [ -7.231467160491739, 39.278431032474202 ], [ -7.128146068410125, 39.357495007618574 ], [ -7.061542638781134, 39.337049106896622 ], [ -7.007570882105316, 39.421665476749574 ], [ -6.789971260486807, 39.366555201028525 ], [ -6.756964796493421, 39.200044515782665 ], [ -6.345784379565974, 39.170139457688904 ], [ -6.145777957405759, 39.04822417626751 ], [ -6.029104067205743, 39.107416521052635 ], [ -5.982241644913333, 39.068081811077832 ], [ -5.78219034541724, 39.121435932248495 ], [ -5.644976445652794, 39.096389810751184 ], [ -5.573726122265355, 39.192078293597348 ], [ -5.39157845996178, 39.184454657406626 ], [ -5.321173344443333, 39.317679473405732 ], [ -4.952554687598054, 39.39503855607569 ], [ -4.94078337980862, 39.395164379086374 ], [ -4.755411130804012, 39.415760076757259 ], [ -4.686936371518947, 39.449729488053045 ], [ -4.728898579206942, 39.222007257351017 ], [ -4.945899382803421, 39.038543393075855 ], [ -4.851420021780868, 38.905718469513026 ], [ -5.0469958462996, 38.729133570370088 ], [ -5.157510210495056, 38.715110143251728 ], [ -5.548924649638705, 38.435633510856356 ], [ -5.534927882465151, 38.212443179799408 ], [ -5.584845565567663, 38.131752034408969 ], [ -5.694119016489026, 38.104086838122242 ], [ -5.72234022383183, 38.180294429200316 ], [ -5.830018314857219, 38.173218834650321 ], [ -5.961068242112654, 38.00594222058119 ], [ -6.18030771818371, 37.941078114166388 ], [ -6.397533283949383, 38.048776043545665 ], [ -6.5518841347547, 38.021585193818218 ], [ -6.931738573305778, 38.208378039563719 ], [ -7.107952585830986, 38.188121610477872 ], [ -7.309237155380519, 38.458347325379449 ], [ -7.203134912971411, 38.751017484245104 ], [ -6.971092578303845, 39.02166330050494 ], [ -7.218372051735422, 39.208815638502323 ], [ -7.231467160491739, 39.278431032474202 ] ] ] } },
{ "type": "Feature", "properties": { "NUTS_ID": "ES432", "name": "Cáceres" }, "geometry": { "type": "Polygon", "coordinates": [ [ [ -6.865144205992289, 40.270694538718956 ], [ -6.610104658022654, 40.276512998291388 ], [ -6.221805219679458, 40.471405198561889 ], [ -5.971416044453124, 40.299276852164482 ], [ -5.810616916068756, 40.339945739429098 ], [ -5.737602367779236, 40.294163002911681 ], [ -5.549522289616156, 40.206161887256116 ], [ -5.370458537401868, 40.253817984144241 ], [ -5.336016433947607, 40.115856064828286 ], [ -5.387708429753956, 39.894322620143086 ], [ -5.285541595586515, 39.76646627046285 ], [ -5.165370677891681, 39.772809502610194 ], [ -5.180963280719427, 39.586988107093013 ], [ -4.952554687598054, 39.39503855607569 ], [ -5.321173344443333, 39.317679473405732 ], [ -5.39157845996178, 39.184454657406626 ], [ -5.573726122265355, 39.192078293597348 ], [ -5.644976445652794, 39.096389810751184 ], [ -5.78219034541724, 39.121435932248495 ], [ -5.982241644913333, 39.068081811077832 ], [ -6.029104067205743, 39.107416521052635 ], [ -6.145777957405759, 39.04822417626751 ], [ -6.345784379565974, 39.170139457688904 ], [ -6.756964796493421, 39.200044515782665 ], [ -6.789971260486807, 39.366555201028525 ], [ -7.007570882105316, 39.421665476749574 ], [ -7.061542638781134, 39.337049106896622 ], [ -7.128146068410125, 39.357495007618574 ], [ -7.231467160491739, 39.278431032474202 ], [ -7.314967526576992, 39.455921231913607 ], [ -7.542845392253438, 39.662786088274117 ], [ -7.023810304523053, 39.687250149096627 ], [ -6.878365539490578, 39.975900763004319 ], [ -7.00652533722979, 40.159882534163451 ], [ -6.951298651414942, 40.25744601884152 ], [ -6.865144205992289, 40.270694538718956 ] ] ] } },
{ "type": "Feature", "properties": { "NUTS_ID": "ES511", "name": "Barcelona" }, "geometry": { "type": "Polygon", "coordinates": [ [ [ 1.645323422727899, 41.195621679563594 ], [ 1.392531732633546, 41.575200157605856 ], [ 1.419960815579139, 41.772392347872149 ], [ 1.560077088180981, 41.775704250015423 ], [ 1.615826856446722, 41.838817577056481 ], [ 1.669516699274267, 42.004578787836941 ], [ 1.71976447049999, 42.159712996795847 ], [ 1.691403381449378, 42.272946337330069 ], [ 1.842310683351725, 42.306438431327138 ], [ 2.040828690950578, 42.289638576360211 ], [ 2.082456009538892, 42.143053057112859 ], [ 2.466923274518852, 42.055813496302363 ], [ 2.46550322549755, 42.004578787725514 ], [ 2.463374435222937, 41.927773112148039 ], [ 2.359437905917817, 41.827855873784451 ], [ 2.545393174933851, 41.733190658760982 ], [ 2.748314479921355, 41.732050447330955 ], [ 2.778512932319312, 41.648807667144382 ], [ 2.290318358583731, 41.464078623641896 ], [ 2.09948932846645, 41.293701032368162 ], [ 1.645323422727899, 41.195621679563594 ] ] ] } },
{ "type": "Feature", "properties": { "NUTS_ID": "ES512", "name": "Girona" }, "geometry": { "type": "Polygon", "coordinates": [ [ [ 2.778512932319312, 41.648807667144382 ], [ 2.748314479921355, 41.732050447330955 ], [ 2.545393174933851, 41.733190658760982 ], [ 2.359437905917817, 41.827855873784451 ], [ 2.463374435222937, 41.927773112148039 ], [ 2.46550322549755, 42.004578787725514 ], [ 2.466923274518852, 42.055813496302363 ], [ 2.082456009538892, 42.143053057112859 ], [ 2.040828690950578, 42.289638576360211 ], [ 1.842310683351725, 42.306438431327138 ], [ 1.731010891408831, 42.492400832113177 ], [ 1.921569238681487, 42.451684998952565 ], [ 2.040046136854008, 42.361591638155872 ], [ 2.240354025879403, 42.432130066927662 ], [ 2.547207086173554, 42.343257135378259 ], [ 2.884434609406376, 42.460713541330136 ], [ 3.016326594120344, 42.449111294002392 ], [ 3.174022445931382, 42.435239137506656 ], [ 3.173376363039275, 42.43358577786983 ], [ 3.258612420040695, 42.313253745946433 ], [ 3.138623568541609, 42.180520220114488 ], [ 3.212316887856301, 42.004578788197179 ], [ 3.208647240481069, 41.919643047306053 ], [ 3.01632659415009, 41.798547764697702 ], [ 2.778512932319312, 41.648807667144382 ] ] ] } },
{ "type": "Feature", "properties": { "NUTS_ID": "ES513", "name": "Lleida" }, "geometry": { "type": "Polygon", "coordinates": [ [ [ 0.670759356548681, 42.679686687598746 ], [ 0.680340775381494, 42.746639395401466 ], [ 0.715484319555137, 42.843456297618985 ], [ 0.858215052673562, 42.825741153698694 ], [ 1.189416939552399, 42.746639395558311 ], [ 1.346086379468384, 42.70922164866581 ], [ 1.442566157058681, 42.603667848750284 ], [ 1.465675396709844, 42.445092355017749 ], [ 1.725801229804506, 42.504401992398201 ], [ 1.731010891408831, 42.492400832113177 ], [ 1.842310683351725, 42.306438431327138 ], [ 1.691403381449378, 42.272946337330069 ], [ 1.71976447049999, 42.159712996795847 ], [ 1.669516699274267, 42.004578787836941 ], [ 1.615826856446722, 41.838817577056481 ], [ 1.560077088180981, 41.775704250015423 ], [ 1.419960815579139, 41.772392347872149 ], [ 1.392531732633546, 41.575200157605856 ], [ 1.21076262526754, 41.557496353962392 ], [ 0.929873954352907, 41.353605143720728 ], [ 0.670759356029825, 41.317905842681149 ], [ 0.38555777040421, 41.278612426592815 ], [ 0.335948368893268, 41.407432344004576 ], [ 0.430790904115775, 41.563455920791746 ], [ 0.345471247700631, 41.688235176028918 ], [ 0.580183056709707, 41.86638124820572 ], [ 0.633083873459557, 42.00457878835131 ], [ 0.670759355431022, 42.103001827231601 ], [ 0.750711471994634, 42.311867898646511 ], [ 0.705701416420339, 42.481548864230781 ], [ 0.747495982004292, 42.598376779587689 ], [ 0.670759356548681, 42.679686687598746 ] ] ] } },
{ "type": "Feature", "properties": { "NUTS_ID": "ES514", "name": "Tarragona" }, "geometry": { "type": "Polygon", "coordinates": [ [ [ 0.515238433783633, 40.522918603355038 ], [ 0.216369000179497, 40.704984456291498 ], [ 0.17048530740335, 40.732935972232347 ], [ 0.216368999813763, 40.779520179936938 ], [ 0.260212760271596, 40.824033310771711 ], [ 0.276517577504077, 40.973348117629726 ], [ 0.220754469066904, 41.071330564563304 ], [ 0.38555777040421, 41.278612426592815 ], [ 0.670759356029825, 41.317905842681149 ], [ 0.929873954352907, 41.353605143720728 ], [ 1.21076262526754, 41.557496353962392 ], [ 1.392531732633546, 41.575200157605856 ], [ 1.645323422727899, 41.195621679563594 ], [ 0.978006364202207, 41.029479621216623 ], [ 0.726295111875471, 40.812324376398323 ], [ 0.841315598086726, 40.691412131220908 ], [ 0.670759355895278, 40.63328624768225 ], [ 0.607420487625579, 40.611700243158076 ], [ 0.515238433783633, 40.522918603355038 ] ] ] } },
{ "type": "Feature", "properties": { "NUTS_ID": "ES521", "name": "Alicante/Alacant" }, "geometry": { "type": "Polygon", "coordinates": [ [ [ -0.762135483852812, 37.847007832191395 ], [ -0.932798725093829, 38.01833478990573 ], [ -1.008315391518669, 38.094145144141471 ], [ -0.991673235867519, 38.26338830825766 ], [ -1.064809204467817, 38.397996378364169 ], [ -1.026869790877226, 38.655509407849706 ], [ -0.928884604869928, 38.78384012461656 ], [ -0.796602164494274, 38.738404996088619 ], [ -0.603330579456163, 38.704677553265235 ], [ -0.568792643626683, 38.789657328270557 ], [ -0.345531821012455, 38.863662000457772 ], [ -0.037615969300946, 38.886413429735143 ], [ 0.191088635224428, 38.784880140257421 ], [ 0.088908473152366, 38.6634364504852 ], [ -0.484290830565248, 38.328359839758377 ], [ -0.762135483852812, 37.847007832191395 ] ] ] } },
{ "type": "Feature", "properties": { "NUTS_ID": "ES522", "name": "Castellón/Castelló" }, "geometry": { "type": "Polygon", "coordinates": [ [ [ -0.188466906877392, 39.721954540920599 ], [ -0.329219804137958, 39.780536195844569 ], [ -0.60046200478616, 39.755703035238156 ], [ -0.797643189801484, 39.881076549144581 ], [ -0.830521449295494, 39.941534627133514 ], [ -0.796602163613854, 39.990580741839544 ], [ -0.749893595659918, 40.03997822233061 ], [ -0.656249432528384, 40.057788577971259 ], [ -0.54411597468649, 40.22414965485045 ], [ -0.303614240320649, 40.366194790209811 ], [ -0.299269303811056, 40.573051663512466 ], [ -0.35466186350941, 40.660299236332591 ], [ -0.183231365539554, 40.767445029471745 ], [ 0.059323800079368, 40.7041905886474 ], [ 0.17048530740335, 40.732935972232347 ], [ 0.216369000179497, 40.704984456291498 ], [ 0.515238433783633, 40.522918603355038 ], [ 0.216369000340797, 40.181574131652319 ], [ 0.107986642863453, 40.057788578047422 ], [ -0.188466906877392, 39.721954540920599 ] ] ] } },
{ "type": "Feature", "properties": { "NUTS_ID": "ES523", "name": "Valencia/València" }, "geometry": { "type": "MultiPolygon", "coordinates": [ [ [ [ -0.93279872543675, 39.922598248510923 ], [ -0.879667682074148, 39.865055625231527 ], [ -0.797643189801484, 39.881076549144581 ], [ -0.60046200478616, 39.755703035238156 ], [ -0.329219804137958, 39.780536195844569 ], [ -0.188466906877392, 39.721954540920599 ], [ -0.325691532210614, 39.414733002141389 ], [ -0.203883208373721, 39.083105837360087 ], [ -0.037615969300946, 38.886413429735143 ], [ -0.345531821012455, 38.863662000457772 ], [ -0.568792643626683, 38.789657328270557 ], [ -0.603330579456163, 38.704677553265235 ], [ -0.796602164494274, 38.738404996088619 ], [ -0.928884604869928, 38.78384012461656 ], [ -0.96557801469385, 38.910218794355131 ], [ -1.138901791961408, 38.951837039032888 ], [ -1.219333261930947, 39.033035671018027 ], [ -1.209847096710834, 39.302760099214503 ], [ -1.505244665461642, 39.417639126423673 ], [ -1.498262934355308, 39.547733745116872 ], [ -1.283472919152794, 39.714247392612286 ], [ -1.142361357078673, 39.971855639422465 ], [ -1.079183152639607, 39.971485326592891 ], [ -0.977386887233004, 39.970888657500659 ], [ -0.93279872543675, 39.922598248510923 ] ] ], [ [ [ -1.106957807848292, 40.047304033050693 ], [ -1.165153812934844, 40.010108937013136 ], [ -1.361223682390311, 40.021415190044202 ], [ -1.448831389544627, 40.145358618107053 ], [ -1.156246250420247, 40.104661156740605 ], [ -1.106957807848292, 40.047304033050693 ] ] ] ] } },
{ "type": "Feature", "properties": { "NUTS_ID": "ES531", "name": "Eivissa y Formentera" }, "geometry": { "type": "MultiPolygon", "coordinates": [ [ [ [ 1.616375955506619, 39.07044777878783 ], [ 1.396175869310896, 38.841801523070693 ], [ 1.175761740578645, 38.955578906371528 ], [ 1.394260414888018, 39.089447346773575 ], [ 1.543697634591103, 39.118608200352746 ], [ 1.616375955506619, 39.07044777878783 ] ] ], [ [ [ 1.458835220033717, 38.662918101233913 ], [ 1.353390451517977, 38.651906548620012 ], [ 1.393817280760461, 38.741213759503523 ], [ 1.481776608472705, 38.745531913678377 ], [ 1.458835220033717, 38.662918101233913 ] ] ] ] } },
{ "type": "Feature", "properties": { "NUTS_ID": "ES532", "name": "Mallorca" }, "geometry": { "type": "Polygon", "coordinates": [ [ [ 3.437054303547091, 39.689737204579117 ], [ 3.265261350291656, 39.397473326076252 ], [ 3.081124966559261, 39.287483410677432 ], [ 3.016326593848488, 39.30759760663129 ], [ 2.798087367410643, 39.377737740186056 ], [ 2.678933600914588, 39.522261398621247 ], [ 2.485350029876153, 39.490649922504495 ], [ 2.34090973207334, 39.586737509357931 ], [ 2.959977369504637, 39.909870514193777 ], [ 3.016326594012579, 39.916866435993477 ], [ 3.184905146967526, 39.884060723111837 ], [ 3.204320990211389, 39.776446651397336 ], [ 3.437054303598759, 39.718007715924678 ], [ 3.451534516113393, 39.714371759612007 ], [ 3.437054303547091, 39.689737204579117 ] ] ] } },
{ "type": "Feature", "properties": { "NUTS_ID": "ES533", "name": "Menorca" }, "geometry": { "type": "Polygon", "coordinates": [ [ [ 3.707629518473543, 39.990472629784321 ], [ 4.118066837863272, 40.092293617290863 ], [ 4.294636684476411, 39.957537790989775 ], [ 3.939636673633328, 39.873428814352316 ], [ 3.707629518473543, 39.990472629784321 ] ] ] } },
{ "type": "Feature", "properties": { "NUTS_ID": "ES611", "name": "Almería" }, "geometry": { "type": "Polygon", "coordinates": [ [ [ -3.128676714180449, 36.750887424845075 ], [ -2.995115219606377, 36.976808239941946 ], [ -2.998931681762768, 37.071081502858661 ], [ -2.855628900498911, 37.249746079995049 ], [ -2.678221314255955, 37.229209611057023 ], [ -2.613200227564773, 37.40335263311021 ], [ -2.37630374402177, 37.533897682209457 ], [ -2.277388060815824, 37.866108571271099 ], [ -2.20778880760251, 37.916248039558162 ], [ -2.012264873623198, 37.850976202094607 ], [ -1.948536339728667, 37.591588738158251 ], [ -1.84933389210188, 37.470838755525492 ], [ -1.629967654098976, 37.375150679269964 ], [ -1.948536340544557, 36.975432319942762 ], [ -2.13751983629086, 36.73830865885391 ], [ -2.367905026369113, 36.829833101786598 ], [ -2.531093560870761, 36.820015566352538 ], [ -2.736964504548006, 36.688634675795491 ], [ -3.128676714180449, 36.750887424845075 ] ] ] } },
{ "type": "Feature", "properties": { "NUTS_ID": "ES612", "name": "Cádiz" }, "geometry": { "type": "Polygon", "coordinates": [ [ [ -6.345561015092574, 36.798766942515314 ], [ -6.331072252519123, 36.898838013598493 ], [ -5.935209098728219, 36.847375802903947 ], [ -5.664653330103888, 36.957560811680843 ], [ -5.544747311470513, 36.936508992318444 ], [ -5.472621135869768, 37.038685990076573 ], [ -5.414262848401076, 36.958395164454707 ], [ -5.316878932399904, 37.01500915140651 ], [ -5.224678876074935, 36.960771145899976 ], [ -5.142422899367279, 37.003891066768752 ], [ -5.117464777391985, 36.879734262964355 ], [ -5.300733209066845, 36.851924902488115 ], [ -5.320426198119722, 36.707111125415246 ], [ -5.469907547279055, 36.560362956979993 ], [ -5.252405121586065, 36.311275568729648 ], [ -5.339031880815703, 36.153367256291297 ], [ -5.342688784850316, 36.15246824405375 ], [ -5.344010474852317, 36.152633525062029 ], [ -5.348696295846278, 36.152607262376542 ], [ -5.35142716325894, 36.153360621310398 ], [ -5.412501356182252, 36.159199048573925 ], [ -5.450261995339319, 36.071869458583592 ], [ -5.595814273845214, 36.019172335210811 ], [ -6.036189740696217, 36.195609365873615 ], [ -6.229835518439113, 36.417787829957696 ], [ -6.227587772746292, 36.566347234055705 ], [ -6.414350975529866, 36.682733652589782 ], [ -6.422016956726341, 36.743717005436906 ], [ -6.345561015092574, 36.798766942515314 ] ], [ [ -5.663598678298404, 36.563290761445195 ], [ -5.608868867496507, 36.486579106194014 ], [ -5.499919334041398, 36.508100306333354 ], [ -5.550790067799268, 36.565599533200249 ], [ -5.663598678298404, 36.563290761445195 ] ] ] } },
{ "type": "Feature", "properties": { "NUTS_ID": "ES613", "name": "Córdoba" }, "geometry": { "type": "Polygon", "coordinates": [ [ [ -4.653374485798495, 37.25585549006253 ], [ -4.907746117192089, 37.473661413565452 ], [ -5.009651072411271, 37.699528738025975 ], [ -5.377740513250036, 37.61459454856908 ], [ -5.334483103921642, 37.797548927831784 ], [ -5.584845565567663, 38.131752034408969 ], [ -5.534927882465151, 38.212443179799408 ], [ -5.548924649638705, 38.435633510856356 ], [ -5.157510210495056, 38.715110143251728 ], [ -5.0469958462996, 38.729133570370088 ], [ -4.268894881193223, 38.347213072469287 ], [ -4.179894417549701, 38.157407834340958 ], [ -4.267173930965176, 38.021076976590813 ], [ -4.27429578398525, 37.811074611110008 ], [ -4.197045198132306, 37.620131292374438 ], [ -4.000834802072811, 37.40211509465562 ], [ -4.220505426679544, 37.326514371984722 ], [ -4.328132990783391, 37.184070530519783 ], [ -4.400380544482476, 37.266719699873548 ], [ -4.543513949441868, 37.224323000733797 ], [ -4.653374485798495, 37.25585549006253 ] ] ] } },
{ "type": "Feature", "properties": { "NUTS_ID": "ES614", "name": "Granada" }, "geometry": { "type": "Polygon", "coordinates": [ [ [ -3.777457584482502, 36.737926315263415 ], [ -3.837720898925578, 36.851214435970448 ], [ -4.240488704548031, 37.000760974183734 ], [ -4.328132990783391, 37.184070530519783 ], [ -4.220505426679544, 37.326514371984722 ], [ -4.000834802072811, 37.40211509465562 ], [ -3.85087688356315, 37.403575825919404 ], [ -3.519942897990998, 37.59032154404526 ], [ -3.344420396275872, 37.581330892104049 ], [ -3.229376892564092, 37.636468443357934 ], [ -3.13924085891385, 37.640054163625358 ], [ -2.95369771226705, 37.647435297373192 ], [ -2.791478576551177, 37.899224557247827 ], [ -2.551273856857096, 38.084118010374929 ], [ -2.341195296811597, 38.025868979446045 ], [ -2.20778880760251, 37.916248039558162 ], [ -2.277388060815824, 37.866108571271099 ], [ -2.37630374402177, 37.533897682209457 ], [ -2.613200227564773, 37.40335263311021 ], [ -2.678221314255955, 37.229209611057023 ], [ -2.855628900498911, 37.249746079995049 ], [ -2.998931681762768, 37.071081502858661 ], [ -2.995115219606377, 36.976808239941946 ], [ -3.128676714180449, 36.750887424845075 ], [ -3.44394225180875, 36.706741589423039 ], [ -3.777457584482502, 36.737926315263415 ] ] ] } },
{ "type": "Feature", "properties": { "NUTS_ID": "ES615", "name": "Huelva" }, "geometry": { "type": "Polygon", "coordinates": [ [ [ -7.512691485940048, 37.52625635650903 ], [ -7.23674190689607, 37.963751622513854 ], [ -7.013750955423252, 38.040794515364546 ], [ -6.931738573305778, 38.208378039563719 ], [ -6.5518841347547, 38.021585193818218 ], [ -6.397533283949383, 38.048776043545665 ], [ -6.18030771818371, 37.941078114166388 ], [ -6.150276744419848, 37.818861149947899 ], [ -6.451608575042007, 37.72530430188845 ], [ -6.517454420324222, 37.646292158717273 ], [ -6.406707713817315, 37.595484352606881 ], [ -6.327030582920719, 37.45389023945242 ], [ -6.372887947298649, 37.057860964976108 ], [ -6.331072252519123, 36.898838013598493 ], [ -6.345561015092574, 36.798766942515314 ], [ -6.533874216654016, 36.979387650993722 ], [ -6.876103031721581, 37.149617512407268 ], [ -7.059015679591154, 37.200270815904389 ], [ -7.401916633924495, 37.174827473053661 ], [ -7.512691485940048, 37.52625635650903 ] ] ] } },
{ "type": "Feature", "properties": { "NUTS_ID": "ES616", "name": "Jaén" }, "geometry": { "type": "Polygon", "coordinates": [ [ [ -4.000834802072811, 37.40211509465562 ], [ -4.197045198132306, 37.620131292374438 ], [ -4.27429578398525, 37.811074611110008 ], [ -4.267173930965176, 38.021076976590813 ], [ -4.179894417549701, 38.157407834340958 ], [ -4.268894881193223, 38.347213072469287 ], [ -3.344420395857351, 38.466754732508505 ], [ -3.139240858589153, 38.464896674484777 ], [ -2.889850976645442, 38.462638258124173 ], [ -2.762069113465767, 38.532779621468293 ], [ -2.588244434010128, 38.482548176818014 ], [ -2.490469847390613, 38.374655414520511 ], [ -2.450561726902845, 38.208082352240908 ], [ -2.551273856857096, 38.084118010374929 ], [ -2.791478576551177, 37.899224557247827 ], [ -2.95369771226705, 37.647435297373192 ], [ -3.13924085891385, 37.640054163625358 ], [ -3.229376892564092, 37.636468443357934 ], [ -3.344420396275872, 37.581330892104049 ], [ -3.519942897990998, 37.59032154404526 ], [ -3.85087688356315, 37.403575825919404 ], [ -4.000834802072811, 37.40211509465562 ] ] ] } },
{ "type": "Feature", "properties": { "NUTS_ID": "ES617", "name": "Málaga" }, "geometry": { "type": "MultiPolygon", "coordinates": [ [ [ [ -4.400380544482476, 37.266719699873548 ], [ -4.328132990783391, 37.184070530519783 ], [ -4.240488704548031, 37.000760974183734 ], [ -3.837720898925578, 36.851214435970448 ], [ -3.777457584482502, 36.737926315263415 ], [ -4.398289079078358, 36.711769665704765 ], [ -4.658433695842012, 36.508970799686843 ], [ -5.119621017660982, 36.430674028516059 ], [ -5.252405121586065, 36.311275568729648 ], [ -5.469907547279055, 36.560362956979993 ], [ -5.320426198119722, 36.707111125415246 ], [ -5.300733209066845, 36.851924902488115 ], [ -5.117464777391985, 36.879734262964355 ], [ -5.142422899367279, 37.003891066768752 ], [ -4.653374485798495, 37.25585549006253 ], [ -4.543513949441868, 37.224323000733797 ], [ -4.400380544482476, 37.266719699873548 ] ] ], [ [ [ -5.499919334041398, 36.508100306333354 ], [ -5.608868867496507, 36.486579106194014 ], [ -5.663598678298404, 36.563290761445195 ], [ -5.550790067799268, 36.565599533200249 ], [ -5.499919334041398, 36.508100306333354 ] ] ] ] } },
{ "type": "Feature", "properties": { "NUTS_ID": "ES618", "name": "Sevilla" }, "geometry": { "type": "Polygon", "coordinates": [ [ [ -6.18030771818371, 37.941078114166388 ], [ -5.961068242112654, 38.00594222058119 ], [ -5.830018314857219, 38.173218834650321 ], [ -5.72234022383183, 38.180294429200316 ], [ -5.694119016489026, 38.104086838122242 ], [ -5.584845565567663, 38.131752034408969 ], [ -5.334483103921642, 37.797548927831784 ], [ -5.377740513250036, 37.61459454856908 ], [ -5.009651072411271, 37.699528738025975 ], [ -4.907746117192089, 37.473661413565452 ], [ -4.653374485798495, 37.25585549006253 ], [ -5.142422899367279, 37.003891066768752 ], [ -5.224678876074935, 36.960771145899976 ], [ -5.316878932399904, 37.01500915140651 ], [ -5.414262848401076, 36.958395164454707 ], [ -5.472621135869768, 37.038685990076573 ], [ -5.544747311470513, 36.936508992318444 ], [ -5.664653330103888, 36.957560811680843 ], [ -5.935209098728219, 36.847375802903947 ], [ -6.331072252519123, 36.898838013598493 ], [ -6.372887947298649, 37.057860964976108 ], [ -6.327030582920719, 37.45389023945242 ], [ -6.406707713817315, 37.595484352606881 ], [ -6.517454420324222, 37.646292158717273 ], [ -6.451608575042007, 37.72530430188845 ], [ -6.150276744419848, 37.818861149947899 ], [ -6.18030771818371, 37.941078114166388 ] ] ] } },
{ "type": "Feature", "properties": { "NUTS_ID": "ES620", "name": "Murcia" }, "geometry": { "type": "Polygon", "coordinates": [ [ [ -1.629967654098976, 37.375150679269964 ], [ -1.84933389210188, 37.470838755525492 ], [ -1.948536339728667, 37.591588738158251 ], [ -2.012264873623198, 37.850976202094607 ], [ -2.20778880760251, 37.916248039558162 ], [ -2.341195296811597, 38.025868979446045 ], [ -2.218635899952923, 38.186757496140075 ], [ -2.053403907260541, 38.28827985043764 ], [ -1.948536339588915, 38.315375369177318 ], [ -1.760374583353985, 38.363992312866586 ], [ -1.63142414240651, 38.31384281895749 ], [ -1.524251939947767, 38.350445897330509 ], [ -1.396023774593068, 38.68040042121558 ], [ -1.181650855895638, 38.740899871548244 ], [ -1.079183152793367, 38.684369929878962 ], [ -1.026869790877226, 38.655509407849706 ], [ -1.064809204467817, 38.397996378364169 ], [ -0.991673235867519, 38.26338830825766 ], [ -1.008315391518669, 38.094145144141471 ], [ -0.932798725093829, 38.01833478990573 ], [ -0.762135483852812, 37.847007832191395 ], [ -0.825854598456206, 37.726285337835257 ], [ -0.751135018759262, 37.611960319663304 ], [ -0.932798725111332, 37.592529011038032 ], [ -1.079183153430626, 37.576871281730263 ], [ -1.314795188777801, 37.551669492758649 ], [ -1.629967654098976, 37.375150679269964 ] ] ] } },
{ "type": "Feature", "properties": { "NUTS_ID": "ES630", "name": "Ceuta" }, "geometry": { "type": "Polygon", "coordinates": [ [ [ -5.38203003855012, 35.912603280204287 ], [ -5.37807825774419, 35.916342504289069 ], [ -5.366197853741057, 35.916960621445341 ], [ -5.360083919577474, 35.913756678192669 ], [ -5.344183881233519, 35.871149651105327 ], [ -5.38203003855012, 35.912603280204287 ] ] ] } },
{ "type": "Feature", "properties": { "NUTS_ID": "ES640", "name": "Melilla" }, "geometry": { "type": "Polygon", "coordinates": [ [ [ -2.952482233823698, 35.319901314934071 ], [ -2.946098934198812, 35.314299088564411 ], [ -2.945482496166963, 35.307526191996672 ], [ -2.932295653542738, 35.293566025545921 ], [ -2.935818074621671, 35.291307462386882 ], [ -2.937094925305911, 35.283136337436616 ], [ -2.929703441969998, 35.271704467353139 ], [ -2.961086323509944, 35.284485498580793 ], [ -2.952482233823698, 35.319901314934071 ] ] ] } },
{ "type": "Feature", "properties": { "NUTS_ID": "ES703", "name": "El Hierro" }, "geometry": { "type": "Polygon", "coordinates": [ [ [ -18.147576675696101, 27.725968223343521 ], [ -18.12257592770343, 27.762443699762756 ], [ -18.063126249868031, 27.755304817744786 ], [ -17.948840605002939, 27.838010405256831 ], [ -17.896230930861808, 27.808802324760059 ], [ -17.980101899216127, 27.652128562038513 ], [ -18.063126250026905, 27.694645612024853 ], [ -18.147576675696101, 27.725968223343521 ] ] ] } },
{ "type": "Feature", "properties": { "NUTS_ID": "ES704", "name": "Fuerteventura" }, "geometry": { "type": "Polygon", "coordinates": [ [ [ -14.397036740026037, 28.096830565885856 ], [ -14.00086755406984, 28.665384625627507 ], [ -13.868705233954383, 28.703172033653722 ], [ -13.834855810532993, 28.544671836494622 ], [ -13.936412858925122, 28.272046791246897 ], [ -14.261222229645515, 28.088797618035514 ], [ -14.397036740026037, 28.096830565885856 ] ] ] } },
{ "type": "Feature", "properties": { "NUTS_ID": "ES705", "name": "Gran Canaria" }, "geometry": { "type": "Polygon", "coordinates": [ [ [ -15.843087026974532, 27.971916453926294 ], [ -15.687068775758267, 28.146934158307531 ], [ -15.547035812993101, 28.15987697617545 ], [ -15.42884803899689, 28.11799419180775 ], [ -15.368185079337675, 27.946024419766211 ], [ -15.427941859197162, 27.807664051844572 ], [ -15.61922830927095, 27.735293137001378 ], [ -15.793648926436109, 27.838327816975411 ], [ -15.843087026974532, 27.971916453926294 ] ] ] } },
{ "type": "Feature", "properties": { "NUTS_ID": "ES706", "name": "La Gomera" }, "geometry": { "type": "Polygon", "coordinates": [ [ [ -17.379646167246531, 28.095359994749099 ], [ -17.28142724875763, 28.233662618390863 ], [ -17.081572539761922, 28.105144263221831 ], [ -17.219820613501909, 28.008154159354763 ], [ -17.379646167246531, 28.095359994749099 ] ] ] } },
{ "type": "Feature", "properties": { "NUTS_ID": "ES707", "name": "La Palma" }, "geometry": { "type": "Polygon", "coordinates": [ [ [ -18.074256274219191, 28.812073074526847 ], [ -17.890584745306871, 28.888718787981944 ], [ -17.741857583730717, 28.824585014309633 ], [ -17.808901795463989, 28.502551039231065 ], [ -18.074256274219191, 28.812073074526847 ] ] ] } },
{ "type": "Feature", "properties": { "NUTS_ID": "ES708", "name": "Lanzarote" }, "geometry": { "type": "Polygon", "coordinates": [ [ [ -13.898515970829145, 28.876137730573049 ], [ -13.786554497466229, 29.056519500013653 ], [ -13.537526770902019, 29.149331687289898 ], [ -13.488416634247187, 29.282176628519977 ], [ -13.443690585490595, 29.247443246122291 ], [ -13.489195585852615, 28.997333880872976 ], [ -13.794941563849044, 28.846566490912803 ], [ -13.898515970829145, 28.876137730573049 ] ] ] } },
{ "type": "Feature", "properties": { "NUTS_ID": "ES709", "name": "Tenerife" }, "geometry": { "type": "Polygon", "coordinates": [ [ [ -16.918446756586508, 28.347046549828008 ], [ -16.540285551602672, 28.429809409252726 ], [ -16.329277617583646, 28.559644784756454 ], [ -16.188838917863563, 28.540968680699915 ], [ -16.448573527596466, 28.13445380966181 ], [ -16.583852605475535, 28.026281689273208 ], [ -16.723704851254944, 28.04824354871684 ], [ -16.918446756586508, 28.347046549828008 ] ] ] } }
]
}
