{
"type": "FeatureCollection",
"name": "FI",
"crs": { "type": "name", "properties": { "name": "urn:ogc:def:crs:OGC:1.3:CRS84" } },
"features": [
{ "type": "Feature", "properties": { "NUTS_ID": "FI196", "name": "Satakunta" }, "geometry": { "type": "Polygon", "coordinates": [ [ [ 21.338738580948291, 61.955711928614491 ], [ 21.647834663207689, 62.019592555643804 ], [ 21.962236779813203, 61.986557335000889 ], [ 22.1183391192471, 62.039733365641219 ], [ 22.19974882616475, 62.097718348906291 ], [ 22.324746269355888, 62.110513699435892 ], [ 22.430308629744587, 62.183516634263526 ], [ 22.606129939243964, 62.296730160768263 ], [ 22.831243889643829, 62.270890025881279 ], [ 22.815442488518848, 62.167875604269305 ], [ 22.613692496627291, 61.990816440204974 ], [ 22.781292469102635, 61.791477676957591 ], [ 22.649062091375434, 61.589082270896107 ], [ 22.482252021027016, 61.472270839638853 ], [ 22.634739401528613, 61.276277907262752 ], [ 22.898116148472944, 61.190275615266067 ], [ 22.968488576583621, 61.043257929606654 ], [ 22.859587259675116, 61.067733362572149 ], [ 22.786204970101956, 60.998655656689806 ], [ 22.430308628125214, 60.939604628625567 ], [ 22.154192427029738, 60.889221071201504 ], [ 21.810990729427612, 61.021651304511494 ], [ 21.512323448676835, 61.005329796625773 ], [ 21.419929581645729, 61.047443031611202 ], [ 21.528644987353459, 61.612511432942298 ], [ 21.338738580948291, 61.955711928614491 ] ] ] } },
{ "type": "Feature", "properties": { "NUTS_ID": "FI198", "name": "Keski-Suomi" }, "geometry": { "type": "Polygon", "coordinates": [ [ [ 26.138652204597363, 63.457592089031316 ], [ 26.114450075231854, 63.326913515061477 ], [ 26.269633203407274, 62.986647262217716 ], [ 26.124268839595544, 62.892990658959413 ], [ 26.48857127404904, 62.739613922917165 ], [ 26.56243312193174, 62.639374326916915 ], [ 26.554098975396858, 62.519678945445747 ], [ 26.709129357253321, 62.45294898862177 ], [ 26.620333800558925, 62.25200338349854 ], [ 26.257641402582735, 62.147837417283114 ], [ 26.31959351801942, 62.045692261415319 ], [ 26.389331443347761, 61.982967083817684 ], [ 26.381233425642307, 61.826240947899009 ], [ 26.518132882914681, 61.680825385548722 ], [ 26.315036025569714, 61.608448438516845 ], [ 26.12615762667178, 61.64140022899268 ], [ 25.908359848482938, 61.776795715934171 ], [ 25.758489188208959, 61.698536114761353 ], [ 25.501333461727917, 61.676858501392971 ], [ 25.473523266132919, 61.754164827409852 ], [ 25.248449871916527, 61.731504408489563 ], [ 24.994481751775115, 61.773683653971084 ], [ 24.929387278720608, 61.643164743871637 ], [ 24.781986060359269, 61.677737600975185 ], [ 24.726069818511895, 61.81015283898337 ], [ 24.571007746134203, 61.926058990796015 ], [ 24.70432198834618, 62.045692262026556 ], [ 24.548764270956635, 62.178155233525786 ], [ 24.336514676844757, 62.180254646899414 ], [ 24.012997971588028, 62.363330436771157 ], [ 24.190389988580741, 62.467453647187661 ], [ 24.47043633645902, 62.49234456247131 ], [ 24.551233242052682, 62.568881552634231 ], [ 24.547614922685121, 62.654023920338723 ], [ 24.304112018600833, 63.007658932441267 ], [ 24.359008190148668, 63.116434524426104 ], [ 24.71602424429198, 63.159241632683496 ], [ 24.806280620287215, 63.373509168201643 ], [ 25.036322609663461, 63.458077947697831 ], [ 25.25230158085828, 63.603032296659691 ], [ 25.926748475173621, 63.438075260959522 ], [ 26.138652204597363, 63.457592089031316 ] ] ] } },
{ "type": "Feature", "properties": { "NUTS_ID": "FI199", "name": "Etelä-Pohjanmaa" }, "geometry": { "type": "Polygon", "coordinates": [ [ [ 24.359008190148668, 63.116434524426104 ], [ 24.304112018600833, 63.007658932441267 ], [ 24.547614922685121, 62.654023920338723 ], [ 24.551233242052682, 62.568881552634231 ], [ 24.47043633645902, 62.49234456247131 ], [ 24.190389988580741, 62.467453647187661 ], [ 24.012997971588028, 62.363330436771157 ], [ 23.858099434671868, 62.471713068135621 ], [ 23.4888723735166, 62.381356284005655 ], [ 23.29859503975316, 62.40254998643691 ], [ 23.176236695370005, 62.327207095915483 ], [ 22.831243889643829, 62.270890025881279 ], [ 22.606129939243964, 62.296730160768263 ], [ 22.430308629744587, 62.183516634263526 ], [ 22.324746269355888, 62.110513699435892 ], [ 22.19974882616475, 62.097718348906291 ], [ 22.1183391192471, 62.039733365641219 ], [ 21.962236779813203, 61.986557335000889 ], [ 21.647834663207689, 62.019592555643804 ], [ 21.704299929629773, 62.24129011991846 ], [ 21.570378604329886, 62.472259539578118 ], [ 21.628515354116232, 62.610209265723398 ], [ 21.763326384303557, 62.70047696071957 ], [ 21.767749066514877, 62.822562766279489 ], [ 22.227975744587695, 62.787308101343939 ], [ 22.20347486133814, 63.029222320911877 ], [ 22.584559483870475, 63.112131876762326 ], [ 22.606794213212531, 63.262273419747856 ], [ 22.754603728540136, 63.347058586122323 ], [ 23.122831649911728, 63.36734332564135 ], [ 23.393728004550645, 63.480863593778935 ], [ 23.696989629277102, 63.38032689279887 ], [ 24.359008190148668, 63.116434524426104 ] ] ] } },
{ "type": "Feature", "properties": { "NUTS_ID": "FI19A", "name": "Pohjanmaa" }, "geometry": { "type": "MultiPolygon", "coordinates": [ [ [ [ 23.16918010175873, 63.737799377710402 ], [ 23.578295762950063, 63.732097890356044 ], [ 23.604861460376441, 63.693796461981428 ], [ 23.517061987450049, 63.620703586614752 ], [ 23.696989629277102, 63.38032689279887 ], [ 23.393728004550645, 63.480863593778935 ], [ 23.122831649911728, 63.36734332564135 ], [ 22.754603728540136, 63.347058586122323 ], [ 22.606794213212531, 63.262273419747856 ], [ 22.584559483870475, 63.112131876762326 ], [ 22.20347486133814, 63.029222320911877 ], [ 22.227975744587695, 62.787308101343939 ], [ 21.767749066514877, 62.822562766279489 ], [ 21.763326384303557, 62.70047696071957 ], [ 21.628515354116232, 62.610209265723398 ], [ 21.570378604329886, 62.472259539578118 ], [ 21.704299929629773, 62.24129011991846 ], [ 21.647834663207689, 62.019592555643804 ], [ 21.338738580948291, 61.955711928614491 ], [ 21.349234589506889, 62.220398975686436 ], [ 21.101302068135407, 62.642925763033361 ], [ 21.156158635837542, 62.825099028720388 ], [ 21.395775239353949, 62.929584880168449 ], [ 21.383971161252916, 63.03183097984293 ], [ 21.585680479124459, 63.276104018142199 ], [ 21.865304058010622, 63.290613119382655 ], [ 22.036629451759975, 63.377165817519597 ], [ 22.305533879809541, 63.342991955032339 ], [ 22.268211849230582, 63.473155952961257 ], [ 22.331633775032724, 63.545914911724097 ], [ 22.495292258345696, 63.588486307072728 ], [ 22.559170802947833, 63.693338014804475 ], [ 22.527700663791673, 63.765591400108967 ], [ 22.639527953697918, 63.735097761839491 ], [ 22.686047163450016, 63.83413306914332 ], [ 22.866945876814032, 63.838186532401181 ], [ 23.16918010175873, 63.737799377710402 ] ] ], [ [ [ 21.791795102808909, 63.369652995052789 ], [ 21.73327848002684, 63.332832798065134 ], [ 21.664731469313249, 63.446532581137376 ], [ 21.782741649843437, 63.429923513186871 ], [ 21.791795102808909, 63.369652995052789 ] ] ], [ [ [ 21.444089967692292, 63.247028131899178 ], [ 21.33664356487915, 63.161356389000943 ], [ 21.105897409285419, 63.242313907119225 ], [ 21.123282982558017, 63.323951940856922 ], [ 21.228767327756877, 63.386503032475908 ], [ 21.399196682385735, 63.363063771087013 ], [ 21.444089967692292, 63.247028131899178 ] ] ], [ [ [ 21.253134725955967, 62.959071289133888 ], [ 21.167768615515019, 62.922852230432191 ], [ 21.105500269137913, 62.984945548342523 ], [ 21.182448941104855, 63.029599428066632 ], [ 21.253134725955967, 62.959071289133888 ] ] ], [ [ [ 20.915469566853112, 62.950352995263238 ], [ 20.84546120950678, 62.928124991097697 ], [ 20.748911211301557, 62.984862137191001 ], [ 20.849861371803502, 63.024112736732299 ], [ 20.915469566853112, 62.950352995263238 ] ] ] ] } },
{ "type": "Feature", "properties": { "NUTS_ID": "FI19B", "name": "Pirkanmaa" }, "geometry": { "type": "Polygon", "coordinates": [ [ [ 22.831243889643829, 62.270890025881279 ], [ 23.176236695370005, 62.327207095915483 ], [ 23.29859503975316, 62.40254998643691 ], [ 23.4888723735166, 62.381356284005655 ], [ 23.858099434671868, 62.471713068135621 ], [ 24.012997971588028, 62.363330436771157 ], [ 24.336514676844757, 62.180254646899414 ], [ 24.548764270956635, 62.178155233525786 ], [ 24.70432198834618, 62.045692262026556 ], [ 24.571007746134203, 61.926058990796015 ], [ 24.726069818511895, 61.81015283898337 ], [ 24.781986060359269, 61.677737600975185 ], [ 24.929387278720608, 61.643164743871637 ], [ 24.994481751775115, 61.773683653971084 ], [ 25.248449871916527, 61.731504408489563 ], [ 25.473523266132919, 61.754164827409852 ], [ 25.501333461727917, 61.676858501392971 ], [ 25.43077703252326, 61.499919222442436 ], [ 25.248449872377208, 61.473320593901775 ], [ 24.913875995585617, 61.452454774313701 ], [ 24.913933273646439, 61.324883014346497 ], [ 24.327910381619688, 61.236988151957618 ], [ 24.234056336165558, 61.158452164840092 ], [ 23.831678446140462, 61.071401419707151 ], [ 23.789656437107411, 61.001481590453018 ], [ 23.19535032889878, 61.001223005509303 ], [ 22.968488576583621, 61.043257929606654 ], [ 22.898116148472944, 61.190275615266067 ], [ 22.634739401528613, 61.276277907262752 ], [ 22.482252021027016, 61.472270839638853 ], [ 22.649062091375434, 61.589082270896107 ], [ 22.781292469102635, 61.791477676957591 ], [ 22.613692496627291, 61.990816440204974 ], [ 22.815442488518848, 62.167875604269305 ], [ 22.831243889643829, 62.270890025881279 ] ] ] } },
{ "type": "Feature", "properties": { "NUTS_ID": "FI1B1", "name": "Helsinki-Uusimaa" }, "geometry": { "type": "MultiPolygon", "coordinates": [ [ [ [ 25.461982775996852, 60.775830262868048 ], [ 25.59845315287988, 60.682622734182225 ], [ 26.126373870911625, 60.695762260694188 ], [ 26.30012673506296, 60.749203530401708 ], [ 26.354296875444174, 60.665613437033137 ], [ 26.515651819283136, 60.577423388853582 ], [ 26.453931863722254, 60.48765254528206 ], [ 26.323904397788304, 60.40755510543584 ], [ 26.104741248078227, 60.395864126224922 ], [ 26.008505656485617, 60.261268391094077 ], [ 25.915002561168599, 60.320693259365271 ], [ 25.884194632283133, 60.223921278596833 ], [ 25.631093998466881, 60.224674430836117 ], [ 25.547632279203793, 60.307774294278445 ], [ 25.441172643749297, 60.222012884448183 ], [ 24.700251688991301, 60.089909341750584 ], [ 24.457006880954921, 59.994419830054916 ], [ 24.238979890148137, 60.019333188328638 ], [ 23.751964332081577, 59.897951597327101 ], [ 23.218514335539538, 59.864008086267596 ], [ 23.135232778439754, 59.959183536777566 ], [ 23.012839955175998, 59.856578105246641 ], [ 22.90171263226863, 59.95455920255749 ], [ 23.028183207179566, 60.101486555292581 ], [ 23.619723101041004, 60.220771989175383 ], [ 23.900492558282998, 60.649758393783358 ], [ 24.467113648101463, 60.566289578466048 ], [ 24.624438483524251, 60.656539524080834 ], [ 25.088177842104638, 60.679093354223888 ], [ 25.110965953629311, 60.818584550526374 ], [ 25.2484498716214, 60.792255169612858 ], [ 25.461982775996852, 60.775830262868048 ] ] ], [ [ [ 22.892889331025209, 59.858094261225091 ], [ 22.831649734703582, 59.782278915270368 ], [ 22.740544549574675, 59.783421323764649 ], [ 22.77798038222743, 59.861912485515163 ], [ 22.892889331025209, 59.858094261225091 ] ] ] ] } },
{ "type": "Feature", "properties": { "NUTS_ID": "FI1C1", "name": "Varsinais-Suomi" }, "geometry": { "type": "MultiPolygon", "coordinates": [ [ [ [ 23.253398603346092, 60.936568752832706 ], [ 23.171777019346688, 60.847739475890478 ], [ 23.219113696413057, 60.76072661484686 ], [ 23.900492558282998, 60.649758393783358 ], [ 23.619723101041004, 60.220771989175383 ], [ 23.028183207179566, 60.101486555292581 ], [ 22.416136063340339, 59.889876239388336 ], [ 22.392856939686499, 60.189778892473029 ], [ 22.244063693399369, 60.177091215311627 ], [ 22.072874580312916, 60.383911253847501 ], [ 22.030126631668942, 60.296926536032124 ], [ 22.067948307405775, 60.169291106055603 ], [ 21.796198858157616, 60.138252004366365 ], [ 21.833195085509381, 60.294191944676619 ], [ 21.746985190647937, 60.471874946653521 ], [ 21.665073856330732, 60.394455470460578 ], [ 21.446348057953244, 60.433539536529111 ], [ 21.373339364325044, 60.334654981262268 ], [ 21.371522951570594, 60.214625953824722 ], [ 21.251974007463751, 60.22156777743762 ], [ 21.192288720085632, 60.364554339581325 ], [ 21.286092826189208, 60.408929909345161 ], [ 21.310484288737396, 60.490885476063497 ], [ 21.204942421629401, 60.85366054222451 ], [ 21.419929581645729, 61.047443031611202 ], [ 21.512323448676835, 61.005329796625773 ], [ 21.810990729427612, 61.021651304511494 ], [ 22.154192427029738, 60.889221071201504 ], [ 22.430308628125214, 60.939604628625567 ], [ 22.786204970101956, 60.998655656689806 ], [ 22.859587259675116, 61.067733362572149 ], [ 22.968488576583621, 61.043257929606654 ], [ 23.19535032889878, 61.001223005509303 ], [ 23.253398603346092, 60.936568752832706 ] ] ], [ [ [ 22.083876843762074, 60.010574580250726 ], [ 22.034660848389859, 60.007357704477442 ], [ 21.950739902724212, 60.085136729421194 ], [ 22.074440216217518, 60.106303734152746 ], [ 22.083876843762074, 60.010574580250726 ] ] ], [ [ [ 21.94593426972191, 59.99844862243522 ], [ 21.794149126401624, 59.882408111252488 ], [ 21.702582160583145, 59.932743093463365 ], [ 21.905804488619662, 60.025569872389639 ], [ 21.94593426972191, 59.99844862243522 ] ] ], [ [ [ 21.670357451613931, 60.224245458154513 ], [ 21.649788454545728, 59.938026115513949 ], [ 21.583030444138593, 59.947758939821071 ], [ 21.485106008648359, 60.145278555458304 ], [ 21.670357451613931, 60.224245458154513 ] ] ], [ [ [ 21.782424363746667, 60.322494755212226 ], [ 21.723491498603789, 60.26568484930737 ], [ 21.647342473477373, 60.341866782769287 ], [ 21.728079863223584, 60.384505522136841 ], [ 21.782424363746667, 60.322494755212226 ] ] ], [ [ [ 21.579305536687325, 60.352602317697794 ], [ 21.494893869513405, 60.25932703217125 ], [ 21.424665467161155, 60.301235810527388 ], [ 21.504679681400138, 60.366945128213125 ], [ 21.579305536687325, 60.352602317697794 ] ] ], [ [ [ 21.393425405723704, 59.96823139334127 ], [ 21.310277228050911, 59.918227626557098 ], [ 21.215716182235177, 59.959880434148467 ], [ 21.323372524313623, 60.009662190466472 ], [ 21.393425405723704, 59.96823139334127 ] ] ] ] } },
{ "type": "Feature", "properties": { "NUTS_ID": "FI1C2", "name": "Kanta-Häme" }, "geometry": { "type": "Polygon", "coordinates": [ [ [ 23.19535032889878, 61.001223005509303 ], [ 23.789656437107411, 61.001481590453018 ], [ 23.831678446140462, 61.071401419707151 ], [ 24.234056336165558, 61.158452164840092 ], [ 24.327910381619688, 61.236988151957618 ], [ 24.913933273646439, 61.324883014346497 ], [ 25.239525598409486, 61.177119384839429 ], [ 25.0574689490285, 60.99594189430978 ], [ 25.110965953629311, 60.818584550526374 ], [ 25.088177842104638, 60.679093354223888 ], [ 24.624438483524251, 60.656539524080834 ], [ 24.467113648101463, 60.566289578466048 ], [ 23.900492558282998, 60.649758393783358 ], [ 23.219113696413057, 60.76072661484686 ], [ 23.171777019346688, 60.847739475890478 ], [ 23.253398603346092, 60.936568752832706 ], [ 23.19535032889878, 61.001223005509303 ] ] ] } },
{ "type": "Feature", "properties": { "NUTS_ID": "FI1C5", "name": "Etelä-Karjala" }, "geometry": { "type": "Polygon", "coordinates": [ [ [ 29.306271683048877, 61.329177535902467 ], [ 28.084695275560787, 60.718335935623969 ], [ 27.991279422481426, 60.668978936270499 ], [ 27.834238761081039, 60.757202974340565 ], [ 27.233986868898025, 60.909986928666015 ], [ 27.160373189700966, 61.024334977532966 ], [ 27.205819704258253, 61.162467920681053 ], [ 27.641690968669447, 61.329290984647038 ], [ 28.084695274410713, 61.358774615100437 ], [ 28.284535759966566, 61.392748170743573 ], [ 28.460670902277794, 61.495199413393578 ], [ 28.701336917960521, 61.470433848530348 ], [ 28.854205425091784, 61.533247756008564 ], [ 29.234022343734651, 61.5568399835295 ], [ 29.559279131025022, 61.722067917332751 ], [ 30.14396635918126, 61.852237968975921 ], [ 29.306271683048877, 61.329177535902467 ] ] ] } },
{ "type": "Feature", "properties": { "NUTS_ID": "FI1C6", "name": "Päijät-Häme" }, "geometry": { "type": "Polygon", "coordinates": [ [ [ 25.110965953629311, 60.818584550526374 ], [ 25.0574689490285, 60.99594189430978 ], [ 25.239525598409486, 61.177119384839429 ], [ 24.913933273646439, 61.324883014346497 ], [ 24.913875995585617, 61.452454774313701 ], [ 25.248449872377208, 61.473320593901775 ], [ 25.43077703252326, 61.499919222442436 ], [ 25.501333461727917, 61.676858501392971 ], [ 25.758489188208959, 61.698536114761353 ], [ 25.908359848482938, 61.776795715934171 ], [ 26.12615762667178, 61.64140022899268 ], [ 26.315036025569714, 61.608448438516845 ], [ 26.266720575045273, 61.444150547861938 ], [ 26.513659425723251, 61.274323973293029 ], [ 26.258459729189354, 61.137369893761239 ], [ 26.283926543733255, 61.035083378039438 ], [ 26.482370823658101, 61.004559017262835 ], [ 26.53094925391229, 60.909883669783532 ], [ 26.30012673506296, 60.749203530401708 ], [ 26.126373870911625, 60.695762260694188 ], [ 25.59845315287988, 60.682622734182225 ], [ 25.461982775996852, 60.775830262868048 ], [ 25.2484498716214, 60.792255169612858 ], [ 25.110965953629311, 60.818584550526374 ] ] ] } },
{ "type": "Feature", "properties": { "NUTS_ID": "FI1C7", "name": "Kymenlaakso" }, "geometry": { "type": "Polygon", "coordinates": [ [ [ 26.453931863722254, 60.48765254528206 ], [ 26.515651819283136, 60.577423388853582 ], [ 26.354296875444174, 60.665613437033137 ], [ 26.30012673506296, 60.749203530401708 ], [ 26.53094925391229, 60.909883669783532 ], [ 26.482370823658101, 61.004559017262835 ], [ 26.283926543733255, 61.035083378039438 ], [ 26.258459729189354, 61.137369893761239 ], [ 26.513659425723251, 61.274323973293029 ], [ 26.696165154359846, 61.232737265653839 ], [ 26.843535739978989, 61.271443248287213 ], [ 26.969180527445808, 61.169082246751906 ], [ 27.205819704258253, 61.162467920681053 ], [ 27.160373189700966, 61.024334977532966 ], [ 27.233986868898025, 60.909986928666015 ], [ 27.834238761081039, 60.757202974340565 ], [ 27.991279422481426, 60.668978936270499 ], [ 27.796461915678215, 60.545358673393629 ], [ 27.793524230579493, 60.54525064136601 ], [ 27.679355947555731, 60.471102643139325 ], [ 27.079550194663479, 60.506134760461819 ], [ 27.003709422255742, 60.42519830442496 ], [ 26.724867265233929, 60.41168068290542 ], [ 26.453931863722254, 60.48765254528206 ] ] ] } },
{ "type": "Feature", "properties": { "NUTS_ID": "FI1D5", "name": "Keski-Pohjanmaa" }, "geometry": { "type": "Polygon", "coordinates": [ [ [ 23.617333112406573, 64.048771875317527 ], [ 23.851394782974037, 63.98444427478605 ], [ 23.954275643488501, 64.078765231874272 ], [ 24.052820802233825, 64.074164178693266 ], [ 24.235963557835166, 63.891807894213244 ], [ 25.036322609663461, 63.458077947697831 ], [ 24.806280620287215, 63.373509168201643 ], [ 24.71602424429198, 63.159241632683496 ], [ 24.359008190148668, 63.116434524426104 ], [ 23.696989629277102, 63.38032689279887 ], [ 23.517061987450049, 63.620703586614752 ], [ 23.604861460376441, 63.693796461981428 ], [ 23.578295762950063, 63.732097890356044 ], [ 23.16918010175873, 63.737799377710402 ], [ 22.866945876814032, 63.838186532401181 ], [ 22.901251824009581, 63.887705916810525 ], [ 23.076256317429106, 63.862921498829465 ], [ 23.366415126761396, 63.931488772921213 ], [ 23.434803049806579, 64.066195311998612 ], [ 23.617333112406573, 64.048771875317527 ] ] ] } },
{ "type": "Feature", "properties": { "NUTS_ID": "FI1D7", "name": "Lappi" }, "geometry": { "type": "Polygon", "coordinates": [ [ [ 24.155129181097941, 65.816027029809277 ], [ 24.0501583442392, 65.986337483524053 ], [ 23.910885322401676, 66.145490020659352 ], [ 23.736720708435648, 66.20204120768345 ], [ 23.66507874527467, 66.288472045026865 ], [ 23.678511981607564, 66.46018556742267 ], [ 23.84058221864548, 66.559982986290819 ], [ 23.970860287339796, 66.832892979146294 ], [ 23.582337686882052, 67.154583528971173 ], [ 23.560577261153142, 67.238147336138852 ], [ 23.739526410748443, 67.336203049663041 ], [ 23.731659535959814, 67.428912763561257 ], [ 23.423764957343082, 67.487200351023603 ], [ 23.539711789053673, 67.60872410775427 ], [ 23.489258517008334, 67.838511969072442 ], [ 23.617683719689861, 67.96632187497903 ], [ 23.180750202532735, 68.147889339295205 ], [ 23.049907458974477, 68.30041278309308 ], [ 22.163129554388441, 68.473301338349515 ], [ 22.053522731217431, 68.483869087472257 ], [ 21.899858158799717, 68.577330776964388 ], [ 21.730148664901137, 68.594176185769513 ], [ 21.627544140019364, 68.65883151227338 ], [ 21.429676698735726, 68.693355459526614 ], [ 21.370750119398384, 68.756772344678524 ], [ 20.904864794877149, 68.902831615162029 ], [ 20.793191413914276, 69.019794583630912 ], [ 20.548636558941542, 69.059968546070451 ], [ 20.730045841461404, 69.11139241940289 ], [ 21.050527426387813, 69.050542546921491 ], [ 21.088598843455063, 69.098982833002907 ], [ 21.018146856282367, 69.206143502083918 ], [ 21.299035811208761, 69.307427484273262 ], [ 21.630272534358184, 69.268890535137203 ], [ 21.98361135086391, 69.072893503670642 ], [ 22.455719401899348, 68.722319227466528 ], [ 23.21703132779097, 68.64394040945237 ], [ 23.618878082043882, 68.706054427084254 ], [ 23.917017810906881, 68.826317045662165 ], [ 24.90242413173041, 68.592364161832336 ], [ 25.082746982755072, 68.647869432161713 ], [ 25.255591238086797, 68.834566780041328 ], [ 25.716623877413845, 68.977706350643061 ], [ 25.731618663221923, 69.270778479977722 ], [ 25.999792228474838, 69.697873605210219 ], [ 26.519853084756217, 69.937246349281921 ], [ 27.067950454389024, 69.921286447965443 ], [ 27.888308391177741, 70.078194623114825 ], [ 28.439952866038425, 69.818040565152515 ], [ 29.085443254192882, 69.695818631158218 ], [ 29.23782791425883, 69.56664070433574 ], [ 29.284296074745555, 69.497893588737654 ], [ 29.241064599244819, 69.42471804603953 ], [ 28.852063600899044, 69.205475264397748 ], [ 28.83953792808305, 69.124043898347566 ], [ 28.929561557074823, 69.051911620843768 ], [ 28.622817339511752, 68.927883253606623 ], [ 28.730075311314852, 68.831858683602064 ], [ 28.488947021967906, 68.531140552387626 ], [ 28.596681956490901, 68.298224867468392 ], [ 29.31329782750036, 68.061391787820142 ], [ 29.952183446316596, 67.645448565790886 ], [ 29.855018256061573, 67.484544647322593 ], [ 29.100146281794416, 66.963408746096022 ], [ 29.129164433773006, 66.819666398951881 ], [ 29.322067477841905, 66.662862593876724 ], [ 29.572938322842045, 66.432856020939909 ], [ 28.71033200259669, 66.474140395670076 ], [ 28.555172129524067, 66.343373194051097 ], [ 28.741137955044056, 66.225992898580316 ], [ 28.730664741993088, 66.162108375697088 ], [ 28.629534726864961, 66.107466849461943 ], [ 28.71766346460883, 66.010938295791306 ], [ 28.410592875102441, 65.981939056592608 ], [ 28.496764804078573, 65.872656030587237 ], [ 28.455069726442662, 65.837872213779917 ], [ 27.897427410426346, 65.822940005258033 ], [ 27.767592728452737, 65.837295069484739 ], [ 27.642180656157546, 65.94411919957119 ], [ 27.435351195699027, 65.931772245748178 ], [ 27.104654940822311, 65.751423419869894 ], [ 26.894294473072677, 65.712014173018133 ], [ 26.213818370277053, 65.723405265596 ], [ 26.118450455904295, 65.810783235130458 ], [ 25.423091825384084, 65.736808787262731 ], [ 25.08460758404167, 65.588949522821196 ], [ 25.002521344158151, 65.62711706581635 ], [ 24.531553220122206, 65.668237653107354 ], [ 24.486397663552019, 65.732131966356434 ], [ 24.19549308232067, 65.755736326374233 ], [ 24.155129181097941, 65.816027029809277 ] ] ] } },
{ "type": "Feature", "properties": { "NUTS_ID": "FI1D8", "name": "Kainuu" }, "geometry": { "type": "Polygon", "coordinates": [ [ [ 29.971917177479522, 63.75716542445015 ], [ 29.767622433104343, 63.72120003776633 ], [ 29.646227881949809, 63.873177721756342 ], [ 28.907116777060669, 63.837806337705864 ], [ 28.53897266186809, 63.875361455886754 ], [ 28.359609627059534, 63.754753520206059 ], [ 28.262877752859062, 63.684808715479008 ], [ 28.084695274179531, 63.765362078017134 ], [ 27.580825846885958, 63.946338572116971 ], [ 26.870419095715775, 64.036977608456468 ], [ 26.783965859267596, 64.090345494323671 ], [ 26.79052917063046, 64.265392087434904 ], [ 27.15622316273026, 64.323387240751174 ], [ 27.341997300342832, 64.54990966359864 ], [ 27.173659806419391, 64.804259689675419 ], [ 27.365815082681745, 64.872969650312953 ], [ 27.305839380653303, 65.012274853277617 ], [ 27.335821720072893, 65.06713123794259 ], [ 27.867895377639762, 65.099421996045805 ], [ 28.039741632777314, 65.227967014070956 ], [ 28.536970532388452, 65.286316937240827 ], [ 28.725920493542102, 65.400785833704546 ], [ 29.204870797829187, 65.507000947622998 ], [ 29.754731583890571, 65.497369398189448 ], [ 29.726279866030627, 65.34975199098713 ], [ 29.628948070907473, 65.254731969174728 ], [ 29.865226103266082, 65.187021749170754 ], [ 29.830262138759416, 65.10770376752609 ], [ 29.6315973574706, 65.043524378187044 ], [ 29.629446954543148, 64.916500111525693 ], [ 29.727994087838805, 64.806343817446717 ], [ 30.031379493374299, 64.785928705367084 ], [ 30.055582506697544, 64.713523519299812 ], [ 30.106899609289581, 64.648550180515812 ], [ 29.996027961288334, 64.552810236779081 ], [ 30.066803174549609, 64.399334284621389 ], [ 30.431609657825298, 64.265392087821581 ], [ 30.518995516818858, 64.132449316811133 ], [ 30.500824688887469, 64.067703309020573 ], [ 30.246776780512725, 63.834644567008631 ], [ 29.971917177479522, 63.75716542445015 ] ] ] } },
{ "type": "Feature", "properties": { "NUTS_ID": "FI1D9", "name": "Pohjois-Pohjanmaa" }, "geometry": { "type": "MultiPolygon", "coordinates": [ [ [ [ 29.929035112570812, 66.107456859744502 ], [ 30.122757545450174, 65.71714341517027 ], [ 29.753240758797887, 65.637874474862315 ], [ 29.837365133355455, 65.557564363459974 ], [ 29.754731583890571, 65.497369398189448 ], [ 29.204870797829187, 65.507000947622998 ], [ 28.725920493542102, 65.400785833704546 ], [ 28.536970532388452, 65.286316937240827 ], [ 28.039741632777314, 65.227967014070956 ], [ 27.867895377639762, 65.099421996045805 ], [ 27.335821720072893, 65.06713123794259 ], [ 27.305839380653303, 65.012274853277617 ], [ 27.365815082681745, 64.872969650312953 ], [ 27.173659806419391, 64.804259689675419 ], [ 27.341997300342832, 64.54990966359864 ], [ 27.15622316273026, 64.323387240751174 ], [ 26.79052917063046, 64.265392087434904 ], [ 26.783965859267596, 64.090345494323671 ], [ 26.870419095715775, 64.036977608456468 ], [ 26.250880940901851, 63.839744640179482 ], [ 26.277518009379872, 63.606655649313332 ], [ 26.138652204597363, 63.457592089031316 ], [ 25.926748475173621, 63.438075260959522 ], [ 25.25230158085828, 63.603032296659691 ], [ 25.036322609663461, 63.458077947697831 ], [ 24.235963557835166, 63.891807894213244 ], [ 24.052820802233825, 64.074164178693266 ], [ 23.954275643488501, 64.078765231874272 ], [ 23.851394782974037, 63.98444427478605 ], [ 23.617333112406573, 64.048771875317527 ], [ 23.674134111094912, 64.183609778991695 ], [ 23.825959941311737, 64.265392087652103 ], [ 24.310990278381539, 64.529576147552476 ], [ 24.632136035835174, 64.823802258521823 ], [ 24.991993600641528, 64.906807765650001 ], [ 25.331153073373617, 64.871268594351577 ], [ 25.299569946998304, 64.963767868899026 ], [ 25.423871910370913, 64.99055450821615 ], [ 25.265448557421987, 65.155052972597545 ], [ 25.291559116514129, 65.440187530641921 ], [ 25.08460758404167, 65.588949522821196 ], [ 25.423091825384084, 65.736808787262731 ], [ 26.118450455904295, 65.810783235130458 ], [ 26.213818370277053, 65.723405265596 ], [ 26.894294473072677, 65.712014173018133 ], [ 27.104654940822311, 65.751423419869894 ], [ 27.435351195699027, 65.931772245748178 ], [ 27.642180656157546, 65.94411919957119 ], [ 27.767592728452737, 65.837295069484739 ], [ 27.897427410426346, 65.822940005258033 ], [ 28.455069726442662, 65.837872213779917 ], [ 28.496764804078573, 65.872656030587237 ], [ 28.410592875102441, 65.981939056592608 ], [ 28.71766346460883, 66.010938295791306 ], [ 28.629534726864961, 66.107466849461943 ], [ 28.730664741993088, 66.162108375697088 ], [ 28.741137955044056, 66.225992898580316 ], [ 28.555172129524067, 66.343373194051097 ], [ 28.71033200259669, 66.474140395670076 ], [ 29.572938322842045, 66.432856020939909 ], [ 29.929035112570812, 66.107456859744502 ] ] ], [ [ [ 24.931212174646195, 64.986461802253231 ], [ 24.765500042841254, 64.931754639625339 ], [ 24.56331323605696, 65.050717409387076 ], [ 24.775050511896019, 65.099147219632528 ], [ 24.931212174646195, 64.986461802253231 ] ] ] ] } },
{ "type": "Feature", "properties": { "NUTS_ID": "FI1DA", "name": "Etelä-Savo" }, "geometry": { "type": "Polygon", "coordinates": [ [ [ 27.205819704258253, 61.162467920681053 ], [ 26.969180527445808, 61.169082246751906 ], [ 26.843535739978989, 61.271443248287213 ], [ 26.696165154359846, 61.232737265653839 ], [ 26.513659425723251, 61.274323973293029 ], [ 26.266720575045273, 61.444150547861938 ], [ 26.315036025569714, 61.608448438516845 ], [ 26.518132882914681, 61.680825385548722 ], [ 26.381233425642307, 61.826240947899009 ], [ 26.389331443347761, 61.982967083817684 ], [ 26.31959351801942, 62.045692261415319 ], [ 26.257641402582735, 62.147837417283114 ], [ 26.620333800558925, 62.25200338349854 ], [ 26.709129357253321, 62.45294898862177 ], [ 27.366328205853552, 62.493863787590925 ], [ 27.55064631576311, 62.449466135007377 ], [ 27.657184188709497, 62.362010910956108 ], [ 27.555638469987677, 62.23598370204828 ], [ 27.608988257463771, 62.085147334312495 ], [ 27.777383729359588, 62.001192054894176 ], [ 28.012708722490963, 62.102363504855333 ], [ 28.108030290203423, 62.224753072909671 ], [ 28.564450288118504, 62.16976242674491 ], [ 28.652808032151835, 62.231322975845316 ], [ 28.920811963357725, 62.267633894570302 ], [ 29.240949336999449, 62.405787190592278 ], [ 29.498766097167227, 62.045692261950151 ], [ 29.633294089537046, 61.979568565796207 ], [ 29.680066894395733, 61.853192105847199 ], [ 29.559279131025022, 61.722067917332751 ], [ 29.234022343734651, 61.5568399835295 ], [ 28.854205425091784, 61.533247756008564 ], [ 28.701336917960521, 61.470433848530348 ], [ 28.460670902277794, 61.495199413393578 ], [ 28.284535759966566, 61.392748170743573 ], [ 28.084695274410713, 61.358774615100437 ], [ 27.641690968669447, 61.329290984647038 ], [ 27.205819704258253, 61.162467920681053 ] ] ] } },
{ "type": "Feature", "properties": { "NUTS_ID": "FI1DB", "name": "Pohjois-Savo" }, "geometry": { "type": "Polygon", "coordinates": [ [ [ 28.652808032151835, 62.231322975845316 ], [ 28.564450288118504, 62.16976242674491 ], [ 28.108030290203423, 62.224753072909671 ], [ 28.012708722490963, 62.102363504855333 ], [ 27.777383729359588, 62.001192054894176 ], [ 27.608988257463771, 62.085147334312495 ], [ 27.555638469987677, 62.23598370204828 ], [ 27.657184188709497, 62.362010910956108 ], [ 27.55064631576311, 62.449466135007377 ], [ 27.366328205853552, 62.493863787590925 ], [ 26.709129357253321, 62.45294898862177 ], [ 26.554098975396858, 62.519678945445747 ], [ 26.56243312193174, 62.639374326916915 ], [ 26.48857127404904, 62.739613922917165 ], [ 26.124268839595544, 62.892990658959413 ], [ 26.269633203407274, 62.986647262217716 ], [ 26.114450075231854, 63.326913515061477 ], [ 26.138652204597363, 63.457592089031316 ], [ 26.277518009379872, 63.606655649313332 ], [ 26.250880940901851, 63.839744640179482 ], [ 26.870419095715775, 64.036977608456468 ], [ 27.580825846885958, 63.946338572116971 ], [ 28.084695274179531, 63.765362078017134 ], [ 28.262877752859062, 63.684808715479008 ], [ 28.359609627059534, 63.754753520206059 ], [ 28.563930829750124, 63.675573287862406 ], [ 28.634077525781962, 63.481081035017901 ], [ 28.742618800432286, 63.377785879467091 ], [ 28.669636338474135, 63.19321087744234 ], [ 29.037624626453717, 62.990882230053018 ], [ 28.981774840127464, 62.931747077733107 ], [ 29.016319888865528, 62.817953616818833 ], [ 28.792374286531071, 62.819646407891248 ], [ 28.676428690724439, 62.763106343802967 ], [ 28.620154185460777, 62.620272432658325 ], [ 28.426521819908803, 62.565715583785483 ], [ 28.299534595317489, 62.44078181182455 ], [ 28.325002026830195, 62.364905790836914 ], [ 28.652808032151835, 62.231322975845316 ] ] ] } },
{ "type": "Feature", "properties": { "NUTS_ID": "FI1DC", "name": "Pohjois-Karjala" }, "geometry": { "type": "Polygon", "coordinates": [ [ [ 30.14396635918126, 61.852237968975921 ], [ 29.559279131025022, 61.722067917332751 ], [ 29.680066894395733, 61.853192105847199 ], [ 29.633294089537046, 61.979568565796207 ], [ 29.498766097167227, 62.045692261950151 ], [ 29.240949336999449, 62.405787190592278 ], [ 28.920811963357725, 62.267633894570302 ], [ 28.652808032151835, 62.231322975845316 ], [ 28.325002026830195, 62.364905790836914 ], [ 28.299534595317489, 62.44078181182455 ], [ 28.426521819908803, 62.565715583785483 ], [ 28.620154185460777, 62.620272432658325 ], [ 28.676428690724439, 62.763106343802967 ], [ 28.792374286531071, 62.819646407891248 ], [ 29.016319888865528, 62.817953616818833 ], [ 28.981774840127464, 62.931747077733107 ], [ 29.037624626453717, 62.990882230053018 ], [ 28.669636338474135, 63.19321087744234 ], [ 28.742618800432286, 63.377785879467091 ], [ 28.634077525781962, 63.481081035017901 ], [ 28.563930829750124, 63.675573287862406 ], [ 28.359609627059534, 63.754753520206059 ], [ 28.53897266186809, 63.875361455886754 ], [ 28.907116777060669, 63.837806337705864 ], [ 29.646227881949809, 63.873177721756342 ], [ 29.767622433104343, 63.72120003776633 ], [ 29.971917177479522, 63.75716542445015 ], [ 30.494024922593095, 63.469882720895654 ], [ 31.202459988520985, 63.229674638408973 ], [ 31.562354919733234, 62.917329669111957 ], [ 31.202165521224508, 62.48747969336339 ], [ 30.456848702984857, 62.045692261981074 ], [ 30.14396635918126, 61.852237968975921 ] ] ] } },
{ "type": "Feature", "properties": { "NUTS_ID": "FI200", "name": "Åland" }, "geometry": { "type": "MultiPolygon", "coordinates": [ [ [ [ 21.031338139968298, 59.920048308592833 ], [ 20.945870304188002, 59.878824128139975 ], [ 20.840655054240443, 59.940487294846861 ], [ 20.934019066367362, 59.979902138416584 ], [ 21.031338139968298, 59.920048308592833 ] ] ], [ [ [ 20.894470981324648, 60.538035100165786 ], [ 20.975578054523691, 60.48791692769673 ], [ 21.085433578457913, 60.526721609853929 ], [ 21.070080102404571, 60.293644101629866 ], [ 20.9511314142602, 60.29276392656233 ], [ 20.952100216331637, 60.38977416084829 ], [ 20.847290670039595, 60.468259366119355 ], [ 20.894470981324648, 60.538035100165786 ] ] ], [ [ [ 20.856281474182506, 60.248804458381002 ], [ 20.800474695593213, 60.183682212685127 ], [ 20.687658510515845, 60.197637601713929 ], [ 20.771778223079142, 60.39900620116871 ], [ 20.856281474182506, 60.248804458381002 ] ] ], [ [ [ 20.77462356756881, 60.087853148110298 ], [ 20.721270693931995, 60.022203959142601 ], [ 20.631779318372381, 60.072729744756238 ], [ 20.7065576945465, 60.133632291588228 ], [ 20.77462356756881, 60.087853148110298 ] ] ], [ [ [ 20.628524370458319, 60.070794041733357 ], [ 20.520821217863631, 59.981521850684317 ], [ 20.314716771949307, 60.027078514718148 ], [ 20.476285065248735, 60.133442903447737 ], [ 20.628524370458319, 60.070794041733357 ] ] ], [ [ [ 20.393205698781845, 60.359128382366244 ], [ 20.407649771281648, 60.202033210180936 ], [ 20.331183542565572, 60.225055132360588 ], [ 20.299977138869139, 60.363291480598349 ], [ 20.393205698781845, 60.359128382366244 ] ] ], [ [ [ 20.057397135051897, 60.426651455277764 ], [ 20.245223213935731, 60.263978763692144 ], [ 20.105147331475766, 60.132083019492732 ], [ 20.185815345599185, 60.098495380504446 ], [ 20.260507483989592, 60.161051593645929 ], [ 20.283421735107503, 60.084427127165029 ], [ 20.17973455123979, 59.987721613683512 ], [ 19.951409505422088, 60.026515438568282 ], [ 19.562386552330373, 60.166727405793466 ], [ 19.46500647569572, 60.276471080526193 ], [ 19.585154829813419, 60.337534678491146 ], [ 19.678441899255048, 60.328224571291166 ], [ 19.758235755267361, 60.421242726375979 ], [ 20.057397135051897, 60.426651455277764 ] ] ], [ [ [ 19.380544622544519, 60.238353216567511 ], [ 19.409127231869785, 60.130225911251927 ], [ 19.332958745975887, 60.153415565090796 ], [ 19.277833645027187, 60.235039324756372 ], [ 19.380544622544519, 60.238353216567511 ] ] ] ] } }
]
}
