{
"type": "FeatureCollection",
"name": "FR",
"crs": { "type": "name", "properties": { "name": "urn:ogc:def:crs:OGC:1.3:CRS84" } },
"features": [
{ "type": "Feature", "properties": { "NUTS_ID": "FRK27", "name": "Savoie" }, "geometry": { "type": "Polygon", "coordinates": [ [ [ 5.623743219301621, 45.613268538266567 ], [ 5.761014267028495, 45.738064938899996 ], [ 5.831230183545808, 45.938457337826911 ], [ 6.003851749019555, 45.760235604282293 ], [ 6.251773451476938, 45.690088786910586 ], [ 6.500683849341637, 45.883075252875273 ], [ 6.714910613140298, 45.74244151470873 ], [ 6.802368307845005, 45.778562004915486 ], [ 6.98078642169975, 45.627455526862263 ], [ 7.01188574774983, 45.51196719669624 ], [ 7.104722952318007, 45.468454370064102 ], [ 7.164300076629697, 45.399440462450094 ], [ 7.094370374830631, 45.231261429219209 ], [ 6.630050928584914, 45.109856575043395 ], [ 6.432318587285524, 45.063861575754579 ], [ 6.260570012895009, 45.126843926498523 ], [ 6.14561420636428, 45.215670914554224 ], [ 6.146292220802882, 45.413895765294114 ], [ 5.967011192432454, 45.478826535507352 ], [ 5.809461424480442, 45.436095268656317 ], [ 5.623743219301621, 45.613268538266567 ] ] ] } },
{ "type": "Feature", "properties": { "NUTS_ID": "FRK28", "name": "Haute-Savoie" }, "geometry": { "type": "Polygon", "coordinates": [ [ [ 5.956066776821599, 46.132095503840482 ], [ 6.215235999264411, 46.193952786851483 ], [ 6.260953864526128, 46.243721363439803 ], [ 6.219546988692885, 46.311877919642335 ], [ 6.504427307173385, 46.449805835708531 ], [ 6.821063854843043, 46.427154371898162 ], [ 6.81807307207967, 46.155506907086846 ], [ 7.044886013638479, 45.922413068294127 ], [ 6.802368307845005, 45.778562004915486 ], [ 6.714910613140298, 45.74244151470873 ], [ 6.500683849341637, 45.883075252875273 ], [ 6.251773451476938, 45.690088786910586 ], [ 6.003851749019555, 45.760235604282293 ], [ 5.831230183545808, 45.938457337826911 ], [ 5.826281707813528, 46.077559540555455 ], [ 5.956066776821599, 46.132095503840482 ] ] ] } },
{ "type": "Feature", "properties": { "NUTS_ID": "FRL01", "name": "Alpes-de-Haute-Provence" }, "geometry": { "type": "Polygon", "coordinates": [ [ [ 5.757337496947364, 43.729404547382849 ], [ 5.588580549308745, 43.845160899607315 ], [ 5.498786261206102, 44.115716670691697 ], [ 5.676036113610167, 44.191428403709899 ], [ 5.842019695213976, 44.211605248763789 ], [ 5.851647627495583, 44.277469411470044 ], [ 6.06494754075137, 44.461142669320267 ], [ 6.226265115617661, 44.402010100334849 ], [ 6.369644002027389, 44.492511677331592 ], [ 6.601781124261685, 44.451911247987198 ], [ 6.948443098930043, 44.654741985309045 ], [ 6.887427980240159, 44.361286894180829 ], [ 6.702010559960057, 44.180183524307893 ], [ 6.887409263455618, 43.915481953226866 ], [ 6.74857768737189, 43.886672638263668 ], [ 6.636390323556467, 43.788947173161795 ], [ 6.363076908728407, 43.749073727830215 ], [ 6.198271328722814, 43.783967288946364 ], [ 6.021282899477154, 43.685953934116213 ], [ 5.757337496947364, 43.729404547382849 ] ] ] } },
{ "type": "Feature", "properties": { "NUTS_ID": "FRL02", "name": "Hautes-Alpes " }, "geometry": { "type": "Polygon", "coordinates": [ [ [ 5.676036113610167, 44.191428403709899 ], [ 5.640111325468568, 44.298441586814427 ], [ 5.461440478658636, 44.363288938689429 ], [ 5.453620249449244, 44.454094234456811 ], [ 5.603889289527515, 44.483944356396357 ], [ 5.642339327655924, 44.626466501093425 ], [ 5.80147003718104, 44.706777332962155 ], [ 6.134652003539621, 44.855893323851625 ], [ 6.336628119034775, 44.868953513968364 ], [ 6.338547260177394, 44.963681722920484 ], [ 6.222375391348801, 45.029655979650805 ], [ 6.260570012895009, 45.126843926498523 ], [ 6.432318587285524, 45.063861575754579 ], [ 6.630050928584914, 45.109856575043395 ], [ 6.775591579323692, 44.899675728420917 ], [ 6.988237220465876, 44.835134574191017 ], [ 7.065755124527523, 44.713464399341476 ], [ 6.948443098930043, 44.654741985309045 ], [ 6.601781124261685, 44.451911247987198 ], [ 6.369644002027389, 44.492511677331592 ], [ 6.226265115617661, 44.402010100334849 ], [ 6.06494754075137, 44.461142669320267 ], [ 5.851647627495583, 44.277469411470044 ], [ 5.842019695213976, 44.211605248763789 ], [ 5.676036113610167, 44.191428403709899 ] ] ] } },
{ "type": "Feature", "properties": { "NUTS_ID": "FRL03", "name": "Alpes-Maritimes" }, "geometry": { "type": "Polygon", "coordinates": [ [ [ 6.93132528273324, 43.480257926477528 ], [ 6.636390323556467, 43.788947173161795 ], [ 6.74857768737189, 43.886672638263668 ], [ 6.887409263455618, 43.915481953226866 ], [ 6.702010559960057, 44.180183524307893 ], [ 6.887427980240159, 44.361286894180829 ], [ 7.023372451500818, 44.239177020811809 ], [ 7.31113633430721, 44.138303684663612 ], [ 7.661688243453211, 44.161871975145246 ], [ 7.714236356735006, 44.061513613180551 ], [ 7.523637345190542, 43.891002934585792 ], [ 7.529860025573349, 43.78401301406538 ], [ 7.440561472778985, 43.749876084237535 ], [ 7.439264736400303, 43.749030201002292 ], [ 7.437358159376762, 43.751632332052061 ], [ 7.41338302962186, 43.734577129967654 ], [ 7.412828152422122, 43.731712470852962 ], [ 7.410397473461968, 43.729344991385233 ], [ 7.415697031226476, 43.725910507153856 ], [ 7.187306598602907, 43.658625762494395 ], [ 6.93132528273324, 43.480257926477528 ] ] ] } },
{ "type": "Feature", "properties": { "NUTS_ID": "FRL04", "name": "Bouches-du-Rhône" }, "geometry": { "type": "Polygon", "coordinates": [ [ [ 4.230280408507965, 43.460183482936522 ], [ 4.489871519758945, 43.6828560608879 ], [ 4.620980285527251, 43.70640361009405 ], [ 4.739059704286424, 43.924061825964856 ], [ 5.455304751509353, 43.683230841635869 ], [ 5.607714547050928, 43.6670098276376 ], [ 5.753644636179049, 43.724619520756086 ], [ 5.776535104538797, 43.663626550232038 ], [ 5.700884491628393, 43.601073495124361 ], [ 5.741451825341918, 43.279256832876406 ], [ 5.671879307449549, 43.179269108609304 ], [ 5.368265088041205, 43.220541337992309 ], [ 5.312121038872657, 43.344282542485388 ], [ 5.082476070103866, 43.334767372779936 ], [ 4.911138438589898, 43.420636371864717 ], [ 4.845158952463463, 43.35801037706586 ], [ 4.636381341192729, 43.358322469054876 ], [ 4.526618873392633, 43.441881139410235 ], [ 4.230280408507965, 43.460183482936522 ] ] ] } },
{ "type": "Feature", "properties": { "NUTS_ID": "FRL05", "name": "Var" }, "geometry": { "type": "Polygon", "coordinates": [ [ [ 5.671879307449549, 43.179269108609304 ], [ 5.741451825341918, 43.279256832876406 ], [ 5.700884491628393, 43.601073495124361 ], [ 5.776535104538797, 43.663626550232038 ], [ 5.753644636179049, 43.724619520756086 ], [ 5.757337496947364, 43.729404547382849 ], [ 6.021282899477154, 43.685953934116213 ], [ 6.198271328722814, 43.783967288946364 ], [ 6.363076908728407, 43.749073727830215 ], [ 6.636390323556467, 43.788947173161795 ], [ 6.93132528273324, 43.480257926477528 ], [ 6.744774448547834, 43.396241955519777 ], [ 6.641323140813007, 43.181072319139197 ], [ 6.34521265832333, 43.102921759580667 ], [ 5.919649730428096, 43.109539506616244 ], [ 5.832089816219137, 43.062715632106979 ], [ 5.671879307449549, 43.179269108609304 ] ] ] } },
{ "type": "Feature", "properties": { "NUTS_ID": "FRL06", "name": "Vaucluse" }, "geometry": { "type": "Polygon", "coordinates": [ [ [ 4.649227380891729, 44.270360075615635 ], [ 4.650610830409566, 44.3298028597344 ], [ 4.875358168819497, 44.246038865470368 ], [ 4.896799685561471, 44.361850496752901 ], [ 4.981073321263906, 44.410678407709334 ], [ 5.17017176985325, 44.240399578636904 ], [ 5.498786261206102, 44.115716670691697 ], [ 5.588580549308745, 43.845160899607315 ], [ 5.757337496947364, 43.729404547382849 ], [ 5.753644636179049, 43.724619520756086 ], [ 5.607714547050928, 43.6670098276376 ], [ 5.455304751509353, 43.683230841635869 ], [ 4.739059704286424, 43.924061825964856 ], [ 4.797121755980067, 44.020905595237465 ], [ 4.649227380891729, 44.270360075615635 ] ] ] } },
{ "type": "Feature", "properties": { "NUTS_ID": "FRM01", "name": "Corse-du-Sud" }, "geometry": { "type": "Polygon", "coordinates": [ [ [ 9.402197620613949, 41.858666109174372 ], [ 9.360953620861116, 41.577985074622731 ], [ 9.207267980089251, 41.387366136487145 ], [ 8.838228156576331, 41.534009322549714 ], [ 8.801393342449281, 41.598987170074921 ], [ 8.859455104521965, 41.678186963227624 ], [ 8.722027072831255, 41.748567874312869 ], [ 8.782812267050247, 41.898656558758091 ], [ 8.631274225759023, 41.920107272892885 ], [ 8.678254662518622, 42.004578788461174 ], [ 8.709842522068898, 42.061374221738404 ], [ 8.58491931972646, 42.167203477308036 ], [ 8.66309798441794, 42.268988369149568 ], [ 8.591253980716372, 42.375097833882357 ], [ 9.013374296066605, 42.207994348899163 ], [ 9.211544051132535, 42.004578787812306 ], [ 9.248125546323644, 41.860117638056657 ], [ 9.402197620613949, 41.858666109174372 ] ] ] } },
{ "type": "Feature", "properties": { "NUTS_ID": "FRM02", "name": "Haute-Corse" }, "geometry": { "type": "Polygon", "coordinates": [ [ [ 9.402197620613949, 41.858666109174372 ], [ 9.248125546323644, 41.860117638056657 ], [ 9.211544051132535, 42.004578787812306 ], [ 9.013374296066605, 42.207994348899163 ], [ 8.591253980716372, 42.375097833882357 ], [ 8.689057108427505, 42.525023150674414 ], [ 8.827267988325806, 42.60107768818375 ], [ 9.147126004340572, 42.727503582150867 ], [ 9.305284160243334, 42.701402006232115 ], [ 9.331144862755469, 42.859353074802577 ], [ 9.347162840131455, 42.972402336677824 ], [ 9.407149369546721, 43.001385923473734 ], [ 9.480496998337909, 42.859353074364336 ], [ 9.461182951467892, 42.67477810013763 ], [ 9.524132259983759, 42.544183042313023 ], [ 9.555625496293633, 42.17833179550658 ], [ 9.47223038760119, 42.00457878773625 ], [ 9.402197620613949, 41.858666109174372 ] ] ] } },
{ "type": "Feature", "properties": { "NUTS_ID": "FRY10", "name": "Guadeloupe" }, "geometry": { "type": "MultiPolygon", "coordinates": [ [ [ [ -63.01924550376269, 18.055797053053535 ], [ -63.088293005858127, 18.046249031246646 ], [ -63.100296889663149, 18.072163387209311 ], [ -63.052155774035299, 18.09952999633617 ], [ -63.01924550376269, 18.055797053053535 ] ] ], [ [ [ -61.466074653005144, 16.50608602463252 ], [ -61.24917947897687, 16.277251416938366 ], [ -61.565472699308565, 16.215981981615492 ], [ -61.573128874281913, 16.031128007449894 ], [ -61.690511021392894, 15.946400150610767 ], [ -61.77361226017355, 16.047347102962739 ], [ -61.822382674227249, 16.273708393454616 ], [ -61.740901741130983, 16.350301949881363 ], [ -61.545035227176527, 16.313257431735209 ], [ -61.466074653005144, 16.50608602463252 ] ] ], [ [ [ -61.191432235515762, 15.918143246805636 ], [ -61.277914332082744, 15.8686872883014 ], [ -61.357957222991374, 15.934446971222137 ], [ -61.268272619073258, 15.998670358157911 ], [ -61.191432235515762, 15.918143246805636 ] ] ] ] } },
{ "type": "Feature", "properties": { "NUTS_ID": "FRY20", "name": "Martinique " }, "geometry": { "type": "Polygon", "coordinates": [ [ [ -61.255277093920697, 14.763146751046108 ], [ -60.921996548063227, 14.731966555268974 ], [ -60.805904520984662, 14.472184798209451 ], [ -61.064687709539413, 14.4979080433123 ], [ -61.255277093920697, 14.763146751046108 ] ] ] } },
{ "type": "Feature", "properties": { "NUTS_ID": "FRY30", "name": "Guyane" }, "geometry": { "type": "Polygon", "coordinates": [ [ [ -51.624285639040082, 4.200962315746438 ], [ -51.662050052816731, 4.065421501147684 ], [ -52.315893125392513, 3.17693204246897 ], [ -52.571923074839937, 2.520452072198195 ], [ -52.903545662340093, 2.213664230714962 ], [ -53.158718508623309, 2.210708766721683 ], [ -53.323058308174396, 2.307308055393241 ], [ -53.537317635564698, 2.267020690473454 ], [ -53.782473526004161, 2.341431027331148 ], [ -54.160510028950853, 2.139084726759136 ], [ -54.434720701007365, 2.216515651249733 ], [ -54.600285869026905, 2.337452207033671 ], [ -54.392441870008859, 2.484558052874725 ], [ -54.23934782808616, 2.740029076338271 ], [ -54.176330858727809, 3.173956147411949 ], [ -54.007752417769055, 3.505518783664133 ], [ -54.336655001561944, 4.030603258488462 ], [ -54.441372126982998, 4.414555700623041 ], [ -54.4703088487448, 4.885697723544647 ], [ -54.299212789048447, 5.234903606543519 ], [ -54.054107769913159, 5.493979732611376 ], [ -54.024883424827586, 5.62798733914993 ], [ -53.967745133476711, 5.745115674595046 ], [ -52.92271434616395, 5.428315178645883 ], [ -52.39059081508001, 4.951808444703213 ], [ -51.827425780702846, 4.636077865764706 ], [ -51.624285639040082, 4.200962315746438 ] ] ] } },
{ "type": "Feature", "properties": { "NUTS_ID": "FRY40", "name": "La Réunion" }, "geometry": { "type": "Polygon", "coordinates": [ [ [ 55.206261313045736, -21.035542625321071 ], [ 55.292417154382612, -20.932120992258699 ], [ 55.418689835613272, -20.879667913889953 ], [ 55.630076390945156, -20.909048334831809 ], [ 55.825616076605407, -21.167475348881922 ], [ 55.808066311401909, -21.321268895098704 ], [ 55.642568773283273, -21.38954108851739 ], [ 55.407029724895189, -21.322653557860907 ], [ 55.29627343378349, -21.231952171391775 ], [ 55.206261313045736, -21.035542625321071 ] ] ] } },
{ "type": "Feature", "properties": { "NUTS_ID": "FRY50", "name": "Mayotte " }, "geometry": { "type": "Polygon", "coordinates": [ [ [ 45.045713587281654, -12.725166615339205 ], [ 45.102467418061948, -12.677029560813985 ], [ 45.228006675805595, -12.771224838841881 ], [ 45.209446203022878, -12.901202128998847 ], [ 45.128703544336936, -12.964074598285341 ], [ 45.045713587281654, -12.725166615339205 ] ] ] } },
{ "type": "Feature", "properties": { "NUTS_ID": "FR101", "name": "Paris" }, "geometry": { "type": "Polygon", "coordinates": [ [ [ 2.416340827365981, 48.849234127187792 ], [ 2.331897963408908, 48.817010840461649 ], [ 2.269008053358931, 48.854549369965852 ], [ 2.319886924948937, 48.900460020860329 ], [ 2.416340827365981, 48.849234127187792 ] ] ] } },
{ "type": "Feature", "properties": { "NUTS_ID": "FR102", "name": "Seine-et-Marne " }, "geometry": { "type": "Polygon", "coordinates": [ [ [ 3.485183451168698, 48.851910605404051 ], [ 3.437054303618963, 48.796599492224914 ], [ 3.414787333125064, 48.771009783936044 ], [ 3.437054304222928, 48.720863099162671 ], [ 3.472139224780022, 48.641849545587043 ], [ 3.555614018190069, 48.620285586493019 ], [ 3.437054304147566, 48.512380152702065 ], [ 3.405229767660813, 48.48341550410067 ], [ 3.413771349658702, 48.380144093650976 ], [ 3.072599301478393, 48.344613813074744 ], [ 3.016326593976367, 48.269785351021895 ], [ 2.936316079011713, 48.163391612576255 ], [ 2.554314904202413, 48.145084496715285 ], [ 2.402663154618333, 48.320717603137815 ], [ 2.477371495950361, 48.380144093367313 ], [ 2.571653263738316, 48.692017101780245 ], [ 2.592273655141059, 48.807437339242504 ], [ 2.553056605560172, 49.009816019230961 ], [ 2.590528609767333, 49.079654052910413 ], [ 3.016326593527833, 49.113179520278585 ], [ 3.071880149511117, 49.117553563714331 ], [ 3.437054304043043, 48.882844713295093 ], [ 3.485183451168698, 48.851910605404051 ] ] ] } },
{ "type": "Feature", "properties": { "NUTS_ID": "FR103", "name": "Yvelines " }, "geometry": { "type": "Polygon", "coordinates": [ [ [ 1.608798857129733, 49.077894018236194 ], [ 2.074387134904315, 49.011975449786533 ], [ 2.200591122425075, 48.90867940862411 ], [ 2.159482853659604, 48.839712396200554 ], [ 2.226554024889317, 48.776101838979841 ], [ 2.065034541400296, 48.683618474114439 ], [ 1.922146680771825, 48.457599432262178 ], [ 1.822024677456936, 48.473798773223074 ], [ 1.617725726275432, 48.668530758306481 ], [ 1.50152657839184, 48.941052026438626 ], [ 1.483477147481767, 49.030078283680993 ], [ 1.608798857129733, 49.077894018236194 ] ] ] } },
{ "type": "Feature", "properties": { "NUTS_ID": "FR104", "name": "Essonne" }, "geometry": { "type": "Polygon", "coordinates": [ [ [ 2.226554024889317, 48.776101838979841 ], [ 2.320720490174662, 48.748757945908125 ], [ 2.571653263738316, 48.692017101780245 ], [ 2.477371495950361, 48.380144093367313 ], [ 2.402663154618333, 48.320717603137815 ], [ 1.994090052638556, 48.286584089580742 ], [ 1.968769000164004, 48.380144093841899 ], [ 1.922146680771825, 48.457599432262178 ], [ 2.065034541400296, 48.683618474114439 ], [ 2.226554024889317, 48.776101838979841 ] ] ] } },
{ "type": "Feature", "properties": { "NUTS_ID": "FR105", "name": "Hauts-de-Seine " }, "geometry": { "type": "Polygon", "coordinates": [ [ [ 2.290969333208662, 48.950966022912162 ], [ 2.319886924948937, 48.900460020860329 ], [ 2.269008053358931, 48.854549369965852 ], [ 2.331897963408908, 48.817010840461649 ], [ 2.320720490174662, 48.748757945908125 ], [ 2.226554024889317, 48.776101838979841 ], [ 2.159482853659604, 48.839712396200554 ], [ 2.200591122425075, 48.90867940862411 ], [ 2.290969333208662, 48.950966022912162 ] ] ] } },
{ "type": "Feature", "properties": { "NUTS_ID": "FR106", "name": "Seine-Saint-Denis " }, "geometry": { "type": "Polygon", "coordinates": [ [ [ 2.553056605560172, 49.009816019230961 ], [ 2.592273655141059, 48.807437339242504 ], [ 2.416340827365981, 48.849234127187792 ], [ 2.319886924948937, 48.900460020860329 ], [ 2.290969333208662, 48.950966022912162 ], [ 2.553056605560172, 49.009816019230961 ] ] ] } },
{ "type": "Feature", "properties": { "NUTS_ID": "FR107", "name": "Val-de-Marne" }, "geometry": { "type": "Polygon", "coordinates": [ [ [ 2.571653263738316, 48.692017101780245 ], [ 2.320720490174662, 48.748757945908125 ], [ 2.331897963408908, 48.817010840461649 ], [ 2.416340827365981, 48.849234127187792 ], [ 2.592273655141059, 48.807437339242504 ], [ 2.571653263738316, 48.692017101780245 ] ] ] } },
{ "type": "Feature", "properties": { "NUTS_ID": "FR108", "name": "Val-d’Oise" }, "geometry": { "type": "Polygon", "coordinates": [ [ [ 1.704358760363013, 49.232197142503146 ], [ 1.788165930630148, 49.178114912765984 ], [ 2.1159630876176, 49.198932308351822 ], [ 2.590528609767333, 49.079654052910413 ], [ 2.553056605560172, 49.009816019230961 ], [ 2.290969333208662, 48.950966022912162 ], [ 2.200591122425075, 48.90867940862411 ], [ 2.074387134904315, 49.011975449786533 ], [ 1.608798857129733, 49.077894018236194 ], [ 1.704358760363013, 49.232197142503146 ] ] ] } },
{ "type": "Feature", "properties": { "NUTS_ID": "FRB01", "name": "Cher" }, "geometry": { "type": "Polygon", "coordinates": [ [ [ 2.87463071155784, 47.520424987924081 ], [ 2.892469423825633, 47.335735827974894 ], [ 2.985464816728859, 47.24047604918939 ], [ 3.016326594499786, 47.153613760165896 ], [ 3.067690353208268, 47.009047436006455 ], [ 3.032062772613794, 46.794909397701318 ], [ 2.695842931677857, 46.712854637854441 ], [ 2.5666932595028, 46.551402630731609 ], [ 2.281043456974719, 46.420403510186894 ], [ 2.167784388854525, 46.424069095014609 ], [ 2.175753859720851, 46.643002790676164 ], [ 2.102807367030034, 46.731321874962156 ], [ 2.087584865609427, 46.99825990982557 ], [ 1.99092059954108, 47.108969509953816 ], [ 1.834773398498437, 47.124614851455739 ], [ 1.839080275366821, 47.219303350735643 ], [ 2.130947661231034, 47.302697443828961 ], [ 2.11817620551991, 47.399912683557709 ], [ 2.240499410748896, 47.451671081106134 ], [ 2.146205809710675, 47.581944585539354 ], [ 2.239213337042004, 47.620975512207231 ], [ 2.656849157994501, 47.506571757400224 ], [ 2.87463071155784, 47.520424987924081 ] ] ] } },
{ "type": "Feature", "properties": { "NUTS_ID": "FRB02", "name": "Eure-et-Loir" }, "geometry": { "type": "Polygon", "coordinates": [ [ [ 1.50152657839184, 48.941052026438626 ], [ 1.617725726275432, 48.668530758306481 ], [ 1.822024677456936, 48.473798773223074 ], [ 1.922146680771825, 48.457599432262178 ], [ 1.968769000164004, 48.380144093841899 ], [ 1.994090052638556, 48.286584089580742 ], [ 1.867203167548527, 48.097675810078634 ], [ 1.628798944355075, 48.059421859221551 ], [ 1.520124236482613, 47.982275065116923 ], [ 1.24778607869337, 47.966503439979746 ], [ 1.033562637686261, 48.119603560932035 ], [ 0.841217601574524, 48.103059463048268 ], [ 0.797658420022996, 48.194454993216532 ], [ 0.782262576564093, 48.322007601681605 ], [ 0.918809562142113, 48.38014409324915 ], [ 0.947842939733604, 48.520969881825359 ], [ 0.814824680491047, 48.670163563783092 ], [ 1.139417074936685, 48.775341620227138 ], [ 1.30605741229226, 48.766661969780742 ], [ 1.50152657839184, 48.941052026438626 ] ] ] } },
{ "type": "Feature", "properties": { "NUTS_ID": "FRB03", "name": "Indre" }, "geometry": { "type": "Polygon", "coordinates": [ [ [ 1.839080275366821, 47.219303350735643 ], [ 1.834773398498437, 47.124614851455739 ], [ 1.99092059954108, 47.108969509953816 ], [ 2.087584865609427, 46.99825990982557 ], [ 2.102807367030034, 46.731321874962156 ], [ 2.175753859720851, 46.643002790676164 ], [ 2.167784388854525, 46.424069095014609 ], [ 1.79627952655476, 46.436777488122985 ], [ 1.41518534446386, 46.347214842538619 ], [ 1.17727897149745, 46.383948054861541 ], [ 1.135575033284977, 46.493933925288012 ], [ 0.934978900624393, 46.595464452709656 ], [ 0.86746918105363, 46.748216361806136 ], [ 0.974371959626723, 46.763742488287136 ], [ 1.074413386099858, 46.996799754167654 ], [ 1.266670963373424, 47.047780055663971 ], [ 1.342963080161044, 47.128458882029122 ], [ 1.326659056513004, 47.186221427054228 ], [ 1.69594984458272, 47.265370214714338 ], [ 1.839080275366821, 47.219303350735643 ] ] ] } },
{ "type": "Feature", "properties": { "NUTS_ID": "FRB04", "name": "Indre-et-Loire" }, "geometry": { "type": "Polygon", "coordinates": [ [ [ 0.230000606928654, 47.608397513856133 ], [ 0.364722940632782, 47.583868408140965 ], [ 0.61443226618817, 47.694215442361482 ], [ 0.670759355460489, 47.681136465033433 ], [ 1.03194398304304, 47.59727051008619 ], [ 1.122998798127866, 47.310984431395568 ], [ 1.326659056513004, 47.186221427054228 ], [ 1.342963080161044, 47.128458882029122 ], [ 1.266670963373424, 47.047780055663971 ], [ 1.074413386099858, 46.996799754167654 ], [ 0.974371959626723, 46.763742488287136 ], [ 0.86746918105363, 46.748216361806136 ], [ 0.670759355908048, 46.967857182781835 ], [ 0.368790303071621, 46.947608883926939 ], [ 0.053830045138374, 47.163733603209458 ], [ 0.216369000234673, 47.573990609337407 ], [ 0.230000606928654, 47.608397513856133 ] ] ] } },
{ "type": "Feature", "properties": { "NUTS_ID": "FRB05", "name": "Loir-et-Cher" }, "geometry": { "type": "Polygon", "coordinates": [ [ [ 1.520124236482613, 47.982275065116923 ], [ 1.57028790258676, 47.89414420724593 ], [ 1.550398874619377, 47.787387128980257 ], [ 1.752728609708521, 47.674091467856087 ], [ 2.162396741597092, 47.6765764553857 ], [ 2.239213337042004, 47.620975512207231 ], [ 2.146205809710675, 47.581944585539354 ], [ 2.240499410748896, 47.451671081106134 ], [ 2.11817620551991, 47.399912683557709 ], [ 2.130947661231034, 47.302697443828961 ], [ 1.839080275366821, 47.219303350735643 ], [ 1.69594984458272, 47.265370214714338 ], [ 1.326659056513004, 47.186221427054228 ], [ 1.122998798127866, 47.310984431395568 ], [ 1.03194398304304, 47.59727051008619 ], [ 0.670759355460489, 47.681136465033433 ], [ 0.61443226618817, 47.694215442361482 ], [ 0.670759356193347, 47.76044893135191 ], [ 0.834612300475985, 47.953119138740909 ], [ 0.841217601574524, 48.103059463048268 ], [ 1.033562637686261, 48.119603560932035 ], [ 1.24778607869337, 47.966503439979746 ], [ 1.520124236482613, 47.982275065116923 ] ] ] } },
{ "type": "Feature", "properties": { "NUTS_ID": "FRB06", "name": "Loiret" }, "geometry": { "type": "Polygon", "coordinates": [ [ [ 1.994090052638556, 48.286584089580742 ], [ 2.402663154618333, 48.320717603137815 ], [ 2.554314904202413, 48.145084496715285 ], [ 2.936316079011713, 48.163391612576255 ], [ 3.016326594081203, 48.093258916970434 ], [ 3.118794896336462, 48.003440995915128 ], [ 3.016326594432452, 47.81380923922211 ], [ 2.886015954518526, 47.737194982437686 ], [ 2.976535504194041, 47.569424533800522 ], [ 2.87463071155784, 47.520424987924081 ], [ 2.656849157994501, 47.506571757400224 ], [ 2.239213337042004, 47.620975512207231 ], [ 2.162396741597092, 47.6765764553857 ], [ 1.752728609708521, 47.674091467856087 ], [ 1.550398874619377, 47.787387128980257 ], [ 1.57028790258676, 47.89414420724593 ], [ 1.520124236482613, 47.982275065116923 ], [ 1.628798944355075, 48.059421859221551 ], [ 1.867203167548527, 48.097675810078634 ], [ 1.994090052638556, 48.286584089580742 ] ] ] } },
{ "type": "Feature", "properties": { "NUTS_ID": "FRC11", "name": "Côte-d’Or" }, "geometry": { "type": "Polygon", "coordinates": [ [ [ 5.374080022138921, 47.604537890324671 ], [ 5.476531847205672, 47.587306763271236 ], [ 5.426191933586074, 47.445652730380651 ], [ 5.518537624344495, 47.304184027186558 ], [ 5.255232717418274, 46.979887587348927 ], [ 4.68626366259129, 46.927940379049538 ], [ 4.209831321735379, 47.155411054874143 ], [ 4.106080596897693, 47.339254891079612 ], [ 4.127294702837269, 47.506241542469766 ], [ 4.322538708264703, 47.77480614821426 ], [ 4.293421639850734, 47.925673546293417 ], [ 4.704233235431174, 48.020234869506361 ], [ 4.949108440010872, 47.868226246097962 ], [ 4.975789032352008, 47.711513406914207 ], [ 5.265602302538311, 47.590438004178807 ], [ 5.374080022138921, 47.604537890324671 ] ] ] } },
{ "type": "Feature", "properties": { "NUTS_ID": "FRC12", "name": "Nièvre" }, "geometry": { "type": "Polygon", "coordinates": [ [ [ 2.976535504194041, 47.569424533800522 ], [ 3.016326593471018, 47.560072179740104 ], [ 3.313646908692363, 47.49019108448158 ], [ 3.437054304221411, 47.500226711823984 ], [ 3.522881715801862, 47.507206295523709 ], [ 3.767670066269221, 47.394058931780869 ], [ 4.106080596897693, 47.339254891079612 ], [ 4.209831321735379, 47.155411054874143 ], [ 4.076014254787924, 47.053103580141673 ], [ 4.018315938328344, 46.788801738185185 ], [ 3.829402706351066, 46.723356361098631 ], [ 3.62942229842545, 46.74945655071263 ], [ 3.48847800949148, 46.673029008321556 ], [ 3.437054303465417, 46.676465184983904 ], [ 3.194042104549965, 46.692703475305152 ], [ 3.032062772613794, 46.794909397701318 ], [ 3.067690353208268, 47.009047436006455 ], [ 3.016326594499786, 47.153613760165896 ], [ 2.985464816728859, 47.24047604918939 ], [ 2.892469423825633, 47.335735827974894 ], [ 2.87463071155784, 47.520424987924081 ], [ 2.976535504194041, 47.569424533800522 ] ] ] } },
{ "type": "Feature", "properties": { "NUTS_ID": "FRC13", "name": "Saône-et-Loire" }, "geometry": { "type": "Polygon", "coordinates": [ [ [ 4.209831321735379, 47.155411054874143 ], [ 4.68626366259129, 46.927940379049538 ], [ 5.255232717418274, 46.979887587348927 ], [ 5.396410501038951, 46.870068832577822 ], [ 5.370735953855378, 46.779843214607624 ], [ 5.422249146508116, 46.658625903542685 ], [ 5.392087112622176, 46.478655203879867 ], [ 5.31056370658737, 46.446770124796799 ], [ 5.152054810514268, 46.505334391497158 ], [ 4.945505253628488, 46.498015431286859 ], [ 4.780208587182289, 46.176675944376228 ], [ 4.662998302103324, 46.287638615584584 ], [ 4.442377176043695, 46.292460147904528 ], [ 4.388074561483397, 46.219790366883757 ], [ 4.300052027577391, 46.174252607749047 ], [ 3.987284739649499, 46.179439744793903 ], [ 3.899538573562416, 46.275907844916915 ], [ 3.980753239819037, 46.331675951378742 ], [ 3.985825651075707, 46.4487361709825 ], [ 3.75950874525058, 46.5418855398106 ], [ 3.62942229842545, 46.74945655071263 ], [ 3.829402706351066, 46.723356361098631 ], [ 4.018315938328344, 46.788801738185185 ], [ 4.076014254787924, 47.053103580141673 ], [ 4.209831321735379, 47.155411054874143 ] ] ] } },
{ "type": "Feature", "properties": { "NUTS_ID": "FRC14", "name": "Yonne" }, "geometry": { "type": "Polygon", "coordinates": [ [ [ 3.413771349658702, 48.380144093650976 ], [ 3.437054303800731, 48.369514751126466 ], [ 3.570322557122213, 48.308673936024988 ], [ 3.640687301753684, 48.174419991786081 ], [ 3.751466217574285, 48.14412128296776 ], [ 3.915492702340266, 47.940980988710592 ], [ 4.293421639850734, 47.925673546293417 ], [ 4.322538708264703, 47.77480614821426 ], [ 4.127294702837269, 47.506241542469766 ], [ 4.106080596897693, 47.339254891079612 ], [ 3.767670066269221, 47.394058931780869 ], [ 3.522881715801862, 47.507206295523709 ], [ 3.437054304221411, 47.500226711823984 ], [ 3.313646908692363, 47.49019108448158 ], [ 3.016326593471018, 47.560072179740104 ], [ 2.976535504194041, 47.569424533800522 ], [ 2.886015954518526, 47.737194982437686 ], [ 3.016326594432452, 47.81380923922211 ], [ 3.118794896336462, 48.003440995915128 ], [ 3.016326594081203, 48.093258916970434 ], [ 2.936316079011713, 48.163391612576255 ], [ 3.016326593976367, 48.269785351021895 ], [ 3.072599301478393, 48.344613813074744 ], [ 3.413771349658702, 48.380144093650976 ] ] ] } },
{ "type": "Feature", "properties": { "NUTS_ID": "FRC21", "name": "Doubs" }, "geometry": { "type": "Polygon", "coordinates": [ [ [ 6.806998617356355, 47.562799947997085 ], [ 6.900757772692064, 47.525906191153872 ], [ 6.939185973117248, 47.43370440354736 ], [ 6.937906823371682, 47.375441397603389 ], [ 7.023687589630391, 47.331801895815282 ], [ 6.858913935720634, 47.16529459384396 ], [ 6.463757194756843, 46.933990451994241 ], [ 6.460010995009191, 46.851551541605929 ], [ 6.417484737137087, 46.758608126550492 ], [ 6.138105761744775, 46.557666996075753 ], [ 6.070745608789698, 46.635538348982195 ], [ 6.156690114293216, 46.789676454386665 ], [ 5.805795671656229, 47.035106728937116 ], [ 5.797910344421524, 47.157120817878273 ], [ 5.69872718328184, 47.265000576727275 ], [ 6.06858774461325, 47.351372654535879 ], [ 6.364881691207827, 47.508120457095288 ], [ 6.806998617356355, 47.562799947997085 ] ] ] } },
{ "type": "Feature", "properties": { "NUTS_ID": "FRC22", "name": "Jura" }, "geometry": { "type": "Polygon", "coordinates": [ [ [ 5.69872718328184, 47.265000576727275 ], [ 5.797910344421524, 47.157120817878273 ], [ 5.805795671656229, 47.035106728937116 ], [ 6.156690114293216, 46.789676454386665 ], [ 6.070745608789698, 46.635538348982195 ], [ 6.138105761744775, 46.557666996075753 ], [ 6.064002809851224, 46.416229118848761 ], [ 5.901988397117099, 46.285726117189803 ], [ 5.77703531341322, 46.262525045775661 ], [ 5.649332763790392, 46.317601355023889 ], [ 5.461086513125887, 46.283820235534357 ], [ 5.31056370658737, 46.446770124796799 ], [ 5.392087112622176, 46.478655203879867 ], [ 5.422249146508116, 46.658625903542685 ], [ 5.370735953855378, 46.779843214607624 ], [ 5.396410501038951, 46.870068832577822 ], [ 5.255232717418274, 46.979887587348927 ], [ 5.518537624344495, 47.304184027186558 ], [ 5.69872718328184, 47.265000576727275 ] ] ] } },
{ "type": "Feature", "properties": { "NUTS_ID": "FRC23", "name": "Haute-Saône" }, "geometry": { "type": "Polygon", "coordinates": [ [ [ 5.884723732249554, 47.926046368960911 ], [ 6.115305007091625, 48.01097743662968 ], [ 6.218854893244609, 47.942507718734142 ], [ 6.608636119345626, 47.92681727819371 ], [ 6.823533586553346, 47.813050869482481 ], [ 6.769327293217843, 47.731153131132388 ], [ 6.806998617356355, 47.562799947997085 ], [ 6.364881691207827, 47.508120457095288 ], [ 6.06858774461325, 47.351372654535879 ], [ 5.69872718328184, 47.265000576727275 ], [ 5.518537624344495, 47.304184027186558 ], [ 5.426191933586074, 47.445652730380651 ], [ 5.476531847205672, 47.587306763271236 ], [ 5.374080022138921, 47.604537890324671 ], [ 5.429845544387492, 47.667293786295559 ], [ 5.669026167571316, 47.68979408247219 ], [ 5.717822491471884, 47.825837724066645 ], [ 5.884723732249554, 47.926046368960911 ] ] ] } },
{ "type": "Feature", "properties": { "NUTS_ID": "FRC24", "name": "Territoire de Belfort" }, "geometry": { "type": "Polygon", "coordinates": [ [ [ 6.846175711874817, 47.822942550566502 ], [ 7.017809687863905, 47.721226609329143 ], [ 7.130353228511457, 47.503040429008792 ], [ 6.939185973117248, 47.43370440354736 ], [ 6.900757772692064, 47.525906191153872 ], [ 6.806998617356355, 47.562799947997085 ], [ 6.769327293217843, 47.731153131132388 ], [ 6.823533586553346, 47.813050869482481 ], [ 6.846175711874817, 47.822942550566502 ] ] ] } },
{ "type": "Feature", "properties": { "NUTS_ID": "FRD11", "name": "Calvados " }, "geometry": { "type": "Polygon", "coordinates": [ [ [ 0.297221270981504, 49.429903423168618 ], [ 0.399193455654367, 49.164054429697075 ], [ 0.412810727367991, 48.950626556228862 ], [ 0.216368999432187, 48.939881962525128 ], [ 0.113799331952767, 48.934271803616035 ], [ -0.120129521560297, 48.82774150093995 ], [ -0.496846139479241, 48.846629911245522 ], [ -0.796602164459358, 48.770436412459944 ], [ -0.832870683454174, 48.752607423190952 ], [ -1.061907217434445, 48.822195834050227 ], [ -0.893729886428915, 49.075520167984045 ], [ -1.119587380122807, 49.322266925492094 ], [ -1.079183152670536, 49.350205827528818 ], [ -1.018435063050158, 49.392212198286153 ], [ -0.932798724479847, 49.377689583657506 ], [ -0.796602164259589, 49.354592726500037 ], [ -0.20802191618361, 49.285733154570913 ], [ 0.216369000172616, 49.406832367042881 ], [ 0.297221270981504, 49.429903423168618 ] ] ] } },
{ "type": "Feature", "properties": { "NUTS_ID": "FRD12", "name": "Manche " }, "geometry": { "type": "Polygon", "coordinates": [ [ [ -1.119587380122807, 49.322266925492094 ], [ -0.893729886428915, 49.075520167984045 ], [ -1.061907217434445, 48.822195834050227 ], [ -0.832870683454174, 48.752607423190952 ], [ -0.754925218164799, 48.639105467641848 ], [ -0.860359901617399, 48.501458622669432 ], [ -0.932798724746045, 48.503887040232151 ], [ -1.070164269778161, 48.508492043354494 ], [ -1.424557094889358, 48.487791487471107 ], [ -1.571099825497722, 48.626500967598709 ], [ -1.512295638393846, 48.61739583862267 ], [ -1.474623578459898, 48.64247370097651 ], [ -1.592533082001549, 48.814775726688701 ], [ -1.562913117095908, 48.981491696171858 ], [ -1.614406544918901, 49.194849457399968 ], [ -1.830896706642238, 49.459395742467144 ], [ -1.925254270344486, 49.709914747502616 ], [ -1.612693154048296, 49.653164615879554 ], [ -1.324800912519879, 49.687417206883069 ], [ -1.247385804121674, 49.633162846865588 ], [ -1.284473020358286, 49.530739237735801 ], [ -1.227659901965909, 49.45939574249617 ], [ -1.119587380122807, 49.322266925492094 ] ] ] } },
{ "type": "Feature", "properties": { "NUTS_ID": "FRD13", "name": "Orne" }, "geometry": { "type": "Polygon", "coordinates": [ [ [ 0.814824680491047, 48.670163563783092 ], [ 0.947842939733604, 48.520969881825359 ], [ 0.918809562142113, 48.38014409324915 ], [ 0.782262576564093, 48.322007601681605 ], [ 0.797658420022996, 48.194454993216532 ], [ 0.670759355579425, 48.228148470809785 ], [ 0.539938275473494, 48.26288329716791 ], [ 0.379078674775304, 48.380144093129879 ], [ 0.354870015264725, 48.444128497667407 ], [ 0.271786164414721, 48.478927357798 ], [ 0.216368999455119, 48.453262056975227 ], [ -0.053213962148809, 48.380144093000553 ], [ -0.218344820741962, 48.538602549346393 ], [ -0.761319750469693, 48.470872923039643 ], [ -0.860359901617399, 48.501458622669432 ], [ -0.754925218164799, 48.639105467641848 ], [ -0.832870683454174, 48.752607423190952 ], [ -0.796602164459358, 48.770436412459944 ], [ -0.496846139479241, 48.846629911245522 ], [ -0.120129521560297, 48.82774150093995 ], [ 0.113799331952767, 48.934271803616035 ], [ 0.216368999432187, 48.939881962525128 ], [ 0.412810727367991, 48.950626556228862 ], [ 0.424856568217311, 48.902283513478814 ], [ 0.670759356678504, 48.803013167290295 ], [ 0.724774688965103, 48.781207312591555 ], [ 0.814824680491047, 48.670163563783092 ] ] ] } },
{ "type": "Feature", "properties": { "NUTS_ID": "FRD21", "name": "Eure" }, "geometry": { "type": "Polygon", "coordinates": [ [ [ 0.62099589232974, 49.431276013653076 ], [ 0.670759355774402, 49.421061075392359 ], [ 0.905525837631647, 49.372870599977766 ], [ 1.02360592430498, 49.262884662100483 ], [ 1.380214475885725, 49.447338410985232 ], [ 1.713930533540033, 49.409224950913362 ], [ 1.756594744093232, 49.300374396500644 ], [ 1.704358760363013, 49.232197142503146 ], [ 1.608798857129733, 49.077894018236194 ], [ 1.483477147481767, 49.030078283680993 ], [ 1.50152657839184, 48.941052026438626 ], [ 1.30605741229226, 48.766661969780742 ], [ 1.139417074936685, 48.775341620227138 ], [ 0.814824680491047, 48.670163563783092 ], [ 0.724774688965103, 48.781207312591555 ], [ 0.670759356678504, 48.803013167290295 ], [ 0.424856568217311, 48.902283513478814 ], [ 0.412810727367991, 48.950626556228862 ], [ 0.399193455654367, 49.164054429697075 ], [ 0.297221270981504, 49.429903423168618 ], [ 0.40127329229355, 49.44595798685468 ], [ 0.500980471411772, 49.478106670424417 ], [ 0.583452203826553, 49.43380962548116 ], [ 0.62099589232974, 49.431276013653076 ] ] ] } },
{ "type": "Feature", "properties": { "NUTS_ID": "FRD22", "name": "Seine-Maritime" }, "geometry": { "type": "Polygon", "coordinates": [ [ [ 1.379640261684281, 50.06512050671364 ], [ 1.693373855504661, 49.892247395213126 ], [ 1.783834190783268, 49.75830955760636 ], [ 1.707457335610449, 49.698807904676578 ], [ 1.713930533540033, 49.409224950913362 ], [ 1.380214475885725, 49.447338410985232 ], [ 1.02360592430498, 49.262884662100483 ], [ 0.905525837631647, 49.372870599977766 ], [ 0.670759355774402, 49.421061075392359 ], [ 0.62099589232974, 49.431276013653076 ], [ 0.581312997511764, 49.438105576598616 ], [ 0.506057858227535, 49.485968888846216 ], [ 0.385110237223885, 49.452570347191411 ], [ 0.216368999930184, 49.451092104424127 ], [ 0.122182035983922, 49.471191543511125 ], [ 0.076592943294412, 49.521738956352664 ], [ 0.216369000550784, 49.715744349226412 ], [ 0.586943438416493, 49.849126295663289 ], [ 0.670759355932093, 49.863487638777528 ], [ 1.081627265293178, 49.93388733202675 ], [ 1.379640261684281, 50.06512050671364 ] ] ] } },
{ "type": "Feature", "properties": { "NUTS_ID": "FRE11", "name": "Nord" }, "geometry": { "type": "Polygon", "coordinates": [ [ [ 2.546088192167626, 51.089388267936542 ], [ 2.60703610939938, 50.912689383504848 ], [ 2.64798639653573, 50.825013780801065 ], [ 2.864349130717774, 50.707492940221599 ], [ 3.016326594667387, 50.774482871766935 ], [ 3.098480837603599, 50.779019139741735 ], [ 3.176995843331754, 50.75616460786275 ], [ 3.313043488517601, 50.521176149041892 ], [ 3.437054303355217, 50.508539645662616 ], [ 3.615081370699013, 50.490398972127224 ], [ 3.655510061736411, 50.461735482091576 ], [ 3.704656679268842, 50.326479724734583 ], [ 4.027774357626013, 50.35833050868569 ], [ 4.042493861642884, 50.339832374698652 ], [ 4.193851476243881, 50.250116367027829 ], [ 4.15746947372822, 50.169862420530229 ], [ 4.206494055846622, 50.075926067595027 ], [ 4.140853127347617, 49.978760149708634 ], [ 3.740718043126493, 50.059858162603298 ], [ 3.43705430392989, 50.033893253600276 ], [ 3.172961365469795, 50.011311863981696 ], [ 3.090252059175755, 50.053740519495058 ], [ 3.065959414563164, 50.1503049300388 ], [ 3.140284727973305, 50.232812650971532 ], [ 3.01632659427893, 50.379361634678126 ], [ 2.991675631097259, 50.474671097290461 ], [ 2.836642187618274, 50.542332557972294 ], [ 2.790425122339579, 50.637499552694997 ], [ 2.435930841955424, 50.672942545002414 ], [ 2.067728710642824, 51.006630452946105 ], [ 2.546088192167626, 51.089388267936542 ] ] ] } },
{ "type": "Feature", "properties": { "NUTS_ID": "FRE12", "name": "Pas-de-Calais" }, "geometry": { "type": "Polygon", "coordinates": [ [ [ 2.067728710642824, 51.006630452946105 ], [ 2.435930841955424, 50.672942545002414 ], [ 2.790425122339579, 50.637499552694997 ], [ 2.836642187618274, 50.542332557972294 ], [ 2.991675631097259, 50.474671097290461 ], [ 3.01632659427893, 50.379361634678126 ], [ 3.140284727973305, 50.232812650971532 ], [ 3.065959414563164, 50.1503049300388 ], [ 3.090252059175755, 50.053740519495058 ], [ 3.016326594705299, 50.050711475533326 ], [ 2.902086515156944, 50.046030567951995 ], [ 2.738367831514287, 50.116665710990617 ], [ 2.416796579375719, 50.102123818051034 ], [ 2.439757369795115, 50.216241684326427 ], [ 2.119178671909174, 50.207657712864346 ], [ 1.828611377294554, 50.345184104283547 ], [ 1.644737129826385, 50.350412975607171 ], [ 1.566440532678766, 50.431911366888414 ], [ 1.599535226242177, 50.862149119288048 ], [ 2.067728710642824, 51.006630452946105 ] ] ] } },
{ "type": "Feature", "properties": { "NUTS_ID": "FRE21", "name": "Aisne" }, "geometry": { "type": "Polygon", "coordinates": [ [ [ 4.140853127347617, 49.978760149708634 ], [ 4.233054694369951, 49.957830609539364 ], [ 4.206419199672675, 49.731394162225541 ], [ 4.042049282716536, 49.60454243115192 ], [ 4.047974718001358, 49.405644065824532 ], [ 3.670261981219306, 49.31402495060572 ], [ 3.654641303102789, 49.007530707871304 ], [ 3.485183451168698, 48.851910605404051 ], [ 3.437054304043043, 48.882844713295093 ], [ 3.071880149511117, 49.117553563714331 ], [ 3.009572428564752, 49.292612865835579 ], [ 3.100401103726089, 49.444530348409756 ], [ 3.118404507502185, 49.705964114875464 ], [ 3.088521196922595, 49.841022626047149 ], [ 3.172961365469795, 50.011311863981696 ], [ 3.43705430392989, 50.033893253600276 ], [ 3.740718043126493, 50.059858162603298 ], [ 4.140853127347617, 49.978760149708634 ] ] ] } },
{ "type": "Feature", "properties": { "NUTS_ID": "FRE22", "name": "Oise" }, "geometry": { "type": "Polygon", "coordinates": [ [ [ 3.118404507502185, 49.705964114875464 ], [ 3.100401103726089, 49.444530348409756 ], [ 3.009572428564752, 49.292612865835579 ], [ 3.071880149511117, 49.117553563714331 ], [ 3.016326593527833, 49.113179520278585 ], [ 2.590528609767333, 49.079654052910413 ], [ 2.1159630876176, 49.198932308351822 ], [ 1.788165930630148, 49.178114912765984 ], [ 1.704358760363013, 49.232197142503146 ], [ 1.756594744093232, 49.300374396500644 ], [ 1.713930533540033, 49.409224950913362 ], [ 1.707457335610449, 49.698807904676578 ], [ 1.783834190783268, 49.75830955760636 ], [ 2.62867811289594, 49.590718189101253 ], [ 2.891844655062207, 49.692990334970652 ], [ 3.016326593945578, 49.700118700122054 ], [ 3.118404507502185, 49.705964114875464 ] ] ] } },
{ "type": "Feature", "properties": { "NUTS_ID": "FRE23", "name": "Somme" }, "geometry": { "type": "Polygon", "coordinates": [ [ [ 1.644737129826385, 50.350412975607171 ], [ 1.828611377294554, 50.345184104283547 ], [ 2.119178671909174, 50.207657712864346 ], [ 2.439757369795115, 50.216241684326427 ], [ 2.416796579375719, 50.102123818051034 ], [ 2.738367831514287, 50.116665710990617 ], [ 2.902086515156944, 50.046030567951995 ], [ 3.016326594705299, 50.050711475533326 ], [ 3.090252059175755, 50.053740519495058 ], [ 3.172961365469795, 50.011311863981696 ], [ 3.088521196922595, 49.841022626047149 ], [ 3.118404507502185, 49.705964114875464 ], [ 3.016326593945578, 49.700118700122054 ], [ 2.891844655062207, 49.692990334970652 ], [ 2.62867811289594, 49.590718189101253 ], [ 1.783834190783268, 49.75830955760636 ], [ 1.693373855504661, 49.892247395213126 ], [ 1.379640261684281, 50.06512050671364 ], [ 1.599205102744963, 50.213340428802127 ], [ 1.555212474579022, 50.328265865958755 ], [ 1.644737129826385, 50.350412975607171 ] ] ] } },
{ "type": "Feature", "properties": { "NUTS_ID": "FRF11", "name": "Bas-Rhin" }, "geometry": { "type": "Polygon", "coordinates": [ [ [ 7.081327312756067, 48.535328843472129 ], [ 7.230562022691519, 48.575670958217998 ], [ 7.289413222883805, 48.767215829707133 ], [ 7.203471877834106, 48.829992299832512 ], [ 7.091274617567962, 48.824160408243728 ], [ 6.97236211046782, 48.935060275460295 ], [ 7.092253855796904, 49.031154388663737 ], [ 7.532434457051354, 48.945032463549722 ], [ 7.635650928423454, 49.053950390818443 ], [ 7.910654726008721, 49.045163378502401 ], [ 8.068310038477238, 48.999345879760526 ], [ 8.232632878579958, 48.966571391283075 ], [ 7.959630337704163, 48.718580947457774 ], [ 7.824622052535952, 48.611434856564649 ], [ 7.731775145801955, 48.380144093820597 ], [ 7.68071292674086, 48.257267153658709 ], [ 7.576981681665536, 48.119056386950163 ], [ 7.198287093422215, 48.310471376712137 ], [ 7.108019312260031, 48.380144093633717 ], [ 7.123163285921387, 48.513588058059554 ], [ 7.081327312756067, 48.535328843472129 ] ] ] } },
{ "type": "Feature", "properties": { "NUTS_ID": "FRF12", "name": "Haut-Rhin" }, "geometry": { "type": "Polygon", "coordinates": [ [ [ 7.198287093422215, 48.310471376712137 ], [ 7.576981681665536, 48.119056386950163 ], [ 7.577290834690899, 48.115655069340868 ], [ 7.604545128216876, 47.968912849526376 ], [ 7.54599041370216, 47.743573960857233 ], [ 7.589039168443982, 47.589878019553737 ], [ 7.555159637918207, 47.564563844786676 ], [ 7.51090573428759, 47.502582579004489 ], [ 7.380893940646048, 47.43189252137509 ], [ 7.223615156659127, 47.430181608127263 ], [ 7.130353228511457, 47.503040429008792 ], [ 7.017809687863905, 47.721226609329143 ], [ 6.846175711874817, 47.822942550566502 ], [ 7.198287093422215, 48.310471376712137 ] ] ] } },
{ "type": "Feature", "properties": { "NUTS_ID": "FRF21", "name": "Ardennes" }, "geometry": { "type": "Polygon", "coordinates": [ [ [ 4.432493778654865, 49.941615969513123 ], [ 4.663390216554257, 49.994970607760536 ], [ 4.796697108254327, 50.148678157734864 ], [ 4.869741604169468, 50.128828800594491 ], [ 4.809950780428569, 49.97485706966615 ], [ 4.871562794475356, 49.810970532116045 ], [ 4.96943102038776, 49.80182612480246 ], [ 5.153738464074949, 49.717925986490108 ], [ 5.393511244511907, 49.617110893632656 ], [ 5.268023674600891, 49.554381974354385 ], [ 5.109171368839716, 49.568458786345609 ], [ 5.096278123098759, 49.401751166125408 ], [ 4.950990687342459, 49.236867458489115 ], [ 4.456327015041903, 49.280873961699747 ], [ 4.047974718001358, 49.405644065824532 ], [ 4.042049282716536, 49.60454243115192 ], [ 4.206419199672675, 49.731394162225541 ], [ 4.233054694369951, 49.957830609539364 ], [ 4.432493778654865, 49.941615969513123 ] ] ] } },
{ "type": "Feature", "properties": { "NUTS_ID": "FRF22", "name": "Aube" }, "geometry": { "type": "Polygon", "coordinates": [ [ [ 4.670186890989751, 48.531884420391485 ], [ 4.671134773811011, 48.454229900667499 ], [ 4.758199899308163, 48.380144093071074 ], [ 4.838051056628141, 48.319646053599818 ], [ 4.854875026764498, 48.182938365721036 ], [ 4.704233235431174, 48.020234869506361 ], [ 4.293421639850734, 47.925673546293417 ], [ 3.915492702340266, 47.940980988710592 ], [ 3.751466217574285, 48.14412128296776 ], [ 3.640687301753684, 48.174419991786081 ], [ 3.570322557122213, 48.308673936024988 ], [ 3.437054303800731, 48.369514751126466 ], [ 3.413771349658702, 48.380144093650976 ], [ 3.405229767660813, 48.48341550410067 ], [ 3.437054304147566, 48.512380152702065 ], [ 3.555614018190069, 48.620285586493019 ], [ 3.650463494810147, 48.543189893074263 ], [ 3.798776075570935, 48.523279644420256 ], [ 4.060099602103347, 48.689088601899911 ], [ 4.259589772442306, 48.709566762259797 ], [ 4.400635799231869, 48.567620553951222 ], [ 4.670186890989751, 48.531884420391485 ] ] ] } },
{ "type": "Feature", "properties": { "NUTS_ID": "FRF23", "name": "Marne" }, "geometry": { "type": "Polygon", "coordinates": [ [ [ 4.047974718001358, 49.405644065824532 ], [ 4.456327015041903, 49.280873961699747 ], [ 4.950990687342459, 49.236867458489115 ], [ 5.027463077390538, 49.002261830791085 ], [ 4.905464952543159, 48.830843214717035 ], [ 4.988430728593792, 48.684421935792017 ], [ 4.670186890989751, 48.531884420391485 ], [ 4.400635799231869, 48.567620553951222 ], [ 4.259589772442306, 48.709566762259797 ], [ 4.060099602103347, 48.689088601899911 ], [ 3.798776075570935, 48.523279644420256 ], [ 3.650463494810147, 48.543189893074263 ], [ 3.555614018190069, 48.620285586493019 ], [ 3.472139224780022, 48.641849545587043 ], [ 3.437054304222928, 48.720863099162671 ], [ 3.414787333125064, 48.771009783936044 ], [ 3.437054303618963, 48.796599492224914 ], [ 3.485183451168698, 48.851910605404051 ], [ 3.654641303102789, 49.007530707871304 ], [ 3.670261981219306, 49.31402495060572 ], [ 4.047974718001358, 49.405644065824532 ] ] ] } },
{ "type": "Feature", "properties": { "NUTS_ID": "FRF24", "name": "Haute-Marne" }, "geometry": { "type": "Polygon", "coordinates": [ [ [ 4.988430728593792, 48.684421935792017 ], [ 5.470054960385402, 48.420926561277312 ], [ 5.435892132457643, 48.380144093213275 ], [ 5.68102125367508, 48.222674791839204 ], [ 5.679929622519362, 48.094449108719054 ], [ 5.884723732249554, 47.926046368960911 ], [ 5.717822491471884, 47.825837724066645 ], [ 5.669026167571316, 47.68979408247219 ], [ 5.429845544387492, 47.667293786295559 ], [ 5.374080022138921, 47.604537890324671 ], [ 5.265602302538311, 47.590438004178807 ], [ 4.975789032352008, 47.711513406914207 ], [ 4.949108440010872, 47.868226246097962 ], [ 4.704233235431174, 48.020234869506361 ], [ 4.854875026764498, 48.182938365721036 ], [ 4.838051056628141, 48.319646053599818 ], [ 4.758199899308163, 48.380144093071074 ], [ 4.671134773811011, 48.454229900667499 ], [ 4.670186890989751, 48.531884420391485 ], [ 4.988430728593792, 48.684421935792017 ] ] ] } },
{ "type": "Feature", "properties": { "NUTS_ID": "FRF31", "name": "Meurthe-et-Moselle " }, "geometry": { "type": "Polygon", "coordinates": [ [ [ 5.734526862018468, 49.545770759716632 ], [ 5.818116879399927, 49.546310570859227 ], [ 5.893386024111964, 49.496944628654013 ], [ 6.015247654594432, 49.26301131615331 ], [ 5.95057348062849, 49.078976740536511 ], [ 6.062975561669181, 48.975149402761822 ], [ 6.280162324782026, 48.915372265840283 ], [ 6.378604489452137, 48.783837884251952 ], [ 7.081327312756067, 48.535328843472129 ], [ 7.123163285921387, 48.513588058059554 ], [ 6.830548305231867, 48.414582739717673 ], [ 6.575437139662522, 48.449704330573411 ], [ 6.039775568771338, 48.352466926579851 ], [ 5.7651507415656, 48.496489140787752 ], [ 5.751035798882891, 48.760056844190558 ], [ 5.838127953178345, 49.047757632224851 ], [ 5.702229826282826, 49.389365769733224 ], [ 5.505264995907961, 49.422834311970433 ], [ 5.470716545629636, 49.49732447852081 ], [ 5.734526862018468, 49.545770759716632 ] ] ] } },
{ "type": "Feature", "properties": { "NUTS_ID": "FRF32", "name": "Meuse " }, "geometry": { "type": "Polygon", "coordinates": [ [ [ 5.393511244511907, 49.617110893632656 ], [ 5.470716545629636, 49.49732447852081 ], [ 5.505264995907961, 49.422834311970433 ], [ 5.702229826282826, 49.389365769733224 ], [ 5.838127953178345, 49.047757632224851 ], [ 5.751035798882891, 48.760056844190558 ], [ 5.7651507415656, 48.496489140787752 ], [ 5.470054960385402, 48.420926561277312 ], [ 4.988430728593792, 48.684421935792017 ], [ 4.905464952543159, 48.830843214717035 ], [ 5.027463077390538, 49.002261830791085 ], [ 4.950990687342459, 49.236867458489115 ], [ 5.096278123098759, 49.401751166125408 ], [ 5.109171368839716, 49.568458786345609 ], [ 5.268023674600891, 49.554381974354385 ], [ 5.393511244511907, 49.617110893632656 ] ] ] } },
{ "type": "Feature", "properties": { "NUTS_ID": "FRF33", "name": "Moselle" }, "geometry": { "type": "Polygon", "coordinates": [ [ [ 5.893386024111964, 49.496944628654013 ], [ 6.367107613804149, 49.469506980058611 ], [ 6.556985812897825, 49.419208385675837 ], [ 6.723465735797196, 49.218829137406971 ], [ 6.779377651399126, 49.161800703467925 ], [ 6.93071150464398, 49.216202407563671 ], [ 7.101069047568275, 49.15599803739125 ], [ 7.249932039511546, 49.117937664636806 ], [ 7.368755544731484, 49.161458091057298 ], [ 7.478726107329846, 49.157750118956649 ], [ 7.635650928423454, 49.053950390818443 ], [ 7.532434457051354, 48.945032463549722 ], [ 7.092253855796904, 49.031154388663737 ], [ 6.97236211046782, 48.935060275460295 ], [ 7.091274617567962, 48.824160408243728 ], [ 7.203471877834106, 48.829992299832512 ], [ 7.289413222883805, 48.767215829707133 ], [ 7.230562022691519, 48.575670958217998 ], [ 7.081327312756067, 48.535328843472129 ], [ 6.378604489452137, 48.783837884251952 ], [ 6.280162324782026, 48.915372265840283 ], [ 6.062975561669181, 48.975149402761822 ], [ 5.95057348062849, 49.078976740536511 ], [ 6.015247654594432, 49.26301131615331 ], [ 5.893386024111964, 49.496944628654013 ] ] ] } },
{ "type": "Feature", "properties": { "NUTS_ID": "FRF34", "name": "Vosges" }, "geometry": { "type": "Polygon", "coordinates": [ [ [ 5.7651507415656, 48.496489140787752 ], [ 6.039775568771338, 48.352466926579851 ], [ 6.575437139662522, 48.449704330573411 ], [ 6.830548305231867, 48.414582739717673 ], [ 7.123163285921387, 48.513588058059554 ], [ 7.108019312260031, 48.380144093633717 ], [ 7.198287093422215, 48.310471376712137 ], [ 6.846175711874817, 47.822942550566502 ], [ 6.823533586553346, 47.813050869482481 ], [ 6.608636119345626, 47.92681727819371 ], [ 6.218854893244609, 47.942507718734142 ], [ 6.115305007091625, 48.01097743662968 ], [ 5.884723732249554, 47.926046368960911 ], [ 5.679929622519362, 48.094449108719054 ], [ 5.68102125367508, 48.222674791839204 ], [ 5.435892132457643, 48.380144093213275 ], [ 5.470054960385402, 48.420926561277312 ], [ 5.7651507415656, 48.496489140787752 ] ] ] } },
{ "type": "Feature", "properties": { "NUTS_ID": "FRG01", "name": "Loire-Atlantique" }, "geometry": { "type": "Polygon", "coordinates": [ [ [ -2.458475858559114, 47.448005033758136 ], [ -2.137173195117552, 47.525726013263657 ], [ -2.097033933822205, 47.63135642061561 ], [ -1.948536339366918, 47.660314504180008 ], [ -1.684348021966719, 47.711833100470436 ], [ -1.462581879474349, 47.819748367941848 ], [ -1.245884835625328, 47.776717362404824 ], [ -1.079183153191188, 47.575709289390403 ], [ -0.957177936323255, 47.428595994932948 ], [ -0.999442650788061, 47.373654065593144 ], [ -1.079183152688886, 47.359344280453669 ], [ -1.281901231522423, 47.322965627401459 ], [ -1.182560751550415, 47.208001507275952 ], [ -1.226050852423225, 47.107711801790956 ], [ -1.148566901728409, 47.029548966178503 ], [ -1.265604612453012, 47.051827249416512 ], [ -1.410844261437993, 46.966483563219917 ], [ -1.514576876583661, 46.996274632387788 ], [ -1.6050697141608, 46.887127948907114 ], [ -1.980464576329756, 47.028722057743714 ], [ -2.168661623444805, 47.140320622014791 ], [ -2.188536371473623, 47.254184452815927 ], [ -2.473674931384082, 47.295728751146754 ], [ -2.513304061568838, 47.368147871524286 ], [ -2.458475858559114, 47.448005033758136 ] ] ] } },
{ "type": "Feature", "properties": { "NUTS_ID": "FRG02", "name": "Maine-et-Loire" }, "geometry": { "type": "Polygon", "coordinates": [ [ [ -1.238247893426709, 47.809992601646599 ], [ -1.079183152453212, 47.792755393046043 ], [ -0.932798724984712, 47.776892299163357 ], [ -0.796602164428863, 47.762133224414555 ], [ -0.381700846650745, 47.760566466258815 ], [ -0.161536235560351, 47.657365368395624 ], [ 0.230000606928654, 47.608397513856133 ], [ 0.216369000234673, 47.573990609337407 ], [ 0.053830045138374, 47.163733603209458 ], [ -0.102116183630456, 47.064799977426844 ], [ -0.289919356664292, 47.090919528104507 ], [ -0.891963983370585, 46.97582063405045 ], [ -0.932798724364661, 46.98437074193891 ], [ -1.079183152720141, 47.015021177370144 ], [ -1.148566901728409, 47.029548966178503 ], [ -1.226050852423225, 47.107711801790956 ], [ -1.182560751550415, 47.208001507275952 ], [ -1.281901231522423, 47.322965627401459 ], [ -1.079183152688886, 47.359344280453669 ], [ -0.999442650788061, 47.373654065593144 ], [ -0.957177936323255, 47.428595994932948 ], [ -1.079183153191188, 47.575709289390403 ], [ -1.245884835625328, 47.776717362404824 ], [ -1.238247893426709, 47.809992601646599 ] ] ] } },
{ "type": "Feature", "properties": { "NUTS_ID": "FRG03", "name": "Mayenne" }, "geometry": { "type": "Polygon", "coordinates": [ [ [ -0.860359901617399, 48.501458622669432 ], [ -0.761319750469693, 48.470872923039643 ], [ -0.218344820741962, 48.538602549346393 ], [ -0.053213962148809, 48.380144093000553 ], [ -0.404122439238794, 47.879959594868083 ], [ -0.381700846650745, 47.760566466258815 ], [ -0.796602164428863, 47.762133224414555 ], [ -0.932798724984712, 47.776892299163357 ], [ -1.079183152453212, 47.792755393046043 ], [ -1.238247893426709, 47.809992601646599 ], [ -1.079183152768654, 47.969967611415335 ], [ -1.03865642655003, 48.010726258046098 ], [ -1.052796164316761, 48.105416145476461 ], [ -1.070164269778161, 48.508492043354494 ], [ -0.932798724746045, 48.503887040232151 ], [ -0.860359901617399, 48.501458622669432 ] ] ] } },
{ "type": "Feature", "properties": { "NUTS_ID": "FRG04", "name": "Sarthe" }, "geometry": { "type": "Polygon", "coordinates": [ [ [ 0.841217601574524, 48.103059463048268 ], [ 0.834612300475985, 47.953119138740909 ], [ 0.670759356193347, 47.76044893135191 ], [ 0.61443226618817, 47.694215442361482 ], [ 0.364722940632782, 47.583868408140965 ], [ 0.230000606928654, 47.608397513856133 ], [ -0.161536235560351, 47.657365368395624 ], [ -0.381700846650745, 47.760566466258815 ], [ -0.404122439238794, 47.879959594868083 ], [ -0.053213962148809, 48.380144093000553 ], [ 0.216368999455119, 48.453262056975227 ], [ 0.271786164414721, 48.478927357798 ], [ 0.354870015264725, 48.444128497667407 ], [ 0.379078674775304, 48.380144093129879 ], [ 0.539938275473494, 48.26288329716791 ], [ 0.670759355579425, 48.228148470809785 ], [ 0.797658420022996, 48.194454993216532 ], [ 0.841217601574524, 48.103059463048268 ] ] ] } },
{ "type": "Feature", "properties": { "NUTS_ID": "FRG05", "name": "Vendée" }, "geometry": { "type": "MultiPolygon", "coordinates": [ [ [ [ -0.891963983370585, 46.97582063405045 ], [ -0.796602164186783, 46.860729746408339 ], [ -0.653142547355722, 46.67981475858938 ], [ -0.563373286459344, 46.381484787165896 ], [ -0.750471555687042, 46.304254374119175 ], [ -0.932798724612678, 46.312606705197929 ], [ -1.079183153253363, 46.319312514434849 ], [ -1.234191655699278, 46.286630129785898 ], [ -1.761430372579071, 46.475220872239454 ], [ -1.948536340491288, 46.671395887963108 ], [ -2.02295925334223, 46.749426090085407 ], [ -2.143223637277045, 46.869223648211374 ], [ -1.980464576329756, 47.028722057743714 ], [ -1.6050697141608, 46.887127948907114 ], [ -1.514576876583661, 46.996274632387788 ], [ -1.410844261437993, 46.966483563219917 ], [ -1.265604612453012, 47.051827249416512 ], [ -1.148566901728409, 47.029548966178503 ], [ -1.079183152720141, 47.015021177370144 ], [ -0.932798724364661, 46.98437074193891 ], [ -0.891963983370585, 46.97582063405045 ] ] ], [ [ [ -2.239348133545598, 47.045115867704695 ], [ -2.22903611053198, 46.956457553034269 ], [ -2.31601174446115, 46.970910727618538 ], [ -2.34667927939641, 47.053109396008274 ], [ -2.239348133545598, 47.045115867704695 ] ] ] ] } },
{ "type": "Feature", "properties": { "NUTS_ID": "FRH01", "name": "Côtes-d’Armor" }, "geometry": { "type": "Polygon", "coordinates": [ [ [ -2.123826906227955, 48.604825450356977 ], [ -2.006870834744054, 48.56609071127324 ], [ -1.968371203363402, 48.537276616180961 ], [ -1.965393180247519, 48.336664161707724 ], [ -2.287274227077188, 48.13374405364987 ], [ -2.471866884611217, 48.150722694227454 ], [ -2.632037216634422, 48.056626161667658 ], [ -3.049291042587794, 48.19019684751872 ], [ -3.139240858725701, 48.189420557126638 ], [ -3.34442039588812, 48.187649805706648 ], [ -3.564844426637286, 48.185747489554274 ], [ -3.563192254486005, 48.537594108430014 ], [ -3.659154031212672, 48.659423919082364 ], [ -3.512505872743211, 48.807857255205271 ], [ -3.139240859028575, 48.849451549502575 ], [ -2.707754751384997, 48.544975572131698 ], [ -2.367149097901984, 48.656237152909256 ], [ -2.123826906227955, 48.604825450356977 ] ] ] } },
{ "type": "Feature", "properties": { "NUTS_ID": "FRH02", "name": "Finistère" }, "geometry": { "type": "MultiPolygon", "coordinates": [ [ [ [ -3.425082460359761, 47.865372816167671 ], [ -3.525857998704349, 47.811156746535588 ], [ -4.356272871131643, 47.884678318646884 ], [ -4.511780904409725, 48.029086551614384 ], [ -4.431435309125332, 48.15323323964418 ], [ -4.478720053065772, 48.269430602654758 ], [ -4.425187445551249, 48.326827370603631 ], [ -4.613007096370491, 48.357848652081799 ], [ -4.696013872280089, 48.438712103564029 ], [ -4.591670317999681, 48.575722536967291 ], [ -4.246361500031717, 48.669135592351466 ], [ -3.659154031212672, 48.659423919082364 ], [ -3.563192254486005, 48.537594108430014 ], [ -3.564844426637286, 48.185747489554274 ], [ -3.730406884673512, 48.105416145550798 ], [ -3.628189303341717, 47.997379332985673 ], [ -3.420056619961957, 47.948279571550891 ], [ -3.425082460359761, 47.865372816167671 ] ] ], [ [ [ -4.754225829675789, 48.019323519272866 ], [ -4.843223797185467, 47.990580410665935 ], [ -4.931747917781148, 48.038762036446059 ], [ -4.835806797448914, 48.080683178106419 ], [ -4.754225829675789, 48.019323519272866 ] ] ] ] } },
{ "type": "Feature", "properties": { "NUTS_ID": "FRH03", "name": "Ille-et-Vilaine" }, "geometry": { "type": "Polygon", "coordinates": [ [ [ -1.571099825497722, 48.626500967598709 ], [ -1.424557094889358, 48.487791487471107 ], [ -1.070164269778161, 48.508492043354494 ], [ -1.052796164316761, 48.105416145476461 ], [ -1.03865642655003, 48.010726258046098 ], [ -1.079183152768654, 47.969967611415335 ], [ -1.238247893426709, 47.809992601646599 ], [ -1.245884835625328, 47.776717362404824 ], [ -1.462581879474349, 47.819748367941848 ], [ -1.684348021966719, 47.711833100470436 ], [ -1.948536339366918, 47.660314504180008 ], [ -2.097033933822205, 47.63135642061561 ], [ -2.116363934634623, 47.744837830395738 ], [ -2.06133995841108, 47.83892260531141 ], [ -2.122775780572375, 47.957050938821773 ], [ -2.270308110321524, 48.006045196296945 ], [ -2.255441310474513, 48.105416145095766 ], [ -2.287274227077188, 48.13374405364987 ], [ -1.965393180247519, 48.336664161707724 ], [ -1.968371203363402, 48.537276616180961 ], [ -1.962869197230236, 48.55855083347398 ], [ -1.972236378652047, 48.578127288888581 ], [ -1.990837856322542, 48.580764621917879 ], [ -2.006870834744054, 48.56609071127324 ], [ -2.123826906227955, 48.604825450356977 ], [ -1.948536339629269, 48.681006924022469 ], [ -1.761000316005021, 48.616808883135846 ], [ -1.571099825497722, 48.626500967598709 ] ] ] } },
{ "type": "Feature", "properties": { "NUTS_ID": "FRH04", "name": "Morbihan" }, "geometry": { "type": "MultiPolygon", "coordinates": [ [ [ [ -3.049291042587794, 48.19019684751872 ], [ -2.632037216634422, 48.056626161667658 ], [ -2.471866884611217, 48.150722694227454 ], [ -2.287274227077188, 48.13374405364987 ], [ -2.255441310474513, 48.105416145095766 ], [ -2.270308110321524, 48.006045196296945 ], [ -2.122775780572375, 47.957050938821773 ], [ -2.06133995841108, 47.83892260531141 ], [ -2.116363934634623, 47.744837830395738 ], [ -2.097033933822205, 47.63135642061561 ], [ -2.137173195117552, 47.525726013263657 ], [ -2.458475858559114, 47.448005033758136 ], [ -2.563469060690208, 47.530649545375603 ], [ -2.719308324586537, 47.512446244334782 ], [ -3.139240859691569, 47.606908210366946 ], [ -3.429273919980749, 47.718251314689574 ], [ -3.525857998704349, 47.811156746535588 ], [ -3.425082460359761, 47.865372816167671 ], [ -3.420056619961957, 47.948279571550891 ], [ -3.628189303341717, 47.997379332985673 ], [ -3.730406884673512, 48.105416145550798 ], [ -3.564844426637286, 48.185747489554274 ], [ -3.34442039588812, 48.187649805706648 ], [ -3.139240858725701, 48.189420557126638 ], [ -3.049291042587794, 48.19019684751872 ] ] ], [ [ [ -3.137022784317019, 47.301853556004325 ], [ -3.216128930550172, 47.29129330136422 ], [ -3.303198762110202, 47.366634121535441 ], [ -3.187475761315582, 47.380023790076649 ], [ -3.137022784317019, 47.301853556004325 ] ] ] ] } },
{ "type": "Feature", "properties": { "NUTS_ID": "FRI11", "name": "Dordogne" }, "geometry": { "type": "Polygon", "coordinates": [ [ [ 0.004336014076038, 45.191627867965906 ], [ 0.216368999590624, 45.276049705309234 ], [ 0.295931280870292, 45.420181009271914 ], [ 0.629741109440441, 45.714569835443207 ], [ 0.670759356376174, 45.685109981057344 ], [ 0.796041431540387, 45.595130714444231 ], [ 1.013375574208526, 45.598969984833317 ], [ 1.253154434937297, 45.444220039736351 ], [ 1.303115657400256, 45.379673289042458 ], [ 1.248294700086818, 45.283348663677423 ], [ 1.271491026395938, 45.17108165760429 ], [ 1.448259777535339, 45.019313877432268 ], [ 1.394294040886144, 44.856329859971588 ], [ 1.075141938021976, 44.577325478316752 ], [ 0.6707593555222, 44.681540908042855 ], [ 0.634291865513546, 44.690939125589544 ], [ 0.399880868640155, 44.655978491377581 ], [ 0.297326652890259, 44.762287428637194 ], [ 0.20672471828145, 44.834030812072861 ], [ 0.047562956991453, 44.855743582328927 ], [ 0.049081432170253, 45.058378534119306 ], [ -0.040197576303057, 45.102379987930732 ], [ 0.004336014076038, 45.191627867965906 ] ] ] } },
{ "type": "Feature", "properties": { "NUTS_ID": "FRI12", "name": "Gironde" }, "geometry": { "type": "Polygon", "coordinates": [ [ [ -0.714825320424344, 45.32836998828202 ], [ -0.451897965536779, 45.273866754857593 ], [ -0.240003217910618, 45.113569464018305 ], [ -0.040197576303057, 45.102379987930732 ], [ 0.049081432170253, 45.058378534119306 ], [ 0.047562956991453, 44.855743582328927 ], [ 0.20672471828145, 44.834030812072861 ], [ 0.297326652890259, 44.762287428637194 ], [ 0.216368999684108, 44.74190599494365 ], [ 0.158361212780218, 44.727302288988469 ], [ 0.136739869050506, 44.619955591413955 ], [ 0.000326331888517, 44.504969799149009 ], [ -0.057810560501241, 44.273049507893134 ], [ -0.140689952173882, 44.226407490801087 ], [ -0.344104960064405, 44.231982109122164 ], [ -0.659496126122894, 44.419759497074921 ], [ -0.932798725255454, 44.442645514851471 ], [ -1.07918315241775, 44.513810731341415 ], [ -1.254085936527999, 44.467638531365026 ], [ -1.114076309637422, 44.684692847140845 ], [ -1.230277232428422, 44.79527042193611 ], [ -1.13072053758711, 45.487607709950588 ], [ -1.079183152856306, 45.517600572807353 ], [ -0.932798724835973, 45.420572474311427 ], [ -0.793786692048981, 45.328431025993495 ], [ -0.714825320424344, 45.32836998828202 ] ] ] } },
{ "type": "Feature", "properties": { "NUTS_ID": "FRI13", "name": "Landes" }, "geometry": { "type": "Polygon", "coordinates": [ [ [ -1.254085936527999, 44.467638531365026 ], [ -1.07918315241775, 44.513810731341415 ], [ -0.932798725255454, 44.442645514851471 ], [ -0.659496126122894, 44.419759497074921 ], [ -0.344104960064405, 44.231982109122164 ], [ -0.140689952173882, 44.226407490801087 ], [ -0.104616454241262, 44.158951925773181 ], [ 0.079592835234642, 44.121258256575437 ], [ 0.076043650594348, 43.983138448011196 ], [ 0.048781732405486, 43.925175094709104 ], [ -0.048707264831996, 43.96190159416151 ], [ -0.190120801344934, 43.898116274772626 ], [ -0.242832977495725, 43.584979136183648 ], [ -0.796602164312374, 43.559879296015069 ], [ -0.932798724664464, 43.529105680588444 ], [ -1.026043208233013, 43.50803708808607 ], [ -1.079183153083512, 43.510334182015505 ], [ -1.524757116953306, 43.529595122772562 ], [ -1.440412084407503, 43.656017586427382 ], [ -1.338210629197053, 44.101198485868046 ], [ -1.254085936527999, 44.467638531365026 ] ] ] } },
{ "type": "Feature", "properties": { "NUTS_ID": "FRI14", "name": "Lot-et-Garonne" }, "geometry": { "type": "Polygon", "coordinates": [ [ [ 0.297326652890259, 44.762287428637194 ], [ 0.399880868640155, 44.655978491377581 ], [ 0.634291865513546, 44.690939125589544 ], [ 0.6707593555222, 44.681540908042855 ], [ 1.075141938021976, 44.577325478316752 ], [ 1.022740091689408, 44.513366125014272 ], [ 1.064081333601077, 44.378508466257657 ], [ 0.895122933859646, 44.354957751697029 ], [ 0.931105099458146, 44.262298847089539 ], [ 0.890720269229395, 44.166749105124012 ], [ 0.741884926762827, 44.065198985895726 ], [ 0.670759355707995, 44.056433229054143 ], [ 0.216369000462018, 44.000432619819257 ], [ 0.076043650594348, 43.983138448011196 ], [ 0.079592835234642, 44.121258256575437 ], [ -0.104616454241262, 44.158951925773181 ], [ -0.140689952173882, 44.226407490801087 ], [ -0.057810560501241, 44.273049507893134 ], [ 0.000326331888517, 44.504969799149009 ], [ 0.136739869050506, 44.619955591413955 ], [ 0.158361212780218, 44.727302288988469 ], [ 0.216368999684108, 44.74190599494365 ], [ 0.297326652890259, 44.762287428637194 ] ] ] } },
{ "type": "Feature", "properties": { "NUTS_ID": "FRI15", "name": "Pyrénées-Atlantiques" }, "geometry": { "type": "Polygon", "coordinates": [ [ [ -1.524757116953306, 43.529595122772562 ], [ -1.079183153083512, 43.510334182015505 ], [ -1.026043208233013, 43.50803708808607 ], [ -0.932798724664464, 43.529105680588444 ], [ -0.796602164312374, 43.559879296015069 ], [ -0.242832977495725, 43.584979136183648 ], [ -0.096788153399995, 43.582405081481475 ], [ -0.023035306576282, 43.351573840276494 ], [ -0.135129662204849, 43.279320598416476 ], [ -0.099282887366164, 43.183344273786261 ], [ -0.269487932791698, 42.989205566666548 ], [ -0.313341956515901, 42.84936493228723 ], [ -0.55151808873145, 42.796207564319829 ], [ -0.656193984387015, 42.859353074301914 ], [ -0.72450116191046, 42.920158666877626 ], [ -0.754234952462883, 42.960269628532501 ], [ -0.796602164062258, 42.958536171874506 ], [ -0.930306948885923, 42.989205566706772 ], [ -1.4028965534869, 43.064071330050197 ], [ -1.436838575784401, 43.25126756128406 ], [ -1.728903006250957, 43.296088949382117 ], [ -1.785981393981024, 43.350584323511072 ], [ -1.745523178637144, 43.378309378759113 ], [ -1.524757116953306, 43.529595122772562 ] ] ] } },
{ "type": "Feature", "properties": { "NUTS_ID": "FRI21", "name": "Corrèze" }, "geometry": { "type": "Polygon", "coordinates": [ [ [ 1.253154434937297, 45.444220039736351 ], [ 1.898731921918238, 45.698276386009141 ], [ 2.036923935497621, 45.749835933227608 ], [ 2.306190965302911, 45.683777894419791 ], [ 2.492129388929607, 45.737669887524589 ], [ 2.508412639875052, 45.478501337378724 ], [ 2.475210893819104, 45.396973508445804 ], [ 2.392881801835988, 45.387531647805446 ], [ 2.218337659472311, 45.23426598702698 ], [ 2.06290792751846, 44.976504319142308 ], [ 1.779137208755232, 44.937833750241815 ], [ 1.610588157069734, 45.031551077574271 ], [ 1.448259777535339, 45.019313877432268 ], [ 1.271491026395938, 45.17108165760429 ], [ 1.248294700086818, 45.283348663677423 ], [ 1.303115657400256, 45.379673289042458 ], [ 1.253154434937297, 45.444220039736351 ] ] ] } },
{ "type": "Feature", "properties": { "NUTS_ID": "FRI22", "name": "Creuse" }, "geometry": { "type": "Polygon", "coordinates": [ [ [ 1.41518534446386, 46.347214842538619 ], [ 1.79627952655476, 46.436777488122985 ], [ 2.167784388854525, 46.424069095014609 ], [ 2.281043456974719, 46.420403510186894 ], [ 2.565372303378343, 46.143036028895672 ], [ 2.594917112263759, 45.981014224663788 ], [ 2.430725595248944, 45.813974345288358 ], [ 2.492129388929607, 45.737669887524589 ], [ 2.306190965302911, 45.683777894419791 ], [ 2.036923935497621, 45.749835933227608 ], [ 1.898731921918238, 45.698276386009141 ], [ 1.850652054451067, 45.806835111901762 ], [ 1.653779875509222, 45.846364643346966 ], [ 1.555949865049902, 45.938210588591765 ], [ 1.521423169398427, 46.100213459305969 ], [ 1.397853563687998, 46.213612266855826 ], [ 1.41518534446386, 46.347214842538619 ] ] ] } },
{ "type": "Feature", "properties": { "NUTS_ID": "FRI23", "name": "Haute-Vienne" }, "geometry": { "type": "Polygon", "coordinates": [ [ [ 0.823432534215951, 46.128584440087259 ], [ 0.869565315471491, 46.259757634444497 ], [ 1.17727897149745, 46.383948054861541 ], [ 1.41518534446386, 46.347214842538619 ], [ 1.397853563687998, 46.213612266855826 ], [ 1.521423169398427, 46.100213459305969 ], [ 1.555949865049902, 45.938210588591765 ], [ 1.653779875509222, 45.846364643346966 ], [ 1.850652054451067, 45.806835111901762 ], [ 1.898731921918238, 45.698276386009141 ], [ 1.253154434937297, 45.444220039736351 ], [ 1.013375574208526, 45.598969984833317 ], [ 0.796041431540387, 45.595130714444231 ], [ 0.670759356376174, 45.685109981057344 ], [ 0.629741109440441, 45.714569835443207 ], [ 0.670759356455187, 45.748885987396406 ], [ 0.922412683816779, 45.959420920711906 ], [ 0.823432534215951, 46.128584440087259 ] ] ] } },
{ "type": "Feature", "properties": { "NUTS_ID": "FRI31", "name": "Charente" }, "geometry": { "type": "Polygon", "coordinates": [ [ [ -0.102938260406631, 45.969661356848249 ], [ 0.010824506639056, 46.070061127871334 ], [ 0.197354694428058, 46.095553086324109 ], [ 0.38583178835629, 46.064806733063584 ], [ 0.67075935615188, 46.106333232163266 ], [ 0.823432534215951, 46.128584440087259 ], [ 0.922412683816779, 45.959420920711906 ], [ 0.670759356455187, 45.748885987396406 ], [ 0.629741109440441, 45.714569835443207 ], [ 0.295931280870292, 45.420181009271914 ], [ 0.216368999590624, 45.276049705309234 ], [ 0.004336014076038, 45.191627867965906 ], [ -0.27554918549823, 45.330357704416528 ], [ -0.266729052390039, 45.501513504796172 ], [ -0.415161857037641, 45.679804388183186 ], [ -0.375445714679278, 45.783617215749054 ], [ -0.145883505178023, 45.813192932570907 ], [ -0.102938260406631, 45.969661356848249 ] ] ] } },
{ "type": "Feature", "properties": { "NUTS_ID": "FRI32", "name": "Charente-Maritime" }, "geometry": { "type": "MultiPolygon", "coordinates": [ [ [ [ -0.102938260406631, 45.969661356848249 ], [ -0.145883505178023, 45.813192932570907 ], [ -0.375445714679278, 45.783617215749054 ], [ -0.415161857037641, 45.679804388183186 ], [ -0.266729052390039, 45.501513504796172 ], [ -0.27554918549823, 45.330357704416528 ], [ 0.004336014076038, 45.191627867965906 ], [ -0.040197576303057, 45.102379987930732 ], [ -0.240003217910618, 45.113569464018305 ], [ -0.451897965536779, 45.273866754857593 ], [ -0.714825320424344, 45.32836998828202 ], [ -0.796602163385587, 45.471370837249196 ], [ -0.932798724506541, 45.544555766569637 ], [ -1.200916426475068, 45.695312867848912 ], [ -1.362532242974425, 45.969542164280405 ], [ -1.291298566106059, 45.988841880563143 ], [ -1.184610709375441, 45.837397400423356 ], [ -1.126694573335724, 45.865756345861996 ], [ -1.090252894308313, 46.031978389009062 ], [ -1.186370701467455, 46.175504448435383 ], [ -1.079183153253363, 46.319312514434849 ], [ -0.932798724612678, 46.312606705197929 ], [ -0.750471555687042, 46.304254374119175 ], [ -0.680247212371131, 46.183641616935653 ], [ -0.102938260406631, 45.969661356848249 ] ] ], [ [ [ -1.220608271890713, 46.175981594422389 ], [ -1.304137269375176, 46.126378916086374 ], [ -1.400348920036054, 46.16643716301121 ], [ -1.291932428882001, 46.216819757152734 ], [ -1.220608271890713, 46.175981594422389 ] ] ] ] } },
{ "type": "Feature", "properties": { "NUTS_ID": "FRI33", "name": "Deux-Sèvres" }, "geometry": { "type": "Polygon", "coordinates": [ [ [ -0.891963983370585, 46.97582063405045 ], [ -0.289919356664292, 47.090919528104507 ], [ -0.102116183630456, 47.064799977426844 ], [ 0.014807291970371, 46.733668357104918 ], [ -0.024887354916071, 46.431944959187199 ], [ 0.069753672159098, 46.330567568037615 ], [ 0.159172850432035, 46.321390303668302 ], [ 0.128679404934619, 46.191348123639749 ], [ 0.197354694428058, 46.095553086324109 ], [ 0.010824506639056, 46.070061127871334 ], [ -0.102938260406631, 45.969661356848249 ], [ -0.680247212371131, 46.183641616935653 ], [ -0.750471555687042, 46.304254374119175 ], [ -0.563373286459344, 46.381484787165896 ], [ -0.653142547355722, 46.67981475858938 ], [ -0.796602164186783, 46.860729746408339 ], [ -0.891963983370585, 46.97582063405045 ] ] ] } },
{ "type": "Feature", "properties": { "NUTS_ID": "FRI34", "name": "Vienne" }, "geometry": { "type": "Polygon", "coordinates": [ [ [ 0.053830045138374, 47.163733603209458 ], [ 0.368790303071621, 46.947608883926939 ], [ 0.670759355908048, 46.967857182781835 ], [ 0.86746918105363, 46.748216361806136 ], [ 0.934978900624393, 46.595464452709656 ], [ 1.135575033284977, 46.493933925288012 ], [ 1.17727897149745, 46.383948054861541 ], [ 0.869565315471491, 46.259757634444497 ], [ 0.823432534215951, 46.128584440087259 ], [ 0.67075935615188, 46.106333232163266 ], [ 0.38583178835629, 46.064806733063584 ], [ 0.197354694428058, 46.095553086324109 ], [ 0.128679404934619, 46.191348123639749 ], [ 0.159172850432035, 46.321390303668302 ], [ 0.069753672159098, 46.330567568037615 ], [ -0.024887354916071, 46.431944959187199 ], [ 0.014807291970371, 46.733668357104918 ], [ -0.102116183630456, 47.064799977426844 ], [ 0.053830045138374, 47.163733603209458 ] ] ] } },
{ "type": "Feature", "properties": { "NUTS_ID": "FRJ11", "name": "Aude" }, "geometry": { "type": "Polygon", "coordinates": [ [ [ 3.047712097756899, 42.859353074624515 ], [ 2.850691368528269, 42.897597801109882 ], [ 2.448220874963674, 42.842812557419087 ], [ 2.296526395520076, 42.746639395479086 ], [ 2.166048834338429, 42.663917600335907 ], [ 1.978734748341754, 42.746639395542992 ], [ 1.908601524262537, 42.77761168434094 ], [ 1.884469354230798, 42.820058655607404 ], [ 1.954544794102906, 42.859353074485334 ], [ 1.954643620389408, 42.989205566892196 ], [ 1.95472371637387, 43.094445325524568 ], [ 1.73545573402822, 43.18691650244353 ], [ 1.688423619959693, 43.273554533668822 ], [ 1.861300143344827, 43.424603068666102 ], [ 2.029133777608374, 43.436895399044552 ], [ 2.565659232505308, 43.422935927325206 ], [ 2.562740090678917, 43.336511929593662 ], [ 2.648968438302445, 43.285005308461898 ], [ 2.935830876957643, 43.325903945506361 ], [ 3.016326593445358, 43.296040497514838 ], [ 3.240516155232901, 43.212867460039945 ], [ 3.084212393440687, 43.043587870155257 ], [ 3.047712097756899, 42.859353074624515 ] ] ] } },
{ "type": "Feature", "properties": { "NUTS_ID": "FRJ12", "name": "Gard" }, "geometry": { "type": "Polygon", "coordinates": [ [ [ 4.101083698063826, 43.554705414953617 ], [ 4.174343351647408, 43.643548093503128 ], [ 4.148055616550673, 43.719781152867085 ], [ 3.769649485820997, 43.959107682568018 ], [ 3.561539747398327, 43.875638142506851 ], [ 3.437054304410244, 43.899037762709327 ], [ 3.358362081902179, 43.913829597120177 ], [ 3.425787300568547, 44.013083251119482 ], [ 3.33674042605417, 44.085339274930114 ], [ 3.373647950929334, 44.170759551946489 ], [ 3.437054304262788, 44.151703859149954 ], [ 3.53568468068669, 44.122062190090723 ], [ 3.691524950090845, 44.167372504344861 ], [ 3.8648125033429, 44.136638582608811 ], [ 3.941294403581454, 44.229062402823544 ], [ 3.911439393664911, 44.385057847943514 ], [ 3.998161545285952, 44.459798420075188 ], [ 4.084857470512216, 44.332331505144872 ], [ 4.202216247433282, 44.284441011882457 ], [ 4.510327262560057, 44.330123921910904 ], [ 4.649227380891729, 44.270360075615635 ], [ 4.797121755980067, 44.020905595237465 ], [ 4.739059704286424, 43.924061825964856 ], [ 4.620980285527251, 43.70640361009405 ], [ 4.489871519758945, 43.6828560608879 ], [ 4.230280408507965, 43.460183482936522 ], [ 4.101083698063826, 43.554705414953617 ] ] ] } },
{ "type": "Feature", "properties": { "NUTS_ID": "FRJ13", "name": "Hérault" }, "geometry": { "type": "Polygon", "coordinates": [ [ [ 3.240516155232901, 43.212867460039945 ], [ 3.016326593445358, 43.296040497514838 ], [ 2.935830876957643, 43.325903945506361 ], [ 2.648968438302445, 43.285005308461898 ], [ 2.562740090678917, 43.336511929593662 ], [ 2.565659232505308, 43.422935927325206 ], [ 2.645183141514036, 43.470158005565992 ], [ 2.649182093362499, 43.638000883017078 ], [ 2.792703246415418, 43.62705143915759 ], [ 2.935457041245205, 43.694664902162359 ], [ 3.016326593534514, 43.704582375428402 ], [ 3.103293642482553, 43.822137528190765 ], [ 3.358362081902179, 43.913829597120177 ], [ 3.437054304410244, 43.899037762709327 ], [ 3.561539747398327, 43.875638142506851 ], [ 3.769649485820997, 43.959107682568018 ], [ 4.148055616550673, 43.719781152867085 ], [ 4.174343351647408, 43.643548093503128 ], [ 4.101083698063826, 43.554705414953617 ], [ 3.437054303790584, 43.290937100444822 ], [ 3.240516155232901, 43.212867460039945 ] ] ] } },
{ "type": "Feature", "properties": { "NUTS_ID": "FRJ14", "name": "Lozère" }, "geometry": { "type": "Polygon", "coordinates": [ [ [ 3.373647950929334, 44.170759551946489 ], [ 3.168701247943972, 44.252365500801808 ], [ 3.118237680375401, 44.457625888198137 ], [ 3.016326593950991, 44.597212069583733 ], [ 2.981675742713492, 44.644672852119669 ], [ 3.016326593459793, 44.708661806154069 ], [ 3.098338069168681, 44.860110569329223 ], [ 3.361347735746421, 44.971408059295058 ], [ 3.43705430360478, 44.88162032001047 ], [ 3.473646089471566, 44.838222584567333 ], [ 3.632456845209293, 44.866588905368751 ], [ 3.862531048395956, 44.743865897361516 ], [ 3.998161545285952, 44.459798420075188 ], [ 3.911439393664911, 44.385057847943514 ], [ 3.941294403581454, 44.229062402823544 ], [ 3.8648125033429, 44.136638582608811 ], [ 3.691524950090845, 44.167372504344861 ], [ 3.53568468068669, 44.122062190090723 ], [ 3.437054304262788, 44.151703859149954 ], [ 3.373647950929334, 44.170759551946489 ] ] ] } },
{ "type": "Feature", "properties": { "NUTS_ID": "FRJ15", "name": "Pyrénées-Orientales" }, "geometry": { "type": "Polygon", "coordinates": [ [ [ 1.731010891408831, 42.492400832113177 ], [ 1.725801229804506, 42.504401992398201 ], [ 1.786098653150582, 42.573658103787693 ], [ 2.166048834338429, 42.663917600335907 ], [ 2.296526395520076, 42.746639395479086 ], [ 2.448220874963674, 42.842812557419087 ], [ 2.850691368528269, 42.897597801109882 ], [ 3.047712097756899, 42.859353074624515 ], [ 3.047640631459025, 42.746639395092487 ], [ 3.047537957012142, 42.584706533614948 ], [ 3.174022445931382, 42.435239137506656 ], [ 3.016326594120344, 42.449111294002392 ], [ 2.884434609406376, 42.460713541330136 ], [ 2.547207086173554, 42.343257135378259 ], [ 2.240354025879403, 42.432130066927662 ], [ 2.040046136854008, 42.361591638155872 ], [ 1.921569238681487, 42.451684998952565 ], [ 1.731010891408831, 42.492400832113177 ] ] ] } },
{ "type": "Feature", "properties": { "NUTS_ID": "FRJ21", "name": "Ariège" }, "geometry": { "type": "Polygon", "coordinates": [ [ [ 1.688423619959693, 43.273554533668822 ], [ 1.73545573402822, 43.18691650244353 ], [ 1.95472371637387, 43.094445325524568 ], [ 1.954643620389408, 42.989205566892196 ], [ 1.954544794102906, 42.859353074485334 ], [ 1.884469354230798, 42.820058655607404 ], [ 1.908601524262537, 42.77761168434094 ], [ 1.978734748341754, 42.746639395542992 ], [ 2.166048834338429, 42.663917600335907 ], [ 1.786098653150582, 42.573658103787693 ], [ 1.538226954953386, 42.641196368169709 ], [ 1.442566157058681, 42.603667848750284 ], [ 1.346086379468384, 42.70922164866581 ], [ 1.189416939552399, 42.746639395558311 ], [ 0.858215052673562, 42.825741153698694 ], [ 0.868721780307283, 42.925872419192942 ], [ 0.93186162322992, 42.989205566684987 ], [ 1.058882818428959, 43.116615638359889 ], [ 1.259167378167073, 43.126064718452191 ], [ 1.355184374536879, 43.273198393598015 ], [ 1.489537550830135, 43.236122676710288 ], [ 1.688423619959693, 43.273554533668822 ] ] ] } },
{ "type": "Feature", "properties": { "NUTS_ID": "FRJ22", "name": "Aveyron" }, "geometry": { "type": "Polygon", "coordinates": [ [ [ 2.207472909404315, 44.615528998881679 ], [ 2.491458373107096, 44.668556011465277 ], [ 2.727318808445039, 44.921678167935617 ], [ 2.860029057320622, 44.854494396555879 ], [ 2.981675742713492, 44.644672852119669 ], [ 3.016326593950991, 44.597212069583733 ], [ 3.118237680375401, 44.457625888198137 ], [ 3.168701247943972, 44.252365500801808 ], [ 3.373647950929334, 44.170759551946489 ], [ 3.33674042605417, 44.085339274930114 ], [ 3.425787300568547, 44.013083251119482 ], [ 3.358362081902179, 43.913829597120177 ], [ 3.103293642482553, 43.822137528190765 ], [ 3.016326593534514, 43.704582375428402 ], [ 2.935457041245205, 43.694664902162359 ], [ 2.660804536754355, 43.76453968600088 ], [ 2.387507419740772, 44.085080120259988 ], [ 2.133420545290151, 44.186392983773899 ], [ 1.990171943313394, 44.149449874962599 ], [ 1.882078086916621, 44.340069022004336 ], [ 1.870007539172665, 44.481519409735725 ], [ 2.207472909404315, 44.615528998881679 ] ] ] } },
{ "type": "Feature", "properties": { "NUTS_ID": "FRJ23", "name": "Haute-Garonne" }, "geometry": { "type": "Polygon", "coordinates": [ [ [ 0.953983222650556, 43.787370137606722 ], [ 1.255284129527846, 43.784460793469592 ], [ 1.555621952573613, 43.918317071429314 ], [ 1.727485835262228, 43.630273397942176 ], [ 2.029133777608374, 43.436895399044552 ], [ 1.861300143344827, 43.424603068666102 ], [ 1.688423619959693, 43.273554533668822 ], [ 1.489537550830135, 43.236122676710288 ], [ 1.355184374536879, 43.273198393598015 ], [ 1.259167378167073, 43.126064718452191 ], [ 1.058882818428959, 43.116615638359889 ], [ 0.93186162322992, 42.989205566684987 ], [ 0.868721780307283, 42.925872419192942 ], [ 0.858215052673562, 42.825741153698694 ], [ 0.715484319555137, 42.843456297618985 ], [ 0.680340775381494, 42.746639395401466 ], [ 0.670759356548681, 42.679686687598746 ], [ 0.477670137657815, 42.700047380608716 ], [ 0.47620907982977, 42.746639395026875 ], [ 0.47267454148416, 42.859353074142497 ], [ 0.627464968546707, 42.949428569248248 ], [ 0.592466058160299, 42.989205566934132 ], [ 0.46566231376315, 43.133320689402289 ], [ 0.606807310846698, 43.310883877246006 ], [ 0.670759355649115, 43.348820078974455 ], [ 0.775413473648648, 43.410900653787209 ], [ 0.984346780494766, 43.385898036807831 ], [ 1.174747236208222, 43.570749604508016 ], [ 0.953983222650556, 43.787370137606722 ] ] ] } },
{ "type": "Feature", "properties": { "NUTS_ID": "FRJ24", "name": "Gers" }, "geometry": { "type": "Polygon", "coordinates": [ [ [ 0.076043650594348, 43.983138448011196 ], [ 0.216369000462018, 44.000432619819257 ], [ 0.670759355707995, 44.056433229054143 ], [ 0.741884926762827, 44.065198985895726 ], [ 0.953983222650556, 43.787370137606722 ], [ 1.174747236208222, 43.570749604508016 ], [ 0.984346780494766, 43.385898036807831 ], [ 0.775413473648648, 43.410900653787209 ], [ 0.670759355649115, 43.348820078974455 ], [ 0.606807310846698, 43.310883877246006 ], [ 0.216369000292343, 43.378984937028008 ], [ 0.174045150826489, 43.396304916557881 ], [ 0.001310452622932, 43.574248836580871 ], [ -0.096788153399995, 43.582405081481475 ], [ -0.242832977495725, 43.584979136183648 ], [ -0.190120801344934, 43.898116274772626 ], [ -0.048707264831996, 43.96190159416151 ], [ 0.048781732405486, 43.925175094709104 ], [ 0.076043650594348, 43.983138448011196 ] ] ] } },
{ "type": "Feature", "properties": { "NUTS_ID": "FRJ25", "name": "Lot" }, "geometry": { "type": "Polygon", "coordinates": [ [ [ 1.448259777535339, 45.019313877432268 ], [ 1.610588157069734, 45.031551077574271 ], [ 1.779137208755232, 44.937833750241815 ], [ 2.06290792751846, 44.976504319142308 ], [ 2.207472909404315, 44.615528998881679 ], [ 1.870007539172665, 44.481519409735725 ], [ 1.882078086916621, 44.340069022004336 ], [ 1.365184151600799, 44.219711010189684 ], [ 1.064081333601077, 44.378508466257657 ], [ 1.022740091689408, 44.513366125014272 ], [ 1.075141938021976, 44.577325478316752 ], [ 1.394294040886144, 44.856329859971588 ], [ 1.448259777535339, 45.019313877432268 ] ] ] } },
{ "type": "Feature", "properties": { "NUTS_ID": "FRJ26", "name": "Hautes-Pyrénées " }, "geometry": { "type": "Polygon", "coordinates": [ [ [ -0.096788153399995, 43.582405081481475 ], [ 0.001310452622932, 43.574248836580871 ], [ 0.174045150826489, 43.396304916557881 ], [ 0.216369000292343, 43.378984937028008 ], [ 0.606807310846698, 43.310883877246006 ], [ 0.46566231376315, 43.133320689402289 ], [ 0.592466058160299, 42.989205566934132 ], [ 0.627464968546707, 42.949428569248248 ], [ 0.47267454148416, 42.859353074142497 ], [ 0.47620907982977, 42.746639395026875 ], [ 0.477670137657815, 42.700047380608716 ], [ 0.01081640494592, 42.697023550417256 ], [ -0.120433341113095, 42.746639395140178 ], [ -0.313341956515901, 42.84936493228723 ], [ -0.269487932791698, 42.989205566666548 ], [ -0.099282887366164, 43.183344273786261 ], [ -0.135129662204849, 43.279320598416476 ], [ -0.023035306576282, 43.351573840276494 ], [ -0.096788153399995, 43.582405081481475 ] ] ] } },
{ "type": "Feature", "properties": { "NUTS_ID": "FRJ27", "name": "Tarn" }, "geometry": { "type": "Polygon", "coordinates": [ [ [ 1.990171943313394, 44.149449874962599 ], [ 2.133420545290151, 44.186392983773899 ], [ 2.387507419740772, 44.085080120259988 ], [ 2.660804536754355, 43.76453968600088 ], [ 2.935457041245205, 43.694664902162359 ], [ 2.792703246415418, 43.62705143915759 ], [ 2.649182093362499, 43.638000883017078 ], [ 2.645183141514036, 43.470158005565992 ], [ 2.565659232505308, 43.422935927325206 ], [ 2.029133777608374, 43.436895399044552 ], [ 1.727485835262228, 43.630273397942176 ], [ 1.555621952573613, 43.918317071429314 ], [ 1.702089632415545, 44.098782499415883 ], [ 1.990171943313394, 44.149449874962599 ] ] ] } },
{ "type": "Feature", "properties": { "NUTS_ID": "FRJ28", "name": "Tarn-et-Garonne" }, "geometry": { "type": "Polygon", "coordinates": [ [ [ 1.064081333601077, 44.378508466257657 ], [ 1.365184151600799, 44.219711010189684 ], [ 1.882078086916621, 44.340069022004336 ], [ 1.990171943313394, 44.149449874962599 ], [ 1.702089632415545, 44.098782499415883 ], [ 1.555621952573613, 43.918317071429314 ], [ 1.255284129527846, 43.784460793469592 ], [ 0.953983222650556, 43.787370137606722 ], [ 0.741884926762827, 44.065198985895726 ], [ 0.890720269229395, 44.166749105124012 ], [ 0.931105099458146, 44.262298847089539 ], [ 0.895122933859646, 44.354957751697029 ], [ 1.064081333601077, 44.378508466257657 ] ] ] } },
{ "type": "Feature", "properties": { "NUTS_ID": "FRK11", "name": "Allier" }, "geometry": { "type": "Polygon", "coordinates": [ [ [ 3.62942229842545, 46.74945655071263 ], [ 3.75950874525058, 46.5418855398106 ], [ 3.985825651075707, 46.4487361709825 ], [ 3.980753239819037, 46.331675951378742 ], [ 3.899538573562416, 46.275907844916915 ], [ 3.807960004091029, 46.229792554008561 ], [ 3.805831283714431, 45.99909646872473 ], [ 3.694014908451232, 45.930728099888881 ], [ 3.4370543037556, 46.042588536555023 ], [ 3.039254948335162, 46.119816219825836 ], [ 2.886116287552175, 46.233153525843612 ], [ 2.565372303378343, 46.143036028895672 ], [ 2.281043456974719, 46.420403510186894 ], [ 2.5666932595028, 46.551402630731609 ], [ 2.695842931677857, 46.712854637854441 ], [ 3.032062772613794, 46.794909397701318 ], [ 3.194042104549965, 46.692703475305152 ], [ 3.437054303465417, 46.676465184983904 ], [ 3.48847800949148, 46.673029008321556 ], [ 3.62942229842545, 46.74945655071263 ] ] ] } },
{ "type": "Feature", "properties": { "NUTS_ID": "FRK12", "name": "Cantal" }, "geometry": { "type": "Polygon", "coordinates": [ [ [ 2.508412639875052, 45.478501337378724 ], [ 2.976641688136918, 45.313199005173516 ], [ 3.016326593628792, 45.326079048860727 ], [ 3.103500711173712, 45.354372080322776 ], [ 3.233756758436521, 45.239724266956394 ], [ 3.361347735746421, 44.971408059295058 ], [ 3.098338069168681, 44.860110569329223 ], [ 3.016326593459793, 44.708661806154069 ], [ 2.981675742713492, 44.644672852119669 ], [ 2.860029057320622, 44.854494396555879 ], [ 2.727318808445039, 44.921678167935617 ], [ 2.491458373107096, 44.668556011465277 ], [ 2.207472909404315, 44.615528998881679 ], [ 2.06290792751846, 44.976504319142308 ], [ 2.218337659472311, 45.23426598702698 ], [ 2.392881801835988, 45.387531647805446 ], [ 2.475210893819104, 45.396973508445804 ], [ 2.508412639875052, 45.478501337378724 ] ] ] } },
{ "type": "Feature", "properties": { "NUTS_ID": "FRK13", "name": "Haute-Loire" }, "geometry": { "type": "Polygon", "coordinates": [ [ [ 3.897408461210797, 45.357080073114389 ], [ 4.243310545750904, 45.379521310427343 ], [ 4.483132027498811, 45.236445421521026 ], [ 4.310254325485733, 44.99647578719275 ], [ 3.862531048395956, 44.743865897361516 ], [ 3.632456845209293, 44.866588905368751 ], [ 3.473646089471566, 44.838222584567333 ], [ 3.43705430360478, 44.88162032001047 ], [ 3.361347735746421, 44.971408059295058 ], [ 3.233756758436521, 45.239724266956394 ], [ 3.103500711173712, 45.354372080322776 ], [ 3.437054304262102, 45.405499424568369 ], [ 3.503868231165763, 45.415740713487345 ], [ 3.623255726767422, 45.357826499541616 ], [ 3.897408461210797, 45.357080073114389 ] ] ] } },
{ "type": "Feature", "properties": { "NUTS_ID": "FRK14", "name": "Puy-de-Dôme" }, "geometry": { "type": "Polygon", "coordinates": [ [ [ 2.492129388929607, 45.737669887524589 ], [ 2.430725595248944, 45.813974345288358 ], [ 2.594917112263759, 45.981014224663788 ], [ 2.565372303378343, 46.143036028895672 ], [ 2.886116287552175, 46.233153525843612 ], [ 3.039254948335162, 46.119816219825836 ], [ 3.4370543037556, 46.042588536555023 ], [ 3.694014908451232, 45.930728099888881 ], [ 3.716512989582223, 45.780978991674601 ], [ 3.948987345726716, 45.537401841076836 ], [ 3.897408461210797, 45.357080073114389 ], [ 3.623255726767422, 45.357826499541616 ], [ 3.503868231165763, 45.415740713487345 ], [ 3.437054304262102, 45.405499424568369 ], [ 3.103500711173712, 45.354372080322776 ], [ 3.016326593628792, 45.326079048860727 ], [ 2.976641688136918, 45.313199005173516 ], [ 2.508412639875052, 45.478501337378724 ], [ 2.492129388929607, 45.737669887524589 ] ] ] } },
{ "type": "Feature", "properties": { "NUTS_ID": "FRK21", "name": "Ain" }, "geometry": { "type": "Polygon", "coordinates": [ [ [ 5.31056370658737, 46.446770124796799 ], [ 5.461086513125887, 46.283820235534357 ], [ 5.649332763790392, 46.317601355023889 ], [ 5.77703531341322, 46.262525045775661 ], [ 5.901988397117099, 46.285726117189803 ], [ 6.064002809851224, 46.416229118848761 ], [ 6.14553146990148, 46.367102670900351 ], [ 6.125607767618814, 46.317230017215365 ], [ 5.956066776821599, 46.132095503840482 ], [ 5.826281707813528, 46.077559540555455 ], [ 5.831230183545808, 45.938457337826911 ], [ 5.761014267028495, 45.738064938899996 ], [ 5.623743219301621, 45.613268538266567 ], [ 5.36227061636304, 45.860753218461802 ], [ 5.218943230460674, 45.783741296589014 ], [ 5.101068991917053, 45.813378877193642 ], [ 4.941960134911429, 45.814354888776222 ], [ 4.766110282672213, 45.95339118729575 ], [ 4.780208587182289, 46.176675944376228 ], [ 4.945505253628488, 46.498015431286859 ], [ 5.152054810514268, 46.505334391497158 ], [ 5.31056370658737, 46.446770124796799 ] ] ] } },
{ "type": "Feature", "properties": { "NUTS_ID": "FRK22", "name": "Ardèche" }, "geometry": { "type": "Polygon", "coordinates": [ [ [ 3.998161545285952, 44.459798420075188 ], [ 3.862531048395956, 44.743865897361516 ], [ 4.310254325485733, 44.99647578719275 ], [ 4.483132027498811, 45.236445421521026 ], [ 4.75599971905303, 45.3656748832855 ], [ 4.800489857494709, 45.298357141077311 ], [ 4.87011962983416, 44.921667593025326 ], [ 4.771195295820144, 44.758971148307495 ], [ 4.650610830409566, 44.3298028597344 ], [ 4.649227380891729, 44.270360075615635 ], [ 4.510327262560057, 44.330123921910904 ], [ 4.202216247433282, 44.284441011882457 ], [ 4.084857470512216, 44.332331505144872 ], [ 3.998161545285952, 44.459798420075188 ] ] ] } },
{ "type": "Feature", "properties": { "NUTS_ID": "FRK23", "name": "Drôme" }, "geometry": { "type": "Polygon", "coordinates": [ [ [ 4.800489857494709, 45.298357141077311 ], [ 4.993802531146168, 45.331787799318725 ], [ 5.101165465233154, 45.288571255381633 ], [ 5.181250524256039, 45.223896592311 ], [ 5.209968966635426, 45.087936972513667 ], [ 5.472091144676758, 45.022967000329928 ], [ 5.48419418566716, 44.800736181862035 ], [ 5.80147003718104, 44.706777332962155 ], [ 5.642339327655924, 44.626466501093425 ], [ 5.603889289527515, 44.483944356396357 ], [ 5.453620249449244, 44.454094234456811 ], [ 5.461440478658636, 44.363288938689429 ], [ 5.640111325468568, 44.298441586814427 ], [ 5.676036113610167, 44.191428403709899 ], [ 5.498786261206102, 44.115716670691697 ], [ 5.17017176985325, 44.240399578636904 ], [ 4.981073321263906, 44.410678407709334 ], [ 4.896799685561471, 44.361850496752901 ], [ 4.875358168819497, 44.246038865470368 ], [ 4.650610830409566, 44.3298028597344 ], [ 4.771195295820144, 44.758971148307495 ], [ 4.87011962983416, 44.921667593025326 ], [ 4.800489857494709, 45.298357141077311 ] ] ] } },
{ "type": "Feature", "properties": { "NUTS_ID": "FRK24", "name": "Isère" }, "geometry": { "type": "Polygon", "coordinates": [ [ [ 4.75599971905303, 45.3656748832855 ], [ 4.756931673629734, 45.455703873526907 ], [ 4.862688916320674, 45.582170184489058 ], [ 5.098928492798608, 45.690079374962316 ], [ 5.101068991917053, 45.813378877193642 ], [ 5.218943230460674, 45.783741296589014 ], [ 5.36227061636304, 45.860753218461802 ], [ 5.623743219301621, 45.613268538266567 ], [ 5.809461424480442, 45.436095268656317 ], [ 5.967011192432454, 45.478826535507352 ], [ 6.146292220802882, 45.413895765294114 ], [ 6.14561420636428, 45.215670914554224 ], [ 6.260570012895009, 45.126843926498523 ], [ 6.222375391348801, 45.029655979650805 ], [ 6.338547260177394, 44.963681722920484 ], [ 6.336628119034775, 44.868953513968364 ], [ 6.134652003539621, 44.855893323851625 ], [ 5.80147003718104, 44.706777332962155 ], [ 5.48419418566716, 44.800736181862035 ], [ 5.472091144676758, 45.022967000329928 ], [ 5.209968966635426, 45.087936972513667 ], [ 5.181250524256039, 45.223896592311 ], [ 5.101165465233154, 45.288571255381633 ], [ 4.993802531146168, 45.331787799318725 ], [ 4.800489857494709, 45.298357141077311 ], [ 4.75599971905303, 45.3656748832855 ] ] ] } },
{ "type": "Feature", "properties": { "NUTS_ID": "FRK25", "name": "Loire" }, "geometry": { "type": "Polygon", "coordinates": [ [ [ 3.694014908451232, 45.930728099888881 ], [ 3.805831283714431, 45.99909646872473 ], [ 3.807960004091029, 46.229792554008561 ], [ 3.899538573562416, 46.275907844916915 ], [ 3.987284739649499, 46.179439744793903 ], [ 4.300052027577391, 46.174252607749047 ], [ 4.388074561483397, 46.219790366883757 ], [ 4.415427636382767, 46.155314000896446 ], [ 4.288876278212425, 46.036398165579648 ], [ 4.380703129520802, 45.853162490888593 ], [ 4.384137786407244, 45.66927264857646 ], [ 4.756931673629734, 45.455703873526907 ], [ 4.75599971905303, 45.3656748832855 ], [ 4.483132027498811, 45.236445421521026 ], [ 4.243310545750904, 45.379521310427343 ], [ 3.897408461210797, 45.357080073114389 ], [ 3.948987345726716, 45.537401841076836 ], [ 3.716512989582223, 45.780978991674601 ], [ 3.694014908451232, 45.930728099888881 ] ] ] } },
{ "type": "Feature", "properties": { "NUTS_ID": "FRK26", "name": "Rhône" }, "geometry": { "type": "Polygon", "coordinates": [ [ [ 4.780208587182289, 46.176675944376228 ], [ 4.766110282672213, 45.95339118729575 ], [ 4.941960134911429, 45.814354888776222 ], [ 5.101068991917053, 45.813378877193642 ], [ 5.098928492798608, 45.690079374962316 ], [ 4.862688916320674, 45.582170184489058 ], [ 4.756931673629734, 45.455703873526907 ], [ 4.384137786407244, 45.66927264857646 ], [ 4.380703129520802, 45.853162490888593 ], [ 4.288876278212425, 46.036398165579648 ], [ 4.415427636382767, 46.155314000896446 ], [ 4.388074561483397, 46.219790366883757 ], [ 4.442377176043695, 46.292460147904528 ], [ 4.662998302103324, 46.287638615584584 ], [ 4.780208587182289, 46.176675944376228 ] ] ] } }
]
}
