{
"type": "FeatureCollection",
"name": "HR",
"crs": { "type": "name", "properties": { "name": "urn:ogc:def:crs:OGC:1.3:CRS84" } },
"features": [
{ "type": "Feature", "properties": { "NUTS_ID": "HR021", "name": "Bjelovarsko-bilogorska županija" }, "geometry": { "type": "Polygon", "coordinates": [ [ [ 16.702197847417736, 45.923121119847885 ], [ 16.73449603621226, 46.030789292960023 ], [ 16.845160379821099, 46.069713024121164 ], [ 17.122021270542117, 45.883439075076858 ], [ 17.457808289543831, 45.706762631019586 ], [ 17.454532429482825, 45.631652716485455 ], [ 17.441591526752006, 45.575096914755136 ], [ 17.394630180497892, 45.521939852156123 ], [ 16.972548434912305, 45.525225666546724 ], [ 16.929961587447135, 45.48164600923873 ], [ 16.726243334300705, 45.631652716776912 ], [ 16.609920266592749, 45.67035589586493 ], [ 16.518987964497775, 45.764654461454306 ], [ 16.702197847417736, 45.923121119847885 ] ] ] } },
{ "type": "Feature", "properties": { "NUTS_ID": "HR022", "name": "Virovitičko-podravska županija" }, "geometry": { "type": "Polygon", "coordinates": [ [ [ 17.294325238383156, 45.988544468928048 ], [ 17.560927440510845, 45.927279386098363 ], [ 17.651498945426951, 45.847835499315266 ], [ 17.912089395644763, 45.790780647354524 ], [ 18.044721615008385, 45.640545138328143 ], [ 17.88573942690536, 45.473654417380907 ], [ 17.441591526752006, 45.575096914755136 ], [ 17.454532429482825, 45.631652716485455 ], [ 17.457808289543831, 45.706762631019586 ], [ 17.122021270542117, 45.883439075076858 ], [ 17.294325238383156, 45.988544468928048 ] ] ] } },
{ "type": "Feature", "properties": { "NUTS_ID": "HR023", "name": "Požeško-slavonska županija" }, "geometry": { "type": "Polygon", "coordinates": [ [ [ 16.929961587447135, 45.48164600923873 ], [ 16.972548434912305, 45.525225666546724 ], [ 17.394630180497892, 45.521939852156123 ], [ 17.441591526752006, 45.575096914755136 ], [ 17.88573942690536, 45.473654417380907 ], [ 18.075100602783632, 45.387106729452967 ], [ 18.072254895093298, 45.265695579560294 ], [ 17.913433084180618, 45.277069503732392 ], [ 17.771856834593763, 45.19842069216886 ], [ 17.40395821010182, 45.37894070539646 ], [ 17.175967384151978, 45.348597332386028 ], [ 16.929961587447135, 45.48164600923873 ] ] ] } },
{ "type": "Feature", "properties": { "NUTS_ID": "HR024", "name": "Brodsko-posavska županija" }, "geometry": { "type": "Polygon", "coordinates": [ [ [ 17.175967384151978, 45.348597332386028 ], [ 17.40395821010182, 45.37894070539646 ], [ 17.771856834593763, 45.19842069216886 ], [ 17.913433084180618, 45.277069503732392 ], [ 18.072254895093298, 45.265695579560294 ], [ 18.521114847408754, 45.23250416665244 ], [ 18.529553109873913, 45.088251286210699 ], [ 18.48340910560248, 45.061264541416342 ], [ 18.469348862641663, 45.066818436265663 ], [ 18.279048116076851, 45.120243838225143 ], [ 18.197291263951779, 45.078847556206384 ], [ 18.02253769487406, 45.14091024039314 ], [ 17.843007373451975, 45.057618005173907 ], [ 17.681943403642446, 45.120155842643925 ], [ 17.141192856802331, 45.163287926572117 ], [ 17.097629207281628, 45.222384416196256 ], [ 17.175967384151978, 45.348597332386028 ] ] ] } },
{ "type": "Feature", "properties": { "NUTS_ID": "HR025", "name": "Osječko-baranjska županija" }, "geometry": { "type": "Polygon", "coordinates": [ [ [ 18.521114847408754, 45.23250416665244 ], [ 18.072254895093298, 45.265695579560294 ], [ 18.075100602783632, 45.387106729452967 ], [ 17.88573942690536, 45.473654417380907 ], [ 18.044721615008385, 45.640545138328143 ], [ 17.912089395644763, 45.790780647354524 ], [ 18.440061128804789, 45.754164053214467 ], [ 18.671683112098741, 45.895819368855619 ], [ 18.821305917104969, 45.914383112866979 ], [ 18.889734226918243, 45.921180385274695 ], [ 18.872714159595638, 45.820678086362562 ], [ 18.959255696339238, 45.731861338844439 ], [ 18.946807979014608, 45.631652716118346 ], [ 18.930541004809093, 45.567537479726852 ], [ 19.062750391729626, 45.527687771428369 ], [ 19.033942110436563, 45.486821378747308 ], [ 19.005261752422548, 45.434630634084492 ], [ 18.825123793007446, 45.459548092347475 ], [ 18.659955334407464, 45.383704174776057 ], [ 18.521114847408754, 45.23250416665244 ] ] ] } },
{ "type": "Feature", "properties": { "NUTS_ID": "HR026", "name": "Vukovarsko-srijemska županija" }, "geometry": { "type": "Polygon", "coordinates": [ [ [ 19.004920775435927, 44.854158609139297 ], [ 18.830257255294644, 44.870932885138231 ], [ 18.785681341582027, 44.966247033912097 ], [ 18.708359754435026, 45.037653859316563 ], [ 18.529553109873913, 45.088251286210699 ], [ 18.521114847408754, 45.23250416665244 ], [ 18.659955334407464, 45.383704174776057 ], [ 18.825123793007446, 45.459548092347475 ], [ 19.005261752422548, 45.434630634084492 ], [ 19.006952593461367, 45.367975457717769 ], [ 19.396504645333259, 45.226193590672807 ], [ 19.42525675518722, 45.167717515388475 ], [ 19.228016445474442, 45.181959109626341 ], [ 19.102741742356482, 45.114799485687286 ], [ 19.12915645598677, 44.946331283352364 ], [ 19.015174366812811, 44.897311115599763 ], [ 19.022069416566858, 44.855353935858737 ], [ 19.004920775435927, 44.854158609139297 ] ] ] } },
{ "type": "Feature", "properties": { "NUTS_ID": "HR027", "name": "Karlovačka županija" }, "geometry": { "type": "Polygon", "coordinates": [ [ [ 15.226437266274834, 45.427088048602336 ], [ 15.357790718329376, 45.48031934048916 ], [ 15.297424709170842, 45.585687329359921 ], [ 15.308546419997503, 45.631652716349379 ], [ 15.330212923219612, 45.668654040103938 ], [ 15.259645549481737, 45.726086015696978 ], [ 15.316895887265431, 45.759725867347605 ], [ 15.331290255438596, 45.762855154951183 ], [ 15.514442690934555, 45.631652716551713 ], [ 15.922112107781986, 45.478587485364777 ], [ 15.789874032608784, 45.357976630446203 ], [ 15.840033894901905, 45.22453704346276 ], [ 15.73672187905445, 44.935631047919351 ], [ 15.47557880137451, 44.929186177892767 ], [ 15.425250895812564, 44.954617497372247 ], [ 15.221682010509809, 45.092363454947581 ], [ 15.109414366771045, 45.090681893586101 ], [ 15.059957894675287, 45.111239204115918 ], [ 15.016629402452697, 45.12303497848395 ], [ 14.982801885556027, 45.163945431293342 ], [ 14.977317362545183, 45.288604750206531 ], [ 15.109414366496413, 45.28343142958748 ], [ 15.171775354664273, 45.320178366428401 ], [ 15.226437266274834, 45.427088048602336 ] ] ] } },
{ "type": "Feature", "properties": { "NUTS_ID": "HR028", "name": "Sisačko-moslavačka županija" }, "geometry": { "type": "Polygon", "coordinates": [ [ [ 15.922112107781986, 45.478587485364777 ], [ 16.058618239390757, 45.49546199943223 ], [ 16.162924381442036, 45.616531399266051 ], [ 16.486853818094332, 45.595050084953776 ], [ 16.609920266592749, 45.67035589586493 ], [ 16.726243334300705, 45.631652716776912 ], [ 16.929961587447135, 45.48164600923873 ], [ 17.175967384151978, 45.348597332386028 ], [ 17.097629207281628, 45.222384416196256 ], [ 17.141192856802331, 45.163287926572117 ], [ 16.945102994489424, 45.244402348721287 ], [ 16.801571174891301, 45.192849737092182 ], [ 16.539576422383259, 45.224791215306446 ], [ 16.288761195675868, 44.995689667959937 ], [ 16.014531759150913, 45.195079629726486 ], [ 15.840033894901905, 45.22453704346276 ], [ 15.789874032608784, 45.357976630446203 ], [ 15.922112107781986, 45.478587485364777 ] ] ] } },
{ "type": "Feature", "properties": { "NUTS_ID": "HR031", "name": "Primorsko-goranska županija" }, "geometry": { "type": "MultiPolygon", "coordinates": [ [ [ [ 14.787230495184907, 45.500909420528615 ], [ 14.844816541009743, 45.469216683917679 ], [ 14.96249307419345, 45.511159546946082 ], [ 15.057328790342726, 45.492308922077065 ], [ 15.226437266274834, 45.427088048602336 ], [ 15.171775354664273, 45.320178366428401 ], [ 15.109414366496413, 45.28343142958748 ], [ 14.977317362545183, 45.288604750206531 ], [ 14.982801885556027, 45.163945431293342 ], [ 15.016629402452697, 45.12303497848395 ], [ 14.88127628373635, 45.031146917321202 ], [ 14.77288406470012, 45.088933481270637 ], [ 14.721993818980025, 44.972361723628268 ], [ 14.549687101348448, 45.025598223938388 ], [ 14.508566651825976, 45.241378004079749 ], [ 14.408459921103656, 45.310873554336688 ], [ 14.31330495832656, 45.294505848071161 ], [ 14.226404025447147, 45.153780500202565 ], [ 14.189151802126148, 45.403101766788453 ], [ 14.111284542155488, 45.482335502334983 ], [ 14.118196295984204, 45.481239102693145 ], [ 14.356950188379294, 45.484497934704663 ], [ 14.502525670534096, 45.579686990682426 ], [ 14.569820646375678, 45.672429028495763 ], [ 14.599410695307144, 45.631652716510573 ], [ 14.689006077593241, 45.581200593617069 ], [ 14.787230495184907, 45.500909420528615 ] ] ], [ [ [ 14.796774346602563, 44.760333356580681 ], [ 14.763075528439773, 44.746703297308706 ], [ 14.636631420721061, 44.790493061817045 ], [ 14.67461777955606, 44.840907368377103 ], [ 14.710784774735904, 44.84751390054938 ], [ 14.796774346602563, 44.760333356580681 ] ] ], [ [ [ 14.606726435937441, 44.511161781317767 ], [ 14.556200933806723, 44.427179946490817 ], [ 14.468086740491914, 44.476934153049271 ], [ 14.547529786077854, 44.541451792836391 ], [ 14.606726435937441, 44.511161781317767 ] ] ], [ [ [ 14.413841991970004, 44.630797864584515 ], [ 14.46767829753737, 44.520363174358401 ], [ 14.357632706051955, 44.543406406842145 ], [ 14.329918053001764, 44.593310878920931 ], [ 14.413841991970004, 44.630797864584515 ] ] ], [ [ [ 14.473989199575943, 44.963685133654423 ], [ 14.47569737215702, 44.625457688569135 ], [ 14.360932092065449, 44.685122469421685 ], [ 14.309540966648022, 44.919215037851771 ], [ 14.421090500341903, 44.996572189720865 ], [ 14.473989199575943, 44.963685133654423 ] ] ], [ [ [ 14.375707042712575, 45.0707736366763 ], [ 14.315729855297233, 45.058567869042804 ], [ 14.258302113821404, 45.124480791585711 ], [ 14.351083490524035, 45.179863150013546 ], [ 14.375707042712575, 45.0707736366763 ] ] ] ] } },
{ "type": "Feature", "properties": { "NUTS_ID": "HR032", "name": "Ličko-senjska županija" }, "geometry": { "type": "Polygon", "coordinates": [ [ [ 14.88127628373635, 45.031146917321202 ], [ 15.016629402452697, 45.12303497848395 ], [ 15.059957894675287, 45.111239204115918 ], [ 15.109414366771045, 45.090681893586101 ], [ 15.221682010509809, 45.092363454947581 ], [ 15.425250895812564, 44.954617497372247 ], [ 15.47557880137451, 44.929186177892767 ], [ 15.73672187905445, 44.935631047919351 ], [ 15.770413664144106, 44.782888088472696 ], [ 16.01112567798031, 44.65697692311916 ], [ 16.132056068872259, 44.45460778629883 ], [ 15.909688434397811, 44.488303643690266 ], [ 15.787977041490706, 44.414094230000899 ], [ 15.806883694820169, 44.314619051205717 ], [ 15.75657592347584, 44.278607152126554 ], [ 15.354110779590357, 44.402133680436719 ], [ 15.289482110492266, 44.363242547887367 ], [ 14.943564864316105, 44.566150159727606 ], [ 14.88127628373635, 45.031146917321202 ] ] ] } },
{ "type": "Feature", "properties": { "NUTS_ID": "HR033", "name": "Zadarska županija" }, "geometry": { "type": "MultiPolygon", "coordinates": [ [ [ [ 16.132056068872259, 44.45460778629883 ], [ 16.194874830422254, 44.264738403442344 ], [ 16.172855343560887, 44.210380450187699 ], [ 16.100661278510266, 44.149538835834178 ], [ 15.864578467429897, 44.112447078362585 ], [ 15.744942780294755, 43.886784430077768 ], [ 15.558876826706815, 43.871878659022151 ], [ 15.355896889371392, 43.962624936614645 ], [ 15.138635941581869, 44.327132413443508 ], [ 15.289482110492266, 44.363242547887367 ], [ 15.354110779590357, 44.402133680436719 ], [ 15.75657592347584, 44.278607152126554 ], [ 15.806883694820169, 44.314619051205717 ], [ 15.787977041490706, 44.414094230000899 ], [ 15.909688434397811, 44.488303643690266 ], [ 16.132056068872259, 44.45460778629883 ] ] ], [ [ [ 15.212498432094721, 43.901643657443927 ], [ 15.190281265917459, 43.87899101278127 ], [ 15.163348086403998, 43.902522377065566 ], [ 15.189698911053163, 43.924245515180068 ], [ 15.212498432094721, 43.901643657443927 ] ] ], [ [ [ 15.174773170573991, 43.91678929329553 ], [ 15.104562919100109, 43.90807646359773 ], [ 15.054729115466388, 43.972751297539425 ], [ 15.125669869577418, 43.984282096509382 ], [ 15.174773170573991, 43.91678929329553 ] ] ], [ [ [ 14.969217589216424, 44.535451567271288 ], [ 15.021774192099423, 44.451704513685904 ], [ 14.916887123312195, 44.456511091373294 ], [ 14.863365404012038, 44.521158163503308 ], [ 14.969217589216424, 44.535451567271288 ] ] ], [ [ [ 14.961382364528045, 44.196762671292731 ], [ 14.963836920278544, 44.092829577838252 ], [ 14.900417135476316, 44.118063721834289 ], [ 14.849291263977578, 44.209695933619351 ], [ 14.961382364528045, 44.196762671292731 ] ] ], [ [ [ 14.847338330877472, 44.382556660679626 ], [ 14.769340858983448, 44.345729395385469 ], [ 14.715786980145326, 44.44389111075855 ], [ 14.804536422663849, 44.452005054435105 ], [ 14.847338330877472, 44.382556660679626 ] ] ] ] } },
{ "type": "Feature", "properties": { "NUTS_ID": "HR034", "name": "Šibensko-kninska županija" }, "geometry": { "type": "MultiPolygon", "coordinates": [ [ [ [ 16.154686673017455, 43.661377856395681 ], [ 16.016525795516028, 43.501909958352407 ], [ 15.558876826706815, 43.871878659022151 ], [ 15.744942780294755, 43.886784430077768 ], [ 15.864578467429897, 44.112447078362585 ], [ 16.100661278510266, 44.149538835834178 ], [ 16.172855343560887, 44.210380450187699 ], [ 16.544347754571778, 43.974178334828672 ], [ 16.380225181790248, 43.9217939401018 ], [ 16.366946291715863, 43.759691439512551 ], [ 16.154686673017455, 43.661377856395681 ] ] ], [ [ [ 15.368451891924263, 43.778423627831202 ], [ 15.318572858569386, 43.766604790889289 ], [ 15.215577567635041, 43.836366636912636 ], [ 15.250473455441178, 43.881639658946654 ], [ 15.315478997513798, 43.885813442540247 ], [ 15.368555982549102, 43.834172729533122 ], [ 15.368451891924263, 43.778423627831202 ] ] ] ] } },
{ "type": "Feature", "properties": { "NUTS_ID": "HR035", "name": "Splitsko-dalmatinska županija" }, "geometry": { "type": "MultiPolygon", "coordinates": [ [ [ [ 17.013913334060661, 43.57620617599575 ], [ 17.2548589852452, 43.465562341589447 ], [ 17.317794157471688, 43.295816985172998 ], [ 17.450725956451741, 43.176943239598806 ], [ 17.356053558136644, 43.084161137849421 ], [ 16.815790761842653, 43.405197536697791 ], [ 16.349022243616439, 43.536362453779319 ], [ 16.146578301477309, 43.457505130065208 ], [ 16.016525795516028, 43.501909958352407 ], [ 16.154686673017455, 43.661377856395681 ], [ 16.366946291715863, 43.759691439512551 ], [ 16.380225181790248, 43.9217939401018 ], [ 16.544347754571778, 43.974178334828672 ], [ 17.013913334060661, 43.57620617599575 ] ] ], [ [ [ 16.957413072472171, 43.128502287418804 ], [ 16.895529843110616, 43.089123646988405 ], [ 16.788514630915394, 43.13640194736108 ], [ 16.895152545358862, 43.184698166835631 ], [ 16.957413072472171, 43.128502287418804 ] ] ], [ [ [ 16.735952964548567, 43.130910729428216 ], [ 16.634254969827257, 43.099060259805398 ], [ 16.507315345282638, 43.171133428624266 ], [ 16.650477947619898, 43.205655176378329 ], [ 16.735952964548567, 43.130910729428216 ] ] ], [ [ [ 16.748079933421412, 43.308321778880099 ], [ 16.585570324239125, 43.238993497187082 ], [ 16.383053941585693, 43.331553652663452 ], [ 16.570984187488946, 43.407375102052832 ], [ 16.748079933421412, 43.308321778880099 ] ] ], [ [ [ 16.337823885451762, 42.362034742648042 ], [ 16.261795266774403, 42.346410141940439 ], [ 16.170400427973831, 42.412157661666782 ], [ 16.270635665629953, 42.440162240045439 ], [ 16.337823885451762, 42.362034742648042 ] ] ], [ [ [ 16.392329538617535, 43.340851678032813 ], [ 16.318551641144733, 43.31354764357858 ], [ 16.257974540244817, 43.374980596263043 ], [ 16.338830764158349, 43.428521426523226 ], [ 16.392329538617535, 43.340851678032813 ] ] ], [ [ [ 16.218142951029815, 43.053935732246117 ], [ 16.13536428886956, 43.003535351943796 ], [ 16.037338863755249, 43.049974841475041 ], [ 16.135331278253805, 43.092799242826956 ], [ 16.218142951029815, 43.053935732246117 ] ] ] ] } },
{ "type": "Feature", "properties": { "NUTS_ID": "HR036", "name": "Istarska županija" }, "geometry": { "type": "Polygon", "coordinates": [ [ [ 13.585649206347798, 45.478531945103938 ], [ 13.704090062396277, 45.455750806031858 ], [ 13.921488758087223, 45.437637960503999 ], [ 14.001949577331645, 45.520062662891277 ], [ 14.111284542155488, 45.482335502334983 ], [ 14.189151802126148, 45.403101766788453 ], [ 14.226404025447147, 45.153780500202565 ], [ 13.965623069812652, 44.827057665623919 ], [ 13.894558986470381, 44.816040745243953 ], [ 13.603876420310099, 45.157976419590618 ], [ 13.533980518088526, 45.409862913035823 ], [ 13.585056297972038, 45.478721960342853 ], [ 13.585649206347798, 45.478531945103938 ] ] ] } },
{ "type": "Feature", "properties": { "NUTS_ID": "HR037", "name": "Dubrovačko-neretvanska županija" }, "geometry": { "type": "MultiPolygon", "coordinates": [ [ [ [ 18.438103880178378, 42.555705067591333 ], [ 18.525291915855671, 42.420556032416435 ], [ 17.773899226661332, 42.792058626743696 ], [ 17.605409763602591, 42.837945069618094 ], [ 17.642836690579692, 42.88422087601851 ], [ 17.649156620915484, 42.888923406143626 ], [ 17.862581803308089, 42.859353074112718 ], [ 18.236319192467928, 42.620531659556427 ], [ 18.324838319347524, 42.617125877330828 ], [ 18.438103880178378, 42.555705067591333 ] ] ], [ [ [ 17.565812712873896, 42.916616594203362 ], [ 17.515759942722372, 42.862360314200465 ], [ 17.238529420488902, 42.937861312425056 ], [ 17.356053558136644, 43.084161137849421 ], [ 17.450725956451741, 43.176943239598806 ], [ 17.679677964212534, 43.022905194234255 ], [ 17.684746246790457, 42.974287821662507 ], [ 17.581427894897395, 42.938382178065993 ], [ 17.581179189456812, 42.938315762110811 ], [ 17.575776111818097, 42.936872876889311 ], [ 17.573775779414778, 42.935524686666625 ], [ 17.570861233449445, 42.93356033387898 ], [ 17.56729485076303, 42.92882642854169 ], [ 17.565466676499071, 42.923188455665013 ], [ 17.565576483851906, 42.917262504642792 ], [ 17.565812712873896, 42.916616594203362 ] ] ], [ [ [ 16.984260982641313, 42.762507502822764 ], [ 16.894553974481248, 42.709793301269563 ], [ 16.798341285686071, 42.749772244334281 ], [ 16.894204199984927, 42.796577826464684 ], [ 16.984260982641313, 42.762507502822764 ] ] ] ] } },
{ "type": "Feature", "properties": { "NUTS_ID": "HR050", "name": "Grad Zagreb" }, "geometry": { "type": "Polygon", "coordinates": [ [ [ 15.956768766614672, 45.901594144748529 ], [ 16.154813314033326, 45.96877408322721 ], [ 16.189568161963198, 45.813114461669393 ], [ 15.910061810380231, 45.640843909681486 ], [ 15.81835207919908, 45.706806710679267 ], [ 15.862122052310093, 45.837820568538348 ], [ 15.956768766614672, 45.901594144748529 ] ] ] } },
{ "type": "Feature", "properties": { "NUTS_ID": "HR061", "name": "Međimurska županija" }, "geometry": { "type": "Polygon", "coordinates": [ [ [ 16.30154886347351, 46.378287902876245 ], [ 16.270729404361852, 46.432441486557018 ], [ 16.242148436167444, 46.490075568774294 ], [ 16.252237540161829, 46.500481741754953 ], [ 16.313045978354772, 46.524453953856352 ], [ 16.344073705581319, 46.541102005725669 ], [ 16.596804964532385, 46.47590243718723 ], [ 16.854754874494606, 46.35044098148223 ], [ 16.77362479795709, 46.304782608521492 ], [ 16.539576422914813, 46.312436038502305 ], [ 16.30154886347351, 46.378287902876245 ] ] ] } },
{ "type": "Feature", "properties": { "NUTS_ID": "HR062", "name": "Varaždinska županija" }, "geometry": { "type": "Polygon", "coordinates": [ [ [ 16.251275707117127, 46.071654556992151 ], [ 16.207285365713549, 46.189040028091448 ], [ 15.986020608527046, 46.194075227209289 ], [ 15.873473017674446, 46.279372294956858 ], [ 15.912867968592622, 46.289659483165408 ], [ 15.97188632488889, 46.307131484023387 ], [ 16.035099480577539, 46.336131510893608 ], [ 16.068875268473597, 46.350385229948458 ], [ 16.055900668625078, 46.390022383152612 ], [ 16.058116683776692, 46.39356600282953 ], [ 16.209010574632316, 46.384000078139351 ], [ 16.30154886347351, 46.378287902876245 ], [ 16.539576422914813, 46.312436038502305 ], [ 16.77362479795709, 46.304782608521492 ], [ 16.420628237496302, 46.130275879806469 ], [ 16.341374334221566, 46.027458522032852 ], [ 16.251275707117127, 46.071654556992151 ] ] ] } },
{ "type": "Feature", "properties": { "NUTS_ID": "HR063", "name": "Koprivničko-križevačka županija" }, "geometry": { "type": "Polygon", "coordinates": [ [ [ 16.341374334221566, 46.027458522032852 ], [ 16.420628237496302, 46.130275879806469 ], [ 16.77362479795709, 46.304782608521492 ], [ 16.854754874494606, 46.35044098148223 ], [ 16.876043515010554, 46.32060244865044 ], [ 17.142920907861392, 46.165739235094073 ], [ 17.294325238383156, 45.988544468928048 ], [ 17.122021270542117, 45.883439075076858 ], [ 16.845160379821099, 46.069713024121164 ], [ 16.73449603621226, 46.030789292960023 ], [ 16.702197847417736, 45.923121119847885 ], [ 16.539576423332679, 45.959843260081463 ], [ 16.341374334221566, 46.027458522032852 ] ] ] } },
{ "type": "Feature", "properties": { "NUTS_ID": "HR064", "name": "Krapinsko-zagorska županija" }, "geometry": { "type": "Polygon", "coordinates": [ [ [ 15.706406154041174, 45.975294373322036 ], [ 15.719908721354866, 46.054871456506696 ], [ 15.627262053073553, 46.085953418674194 ], [ 15.635970793183498, 46.185789907338041 ], [ 15.674853215916231, 46.227124035153935 ], [ 15.771852860240219, 46.224317066948416 ], [ 15.791475514417872, 46.259327495398814 ], [ 15.866545782094285, 46.275543444171149 ], [ 15.873473017674446, 46.279372294956858 ], [ 15.986020608527046, 46.194075227209289 ], [ 16.207285365713549, 46.189040028091448 ], [ 16.251275707117127, 46.071654556992151 ], [ 16.154813314033326, 45.96877408322721 ], [ 15.956768766614672, 45.901594144748529 ], [ 15.836965715641295, 45.977664012035731 ], [ 15.706406154041174, 45.975294373322036 ] ] ] } },
{ "type": "Feature", "properties": { "NUTS_ID": "HR065", "name": "Zagrebačka županija" }, "geometry": { "type": "Polygon", "coordinates": [ [ [ 15.331290255438596, 45.762855154951183 ], [ 15.404489318447142, 45.792765497876047 ], [ 15.478899825359472, 45.827496029634119 ], [ 15.537639245024344, 45.842205954914206 ], [ 15.662412526555379, 45.846447754266592 ], [ 15.706406154041174, 45.975294373322036 ], [ 15.836965715641295, 45.977664012035731 ], [ 15.956768766614672, 45.901594144748529 ], [ 15.862122052310093, 45.837820568538348 ], [ 15.81835207919908, 45.706806710679267 ], [ 15.910061810380231, 45.640843909681486 ], [ 16.189568161963198, 45.813114461669393 ], [ 16.154813314033326, 45.96877408322721 ], [ 16.251275707117127, 46.071654556992151 ], [ 16.341374334221566, 46.027458522032852 ], [ 16.539576423332679, 45.959843260081463 ], [ 16.702197847417736, 45.923121119847885 ], [ 16.518987964497775, 45.764654461454306 ], [ 16.609920266592749, 45.67035589586493 ], [ 16.486853818094332, 45.595050084953776 ], [ 16.162924381442036, 45.616531399266051 ], [ 16.058618239390757, 45.49546199943223 ], [ 15.922112107781986, 45.478587485364777 ], [ 15.514442690934555, 45.631652716551713 ], [ 15.331290255438596, 45.762855154951183 ] ] ] } }
]
}
