{
"type": "FeatureCollection",
"name": "HU",
"crs": { "type": "name", "properties": { "name": "urn:ogc:def:crs:OGC:1.3:CRS84" } },
"features": [
{ "type": "Feature", "properties": { "NUTS_ID": "HU110", "name": "Budapest" }, "geometry": { "type": "Polygon", "coordinates": [ [ [ 18.916811668713954, 47.577631399518431 ], [ 19.099966613523026, 47.607222362309905 ], [ 19.332490693429467, 47.47617752721068 ], [ 19.160912528482765, 47.362447948955037 ], [ 18.993769491024498, 47.389702086826702 ], [ 18.916811668713954, 47.577631399518431 ] ] ] } },
{ "type": "Feature", "properties": { "NUTS_ID": "HU120", "name": "Pest" }, "geometry": { "type": "Polygon", "coordinates": [ [ [ 18.965907359103397, 47.028964446440462 ], [ 18.885283606489047, 47.124210659770107 ], [ 18.896602420155673, 47.283737877095085 ], [ 18.688451709015464, 47.577046725436446 ], [ 18.851347934988748, 47.669675987796985 ], [ 18.903239558440916, 47.763380343322979 ], [ 18.849373507529343, 47.817225239212675 ], [ 18.78025765188594, 47.874650664989453 ], [ 18.781690558509471, 47.959771993214382 ], [ 18.92839250167021, 48.056743140308285 ], [ 19.071070175576406, 47.855359141449902 ], [ 19.385324372516308, 47.818848507555373 ], [ 19.471080510395943, 47.727262170893034 ], [ 19.570936788320445, 47.734899615198628 ], [ 19.666329379395393, 47.588549510270518 ], [ 19.988153940287827, 47.334882218266948 ], [ 20.078240053476904, 47.200604551887544 ], [ 20.094686809643541, 47.00740763788766 ], [ 19.782842660524022, 46.956253124755655 ], [ 19.553365993289404, 47.115537562617781 ], [ 19.341994548391462, 47.028595152305833 ], [ 19.248054800515419, 47.119598000271729 ], [ 18.965907359103397, 47.028964446440462 ] ], [ [ 18.916811668713954, 47.577631399518431 ], [ 18.993769491024498, 47.389702086826702 ], [ 19.160912528482765, 47.362447948955037 ], [ 19.332490693429467, 47.47617752721068 ], [ 19.099966613523026, 47.607222362309905 ], [ 18.916811668713954, 47.577631399518431 ] ] ] } },
{ "type": "Feature", "properties": { "NUTS_ID": "HU211", "name": "Fejér" }, "geometry": { "type": "Polygon", "coordinates": [ [ [ 18.205248346358928, 46.97163238677166 ], [ 18.218636176412716, 47.196171181391144 ], [ 18.035718842371633, 47.334342079202543 ], [ 18.154109742473224, 47.456727705841864 ], [ 18.340816667370927, 47.413000396993894 ], [ 18.514797472775538, 47.551779328661723 ], [ 18.688451709015464, 47.577046725436446 ], [ 18.896602420155673, 47.283737877095085 ], [ 18.885283606489047, 47.124210659770107 ], [ 18.965907359103397, 47.028964446440462 ], [ 18.92509709524467, 46.857168587666578 ], [ 18.660943191360968, 46.703708366985786 ], [ 18.555950335205313, 46.770365419617519 ], [ 18.210897514555203, 46.77816112603805 ], [ 18.205248346358928, 46.97163238677166 ] ] ] } },
{ "type": "Feature", "properties": { "NUTS_ID": "HU212", "name": "Komárom-Esztergom" }, "geometry": { "type": "Polygon", "coordinates": [ [ [ 17.893922756242731, 47.739456968348911 ], [ 18.849373507529343, 47.817225239212675 ], [ 18.903239558440916, 47.763380343322979 ], [ 18.851347934988748, 47.669675987796985 ], [ 18.688451709015464, 47.577046725436446 ], [ 18.514797472775538, 47.551779328661723 ], [ 18.340816667370927, 47.413000396993894 ], [ 18.154109742473224, 47.456727705841864 ], [ 18.035718842371633, 47.334342079202543 ], [ 17.883888001405197, 47.389586628931653 ], [ 17.893922756242731, 47.739456968348911 ] ] ] } },
{ "type": "Feature", "properties": { "NUTS_ID": "HU213", "name": "Veszprém" }, "geometry": { "type": "Polygon", "coordinates": [ [ [ 17.074528569221464, 47.048713379849424 ], [ 17.207555974493467, 47.11006920621324 ], [ 17.234460833924373, 47.339214224031117 ], [ 17.172391891381658, 47.43248410106137 ], [ 17.704799159436568, 47.456514878396277 ], [ 17.779844305745801, 47.333622649699635 ], [ 17.883888001405197, 47.389586628931653 ], [ 18.035718842371633, 47.334342079202543 ], [ 18.218636176412716, 47.196171181391144 ], [ 18.205248346358928, 46.97163238677166 ], [ 17.419067436528803, 46.750656330784608 ], [ 17.074528569221464, 47.048713379849424 ] ] ] } },
{ "type": "Feature", "properties": { "NUTS_ID": "HU221", "name": "Győr-Moson-Sopron" }, "geometry": { "type": "Polygon", "coordinates": [ [ [ 17.160797384405882, 48.00665656242419 ], [ 17.247427296701833, 48.012008995987046 ], [ 17.705436496202939, 47.758992498011835 ], [ 17.893922756242731, 47.739456968348911 ], [ 17.883888001405197, 47.389586628931653 ], [ 17.779844305745801, 47.333622649699635 ], [ 17.704799159436568, 47.456514878396277 ], [ 17.172391891381658, 47.43248410106137 ], [ 16.646220083977436, 47.446596932575964 ], [ 16.687789202225311, 47.570231612343711 ], [ 16.539576423400167, 47.636691180811596 ], [ 16.421542384692948, 47.66529808788647 ], [ 16.567155430437559, 47.73015455769378 ], [ 17.030464278363077, 47.713092678995864 ], [ 17.160797384405882, 48.00665656242419 ] ] ] } },
{ "type": "Feature", "properties": { "NUTS_ID": "HU222", "name": "Vas" }, "geometry": { "type": "Polygon", "coordinates": [ [ [ 16.646220083977436, 47.446596932575964 ], [ 17.172391891381658, 47.43248410106137 ], [ 17.234460833924373, 47.339214224031117 ], [ 17.207555974493467, 47.11006920621324 ], [ 17.074528569221464, 47.048713379849424 ], [ 16.539576422892829, 46.84090665125288 ], [ 16.370793261080035, 46.722243534061995 ], [ 16.31216147079326, 46.778002425408737 ], [ 16.313080190738379, 46.797578209867503 ], [ 16.336415220218953, 46.805338521050089 ], [ 16.346938412431925, 46.834465624799968 ], [ 16.297566577861904, 46.866372461711386 ], [ 16.175273883483072, 46.85709584173474 ], [ 16.134600967539935, 46.856080984821808 ], [ 16.113849224648447, 46.869068117143819 ], [ 16.456144163039866, 47.025006569137382 ], [ 16.433761690702887, 47.352918665367746 ], [ 16.539576422572694, 47.409531000368204 ], [ 16.646220083977436, 47.446596932575964 ] ] ] } },
{ "type": "Feature", "properties": { "NUTS_ID": "HU223", "name": "Zala" }, "geometry": { "type": "Polygon", "coordinates": [ [ [ 16.854754874494606, 46.35044098148223 ], [ 16.596804964532385, 46.47590243718723 ], [ 16.539576423583966, 46.49876000998222 ], [ 16.501053125766106, 46.565903206294294 ], [ 16.390379310087031, 46.638222252940494 ], [ 16.393412411127727, 46.661802876643662 ], [ 16.368553271586038, 46.704229407882025 ], [ 16.370793261080035, 46.722243534061995 ], [ 16.539576422892829, 46.84090665125288 ], [ 17.074528569221464, 47.048713379849424 ], [ 17.419067436528803, 46.750656330784608 ], [ 17.246785470433618, 46.698442641097493 ], [ 17.179737577006215, 46.441014746810659 ], [ 16.999040520361589, 46.315335780221069 ], [ 16.876043515010554, 46.32060244865044 ], [ 16.854754874494606, 46.35044098148223 ] ] ] } },
{ "type": "Feature", "properties": { "NUTS_ID": "HU231", "name": "Baranya" }, "geometry": { "type": "Polygon", "coordinates": [ [ [ 17.912089395644763, 45.790780647354524 ], [ 17.651498945426951, 45.847835499315266 ], [ 17.716311236919854, 45.885372556748493 ], [ 17.637000006020614, 46.008144088795468 ], [ 17.706631067926288, 46.176041186200614 ], [ 18.052896090464227, 46.29581434573317 ], [ 18.323241392862048, 46.399923899794771 ], [ 18.411339858356428, 46.28224408163863 ], [ 18.507321834390865, 46.281456957010505 ], [ 18.802291226372773, 46.108765095519232 ], [ 18.757617103907904, 46.051593952464756 ], [ 18.844727851497968, 46.013732805369528 ], [ 18.821305917104969, 45.914383112866979 ], [ 18.671683112098741, 45.895819368855619 ], [ 18.440061128804789, 45.754164053214467 ], [ 17.912089395644763, 45.790780647354524 ] ] ] } },
{ "type": "Feature", "properties": { "NUTS_ID": "HU232", "name": "Somogy" }, "geometry": { "type": "Polygon", "coordinates": [ [ [ 16.876043515010554, 46.32060244865044 ], [ 16.999040520361589, 46.315335780221069 ], [ 17.179737577006215, 46.441014746810659 ], [ 17.246785470433618, 46.698442641097493 ], [ 17.419067436528803, 46.750656330784608 ], [ 18.205248346358928, 46.97163238677166 ], [ 18.210897514555203, 46.77816112603805 ], [ 18.049600962638738, 46.567543440134635 ], [ 18.052896090464227, 46.29581434573317 ], [ 17.706631067926288, 46.176041186200614 ], [ 17.637000006020614, 46.008144088795468 ], [ 17.716311236919854, 45.885372556748493 ], [ 17.651498945426951, 45.847835499315266 ], [ 17.560927440510845, 45.927279386098363 ], [ 17.294325238383156, 45.988544468928048 ], [ 17.142920907861392, 46.165739235094073 ], [ 16.876043515010554, 46.32060244865044 ] ] ] } },
{ "type": "Feature", "properties": { "NUTS_ID": "HU233", "name": "Tolna" }, "geometry": { "type": "Polygon", "coordinates": [ [ [ 18.210897514555203, 46.77816112603805 ], [ 18.555950335205313, 46.770365419617519 ], [ 18.660943191360968, 46.703708366985786 ], [ 18.92509709524467, 46.857168587666578 ], [ 18.987843048134344, 46.710328914498859 ], [ 18.899432397547976, 46.620684960127171 ], [ 18.907327816360578, 46.291204741984963 ], [ 18.802291226372773, 46.108765095519232 ], [ 18.507321834390865, 46.281456957010505 ], [ 18.411339858356428, 46.28224408163863 ], [ 18.323241392862048, 46.399923899794771 ], [ 18.052896090464227, 46.29581434573317 ], [ 18.049600962638738, 46.567543440134635 ], [ 18.210897514555203, 46.77816112603805 ] ] ] } },
{ "type": "Feature", "properties": { "NUTS_ID": "HU311", "name": "Borsod-Abaúj-Zemplén" }, "geometry": { "type": "Polygon", "coordinates": [ [ [ 20.771698567654752, 47.65447614707773 ], [ 20.512982296542503, 47.805188349222554 ], [ 20.451063926004686, 48.133644161801342 ], [ 20.093064628424607, 48.143220565623096 ], [ 20.051878785909643, 48.167704144531918 ], [ 20.324878706653351, 48.289022570744471 ], [ 20.405049541644029, 48.380144093748619 ], [ 20.463936983430447, 48.463966988069295 ], [ 20.689868851271662, 48.562236010258054 ], [ 21.115185589247343, 48.508192219315596 ], [ 21.417283972878394, 48.566357001150472 ], [ 21.602601214278195, 48.492776663793109 ], [ 21.765968220504966, 48.347171315199468 ], [ 22.130422882566023, 48.380144093294078 ], [ 21.915840043417326, 48.248721808521161 ], [ 21.500468305363725, 48.17591009212402 ], [ 21.387311178105364, 48.03696587001977 ], [ 21.124612975243096, 48.029152047263139 ], [ 21.122180774465221, 47.961826894308174 ], [ 21.034256377893531, 47.756593993014398 ], [ 20.827972001264136, 47.659017658824979 ], [ 20.771698567654752, 47.65447614707773 ] ] ] } },
{ "type": "Feature", "properties": { "NUTS_ID": "HU312", "name": "Heves" }, "geometry": { "type": "Polygon", "coordinates": [ [ [ 19.570936788320445, 47.734899615198628 ], [ 19.782767868391772, 47.89633146234241 ], [ 19.946449562052901, 47.945635796297815 ], [ 19.994575394800364, 48.09219136747987 ], [ 20.093064628424607, 48.143220565623096 ], [ 20.451063926004686, 48.133644161801342 ], [ 20.512982296542503, 47.805188349222554 ], [ 20.771698567654752, 47.65447614707773 ], [ 20.405795754026343, 47.433563175822705 ], [ 20.221962153300765, 47.589509811198219 ], [ 20.066922219849435, 47.572378507877808 ], [ 19.967284544950264, 47.660451960951214 ], [ 19.666329379395393, 47.588549510270518 ], [ 19.570936788320445, 47.734899615198628 ] ] ] } },
{ "type": "Feature", "properties": { "NUTS_ID": "HU313", "name": "Nógrád" }, "geometry": { "type": "Polygon", "coordinates": [ [ [ 18.92839250167021, 48.056743140308285 ], [ 19.014322597321353, 48.077736526989533 ], [ 19.456300225266837, 48.101941562902674 ], [ 19.618975185879155, 48.236084572363161 ], [ 19.907835561683214, 48.14588694642174 ], [ 20.051878785909643, 48.167704144531918 ], [ 20.093064628424607, 48.143220565623096 ], [ 19.994575394800364, 48.09219136747987 ], [ 19.946449562052901, 47.945635796297815 ], [ 19.782767868391772, 47.89633146234241 ], [ 19.570936788320445, 47.734899615198628 ], [ 19.471080510395943, 47.727262170893034 ], [ 19.385324372516308, 47.818848507555373 ], [ 19.071070175576406, 47.855359141449902 ], [ 18.92839250167021, 48.056743140308285 ] ] ] } },
{ "type": "Feature", "properties": { "NUTS_ID": "HU321", "name": "Hajdú-Bihar" }, "geometry": { "type": "Polygon", "coordinates": [ [ [ 20.827972001264136, 47.659017658824979 ], [ 21.034256377893531, 47.756593993014398 ], [ 21.122180774465221, 47.961826894308174 ], [ 21.539925787626881, 47.921457904224575 ], [ 21.555147024670035, 47.799111450223485 ], [ 21.62047919314454, 47.742028148920461 ], [ 21.811449577364414, 47.680717013778356 ], [ 21.943957542351189, 47.717174673393451 ], [ 22.128230234699458, 47.59808935441886 ], [ 21.798781904559362, 47.132297528949465 ], [ 21.658955200081223, 47.022131523723623 ], [ 21.505550716499062, 46.952559578206817 ], [ 21.302395873088031, 47.000287668563466 ], [ 21.25077633228161, 47.040768057646595 ], [ 21.280938075693992, 47.139683411819355 ], [ 20.99206759642907, 47.232319946311549 ], [ 20.98148149045408, 47.519143342170459 ], [ 20.827972001264136, 47.659017658824979 ] ] ] } },
{ "type": "Feature", "properties": { "NUTS_ID": "HU322", "name": "Jász-Nagykun-Szolnok" }, "geometry": { "type": "Polygon", "coordinates": [ [ [ 20.094686809643541, 47.00740763788766 ], [ 20.078240053476904, 47.200604551887544 ], [ 19.988153940287827, 47.334882218266948 ], [ 19.666329379395393, 47.588549510270518 ], [ 19.967284544950264, 47.660451960951214 ], [ 20.066922219849435, 47.572378507877808 ], [ 20.221962153300765, 47.589509811198219 ], [ 20.405795754026343, 47.433563175822705 ], [ 20.771698567654752, 47.65447614707773 ], [ 20.827972001264136, 47.659017658824979 ], [ 20.98148149045408, 47.519143342170459 ], [ 20.99206759642907, 47.232319946311549 ], [ 20.726758656170411, 47.028327652614045 ], [ 20.693812407523392, 46.928135471397283 ], [ 20.460147323920516, 46.893637190646729 ], [ 20.424265443378783, 46.803470461600796 ], [ 20.166903732178838, 46.768759454335509 ], [ 20.0611623822432, 46.806390621505251 ], [ 20.139726434336119, 46.93460287762845 ], [ 20.094686809643541, 47.00740763788766 ] ] ] } },
{ "type": "Feature", "properties": { "NUTS_ID": "HU323", "name": "Szabolcs-Szatmár-Bereg" }, "geometry": { "type": "Polygon", "coordinates": [ [ [ 22.130422882566023, 48.380144093294078 ], [ 22.155305928265857, 48.403396528291104 ], [ 22.207222927289596, 48.415940200776205 ], [ 22.250634369417085, 48.380144093427752 ], [ 22.281664343438287, 48.347336814721146 ], [ 22.370331628193256, 48.25359093409228 ], [ 22.430308629262917, 48.247374751380001 ], [ 22.469316738376602, 48.236768197604576 ], [ 22.531912540428163, 48.219747998430549 ], [ 22.626287257712129, 48.105122879835633 ], [ 22.825931915893335, 48.097064594760184 ], [ 22.896270513298973, 47.954120534091558 ], [ 22.693776774486114, 47.802332676646081 ], [ 22.430308628690831, 47.758870354326689 ], [ 22.271069142245565, 47.721615402929096 ], [ 22.180837315509567, 47.60009435743855 ], [ 22.128230234699458, 47.59808935441886 ], [ 21.943957542351189, 47.717174673393451 ], [ 21.811449577364414, 47.680717013778356 ], [ 21.62047919314454, 47.742028148920461 ], [ 21.555147024670035, 47.799111450223485 ], [ 21.539925787626881, 47.921457904224575 ], [ 21.122180774465221, 47.961826894308174 ], [ 21.124612975243096, 48.029152047263139 ], [ 21.387311178105364, 48.03696587001977 ], [ 21.500468305363725, 48.17591009212402 ], [ 21.915840043417326, 48.248721808521161 ], [ 22.130422882566023, 48.380144093294078 ] ] ] } },
{ "type": "Feature", "properties": { "NUTS_ID": "HU331", "name": "Bács-Kiskun" }, "geometry": { "type": "Polygon", "coordinates": [ [ [ 18.821305917104969, 45.914383112866979 ], [ 18.844727851497968, 46.013732805369528 ], [ 18.757617103907904, 46.051593952464756 ], [ 18.802291226372773, 46.108765095519232 ], [ 18.907327816360578, 46.291204741984963 ], [ 18.899432397547976, 46.620684960127171 ], [ 18.987843048134344, 46.710328914498859 ], [ 18.92509709524467, 46.857168587666578 ], [ 18.965907359103397, 47.028964446440462 ], [ 19.248054800515419, 47.119598000271729 ], [ 19.341994548391462, 47.028595152305833 ], [ 19.553365993289404, 47.115537562617781 ], [ 19.782842660524022, 46.956253124755655 ], [ 20.094686809643541, 47.00740763788766 ], [ 20.139726434336119, 46.93460287762845 ], [ 20.0611623822432, 46.806390621505251 ], [ 19.992313345354905, 46.736350928090033 ], [ 19.973373165654849, 46.581165851064696 ], [ 19.807315869879215, 46.535365162174259 ], [ 19.875869736156353, 46.475483935733486 ], [ 19.861158479537679, 46.40129159171655 ], [ 19.676869168073814, 46.335063116643852 ], [ 19.698098775235206, 46.187930896303286 ], [ 19.572542475865731, 46.167764917449524 ], [ 19.302709396396335, 45.991550553510166 ], [ 19.11061960656118, 46.017029947409547 ], [ 19.023358659648615, 45.936491362855882 ], [ 18.889734226918243, 45.921180385274695 ], [ 18.821305917104969, 45.914383112866979 ] ] ] } },
{ "type": "Feature", "properties": { "NUTS_ID": "HU332", "name": "Békés" }, "geometry": { "type": "Polygon", "coordinates": [ [ [ 20.99206759642907, 47.232319946311549 ], [ 21.280938075693992, 47.139683411819355 ], [ 21.25077633228161, 47.040768057646595 ], [ 21.302395873088031, 47.000287668563466 ], [ 21.505550716499062, 46.952559578206817 ], [ 21.658955200081223, 47.022131523723623 ], [ 21.441398021259612, 46.651467104929772 ], [ 21.314099507611033, 46.597395896694401 ], [ 21.293305446736365, 46.430624462158541 ], [ 21.155802178113145, 46.308366748693693 ], [ 21.04128001954172, 46.25158220448936 ], [ 20.775600194482472, 46.275909916160835 ], [ 20.73236160806518, 46.362990570172592 ], [ 20.587429517672994, 46.385643756653735 ], [ 20.57995675356171, 46.747524178747 ], [ 20.424265443378783, 46.803470461600796 ], [ 20.460147323920516, 46.893637190646729 ], [ 20.693812407523392, 46.928135471397283 ], [ 20.726758656170411, 47.028327652614045 ], [ 20.99206759642907, 47.232319946311549 ] ] ] } },
{ "type": "Feature", "properties": { "NUTS_ID": "HU333", "name": "Csongrád-Csanád" }, "geometry": { "type": "Polygon", "coordinates": [ [ [ 20.0611623822432, 46.806390621505251 ], [ 20.166903732178838, 46.768759454335509 ], [ 20.424265443378783, 46.803470461600796 ], [ 20.57995675356171, 46.747524178747 ], [ 20.587429517672994, 46.385643756653735 ], [ 20.73236160806518, 46.362990570172592 ], [ 20.775600194482472, 46.275909916160835 ], [ 20.705303478874171, 46.160937350966272 ], [ 20.264296224765818, 46.126373643191954 ], [ 19.865389789565892, 46.150334617041786 ], [ 19.698098775235206, 46.187930896303286 ], [ 19.676869168073814, 46.335063116643852 ], [ 19.861158479537679, 46.40129159171655 ], [ 19.875869736156353, 46.475483935733486 ], [ 19.807315869879215, 46.535365162174259 ], [ 19.973373165654849, 46.581165851064696 ], [ 19.992313345354905, 46.736350928090033 ], [ 20.0611623822432, 46.806390621505251 ] ] ] } }
]
}
