{
"type": "FeatureCollection",
"name": "IE",
"crs": { "type": "name", "properties": { "name": "urn:ogc:def:crs:OGC:1.3:CRS84" } },
"features": [
{ "type": "Feature", "properties": { "NUTS_ID": "IE041", "name": "Border" }, "geometry": { "type": "MultiPolygon", "coordinates": [ [ [ [ -7.037496799490671, 55.241183658550874 ], [ -7.256068589437315, 55.067034966999827 ], [ -7.381578008966718, 55.004709297482307 ], [ -7.569371129981596, 54.762916288997587 ], [ -7.82091934579245, 54.69825346804442 ], [ -7.703411741741595, 54.60828787419409 ], [ -7.996290759500571, 54.533851330992896 ], [ -8.131701304629352, 54.429608629232455 ], [ -7.835656626254178, 54.223655250767038 ], [ -7.650500458333538, 54.168258098761569 ], [ -7.529851643770978, 54.13216099778964 ], [ -7.34325483841132, 54.142120196582376 ], [ -7.290791430102518, 54.168258098342747 ], [ -7.180783253549619, 54.223065497072227 ], [ -7.188510303459504, 54.337681028029536 ], [ -7.018495297523678, 54.407485340035969 ], [ -6.864229730664453, 54.330165639712213 ], [ -6.78910778363301, 54.213434764134547 ], [ -6.643909148872876, 54.18001940103909 ], [ -6.595093107251577, 54.044582470472918 ], [ -6.592246790538312, 53.975624782033599 ], [ -6.933968540083534, 53.864271367869883 ], [ -6.980504335713258, 53.78077635277522 ], [ -7.343667914429434, 53.799052000308976 ], [ -7.648426771503908, 53.924948773748021 ], [ -7.806562588162299, 53.825152175677836 ], [ -7.918769884887261, 53.821485633959632 ], [ -8.075907531086104, 53.944711902459986 ], [ -8.115663221224931, 54.091918819004377 ], [ -8.453300488022624, 53.939123232702109 ], [ -8.646569347250173, 54.017699243117377 ], [ -8.974709863531354, 54.022831942484011 ], [ -8.961058680473652, 54.126179851846274 ], [ -9.128069069203276, 54.16825809872887 ], [ -9.002099111082497, 54.2712868286063 ], [ -8.673771298326423, 54.28700087363319 ], [ -8.246654856619564, 54.549191627954869 ], [ -8.256581604334894, 54.604257799984964 ], [ -8.476455927645819, 54.605169639206025 ], [ -8.673234730626934, 54.692609722163944 ], [ -8.470272605826983, 54.845351503121279 ], [ -8.420471325501564, 55.00742629316025 ], [ -8.327489748621421, 55.094077807114566 ], [ -7.71218650442529, 55.234462783344796 ], [ -7.539589622043225, 55.114995761682344 ], [ -7.488445226700736, 55.252140469773266 ], [ -7.325121657810944, 55.334385402969176 ], [ -7.037496799490671, 55.241183658550874 ] ] ], [ [ [ -8.464967923494392, 54.993632458763457 ], [ -8.503503326270497, 54.94955292941254 ], [ -8.619693273463449, 54.960251452070047 ], [ -8.538108377791792, 55.046397147929383 ], [ -8.464967923494392, 54.993632458763457 ] ] ] ] } },
{ "type": "Feature", "properties": { "NUTS_ID": "IE042", "name": "West" }, "geometry": { "type": "Polygon", "coordinates": [ [ [ -9.128069069203276, 54.16825809872887 ], [ -8.961058680473652, 54.126179851846274 ], [ -8.974709863531354, 54.022831942484011 ], [ -8.646569347250173, 54.017699243117377 ], [ -8.453300488022624, 53.939123232702109 ], [ -8.115663221224931, 54.091918819004377 ], [ -8.075907531086104, 53.944711902459986 ], [ -7.918769884887261, 53.821485633959632 ], [ -7.945438732193434, 53.730840432796967 ], [ -8.018219808445821, 53.633014529279698 ], [ -7.935963236918203, 53.373238923867703 ], [ -8.034004604572868, 53.294389970706263 ], [ -7.997319352064736, 53.216578676922033 ], [ -8.081460553278433, 53.166813109934758 ], [ -8.32262163880292, 52.996330896816218 ], [ -8.460263312233339, 52.980697296732494 ], [ -8.589680219705309, 53.0364820356221 ], [ -8.843943427702738, 52.978380886192312 ], [ -8.900190875616317, 53.045383875928181 ], [ -9.00930869330549, 53.140817575809407 ], [ -9.121368964304569, 53.246996958257562 ], [ -9.752346130257814, 53.258225240290393 ], [ -10.102438760057616, 53.476481060301637 ], [ -9.769763496719504, 53.809488903679572 ], [ -9.890026121259718, 53.984184619342727 ], [ -9.985894054175768, 53.997817823999199 ], [ -9.960793357580386, 54.112482416789327 ], [ -10.047047657488834, 54.201900048391529 ], [ -10.018858806566021, 54.255339124502449 ], [ -9.745573835219318, 54.327156176758663 ], [ -9.411249492566789, 54.313508179371986 ], [ -9.128069069203276, 54.16825809872887 ] ] ] } },
{ "type": "Feature", "properties": { "NUTS_ID": "IE051", "name": "Mid-West " }, "geometry": { "type": "Polygon", "coordinates": [ [ [ -9.00930869330549, 53.140817575809407 ], [ -8.900190875616317, 53.045383875928181 ], [ -8.843943427702738, 52.978380886192312 ], [ -8.589680219705309, 53.0364820356221 ], [ -8.460263312233339, 52.980697296732494 ], [ -8.32262163880292, 52.996330896816218 ], [ -8.081460553278433, 53.166813109934758 ], [ -7.93798860223134, 53.090536972281171 ], [ -8.011235448590671, 52.883181283315622 ], [ -7.77568046329792, 52.96060724807797 ], [ -7.674132354888885, 52.781284159868235 ], [ -7.476857027464592, 52.609016060003214 ], [ -7.403175945431729, 52.370215785786847 ], [ -7.760099394195011, 52.339870265632669 ], [ -7.782646236259368, 52.223915116983122 ], [ -8.104716990186128, 52.206484528007451 ], [ -8.726229012398189, 52.377081840039317 ], [ -8.985828756720204, 52.308209185532107 ], [ -9.245748442424521, 52.316741101381744 ], [ -9.365202981713368, 52.572118790795962 ], [ -9.664812817565963, 52.652030970662878 ], [ -9.491207474386606, 52.800957285809922 ], [ -9.293382190248359, 53.09459495241888 ], [ -9.00930869330549, 53.140817575809407 ] ] ] } },
{ "type": "Feature", "properties": { "NUTS_ID": "IE052", "name": "South-East " }, "geometry": { "type": "Polygon", "coordinates": [ [ [ -7.842156246500953, 51.954218583007034 ], [ -8.025432544058729, 52.073256392288165 ], [ -8.104716990186128, 52.206484528007451 ], [ -7.782646236259368, 52.223915116983122 ], [ -7.760099394195011, 52.339870265632669 ], [ -7.403175945431729, 52.370215785786847 ], [ -7.476857027464592, 52.609016060003214 ], [ -7.674132354888885, 52.781284159868235 ], [ -7.205406117858457, 52.876408461616705 ], [ -7.008122492824616, 52.815948156383527 ], [ -6.939419464109966, 52.880047611532284 ], [ -6.567101985639943, 52.877324419880075 ], [ -6.543346431596166, 52.824316748647291 ], [ -6.674682300803636, 52.792929886754862 ], [ -6.553370448600718, 52.693277457323575 ], [ -6.350540433334754, 52.786359561709105 ], [ -6.144516329922278, 52.73769640665023 ], [ -6.219952302484348, 52.54446081711751 ], [ -6.427907315877322, 52.331394882553724 ], [ -6.338404174148932, 52.239007921646639 ], [ -6.366477625480706, 52.189045361181378 ], [ -6.960115126599226, 52.216739602694659 ], [ -7.028952147395056, 52.143096554217323 ], [ -7.442806041174263, 52.123078845546175 ], [ -7.573808363571151, 52.074665525670532 ], [ -7.627381276649123, 51.987923925224081 ], [ -7.842156246500953, 51.954218583007034 ] ] ] } },
{ "type": "Feature", "properties": { "NUTS_ID": "IE053", "name": "South-West " }, "geometry": { "type": "MultiPolygon", "coordinates": [ [ [ [ -9.245748442424521, 52.316741101381744 ], [ -8.985828756720204, 52.308209185532107 ], [ -8.726229012398189, 52.377081840039317 ], [ -8.104716990186128, 52.206484528007451 ], [ -8.025432544058729, 52.073256392288165 ], [ -7.842156246500953, 51.954218583007034 ], [ -8.63858635781088, 51.619500346008898 ], [ -9.344660543080971, 51.491339001277368 ], [ -9.564756118565978, 51.536183354119821 ], [ -9.704991586569069, 51.649726939010115 ], [ -9.923953410149494, 51.652415367839879 ], [ -10.000024992620668, 51.764995390015251 ], [ -10.29476867170502, 51.867707108216528 ], [ -10.135265851356834, 52.06926274560108 ], [ -10.330535340456304, 52.128651515412464 ], [ -10.33490748417735, 52.194470080378544 ], [ -9.955317202647104, 52.270596639530318 ], [ -9.713909757706723, 52.492955560124287 ], [ -9.365202981713368, 52.572118790795962 ], [ -9.245748442424521, 52.316741101381744 ] ] ], [ [ [ -9.665457503298873, 51.494514994239452 ], [ -9.729969380437158, 51.44503346629709 ], [ -9.83909371250712, 51.496659925625032 ], [ -9.740424555420999, 51.538112165158779 ], [ -9.665457503298873, 51.494514994239452 ] ] ] ] } },
{ "type": "Feature", "properties": { "NUTS_ID": "IE061", "name": "Dublin" }, "geometry": { "type": "Polygon", "coordinates": [ [ [ -6.10321204172752, 53.210621044714109 ], [ -6.350664365537418, 53.19766308671992 ], [ -6.526564030754393, 53.277773737914238 ], [ -6.356559269082281, 53.481946314202467 ], [ -6.404859060342151, 53.566274250847393 ], [ -6.213106854621444, 53.633641410607353 ], [ -6.092849631981448, 53.537828566016621 ], [ -6.20112502337276, 53.3427166652599 ], [ -6.10321204172752, 53.210621044714109 ] ] ] } },
{ "type": "Feature", "properties": { "NUTS_ID": "IE062", "name": "Mid-East" }, "geometry": { "type": "Polygon", "coordinates": [ [ [ -6.26836372660485, 54.101781866738158 ], [ -6.179660011606451, 54.041458495754462 ], [ -6.133085125390852, 54.030037622289335 ], [ -6.108849551502486, 54.00035990484173 ], [ -6.140735410653222, 53.982143035150145 ], [ -6.179660012234653, 53.979318139702187 ], [ -6.325185688772136, 54.00352105166985 ], [ -6.367960083329238, 53.959043574807858 ], [ -6.354377802685178, 53.904172727903216 ], [ -6.248928394819181, 53.848850474677654 ], [ -6.249874920679797, 53.730840432598121 ], [ -6.213106854621444, 53.633641410607353 ], [ -6.404859060342151, 53.566274250847393 ], [ -6.356559269082281, 53.481946314202467 ], [ -6.526564030754393, 53.277773737914238 ], [ -6.350664365537418, 53.19766308671992 ], [ -6.10321204172752, 53.210621044714109 ], [ -6.017544434533511, 52.943958192449493 ], [ -6.144516329922278, 52.73769640665023 ], [ -6.350540433334754, 52.786359561709105 ], [ -6.553370448600718, 52.693277457323575 ], [ -6.674682300803636, 52.792929886754862 ], [ -6.543346431596166, 52.824316748647291 ], [ -6.567101985639943, 52.877324419880075 ], [ -6.939419464109966, 52.880047611532284 ], [ -7.075373674365522, 53.026054533424563 ], [ -7.085607592989372, 53.175798172773085 ], [ -7.019543739863429, 53.310659149716969 ], [ -7.144981750314446, 53.420359039750792 ], [ -6.975614314567998, 53.645507271975646 ], [ -7.234787407565555, 53.730840432731412 ], [ -7.343667914429434, 53.799052000308976 ], [ -6.980504335713258, 53.78077635277522 ], [ -6.933968540083534, 53.864271367869883 ], [ -6.592246790538312, 53.975624782033599 ], [ -6.595093107251577, 54.044582470472918 ], [ -6.268015422127919, 54.102337006048003 ], [ -6.26836372660485, 54.101781866738158 ] ] ] } },
{ "type": "Feature", "properties": { "NUTS_ID": "IE063", "name": "Midland" }, "geometry": { "type": "Polygon", "coordinates": [ [ [ -6.939419464109966, 52.880047611532284 ], [ -7.008122492824616, 52.815948156383527 ], [ -7.205406117858457, 52.876408461616705 ], [ -7.674132354888885, 52.781284159868235 ], [ -7.77568046329792, 52.96060724807797 ], [ -8.011235448590671, 52.883181283315622 ], [ -7.93798860223134, 53.090536972281171 ], [ -8.081460553278433, 53.166813109934758 ], [ -7.997319352064736, 53.216578676922033 ], [ -8.034004604572868, 53.294389970706263 ], [ -7.935963236918203, 53.373238923867703 ], [ -8.018219808445821, 53.633014529279698 ], [ -7.945438732193434, 53.730840432796967 ], [ -7.918769884887261, 53.821485633959632 ], [ -7.806562588162299, 53.825152175677836 ], [ -7.648426771503908, 53.924948773748021 ], [ -7.343667914429434, 53.799052000308976 ], [ -7.234787407565555, 53.730840432731412 ], [ -6.975614314567998, 53.645507271975646 ], [ -7.144981750314446, 53.420359039750792 ], [ -7.019543739863429, 53.310659149716969 ], [ -7.085607592989372, 53.175798172773085 ], [ -7.075373674365522, 53.026054533424563 ], [ -6.939419464109966, 52.880047611532284 ] ] ] } }
]
}
