{
"type": "FeatureCollection",
"name": "IS",
"crs": { "type": "name", "properties": { "name": "urn:ogc:def:crs:OGC:1.3:CRS84" } },
"features": [
{ "type": "Feature", "properties": { "NUTS_ID": "IS001", "name": "Höfuðborgarsvæði" }, "geometry": { "type": "MultiPolygon", "coordinates": [ [ [ [ -21.638618338140379, 63.982791076736881 ], [ -21.992942648843616, 63.978981462440721 ], [ -22.12550702405078, 64.040599067378338 ], [ -21.835712942447014, 64.185676109494239 ], [ -21.840677363744518, 64.261504679355127 ], [ -21.740292964769878, 64.330309642206089 ], [ -21.370047817256623, 64.38032600900533 ], [ -21.249863300244236, 64.348960063327141 ], [ -21.638618338140379, 63.982791076736881 ] ] ], [ [ [ -22.010872221567908, 63.895001034861814 ], [ -22.007396945689649, 63.835987459067596 ], [ -22.130868493726116, 63.836597902451096 ], [ -22.11788837871897, 63.868714330547341 ], [ -22.042258441519671, 63.914078464964867 ], [ -22.010872221567908, 63.895001034861814 ] ] ] ] } },
{ "type": "Feature", "properties": { "NUTS_ID": "IS002", "name": "Landsbyggð" }, "geometry": { "type": "MultiPolygon", "coordinates": [ [ [ [ -15.823795228316145, 66.400726418556516 ], [ -15.526093474838053, 66.228655437151616 ], [ -15.057706691739568, 66.250973117897331 ], [ -14.964303660680324, 66.103004425650667 ], [ -14.73073041288654, 65.965416962539422 ], [ -14.634108059893537, 65.788058386862943 ], [ -13.79647567852339, 65.520039341295742 ], [ -13.650096650527786, 65.27735895651297 ], [ -13.633952605942847, 65.093721127978725 ], [ -13.8149704652542, 64.993506854588347 ], [ -13.878535243523832, 64.876124667843854 ], [ -13.912107555208086, 64.814128206351043 ], [ -14.08511834019779, 64.73802380052139 ], [ -14.192333280981495, 64.694942965557104 ], [ -14.392817034093614, 64.70299563662283 ], [ -14.601409370805273, 64.41133493953653 ], [ -14.639802190377155, 64.3876671681153 ], [ -14.96360585793302, 64.264344342557109 ], [ -15.367676409806247, 64.275434111482241 ], [ -15.971133882873445, 64.122849934503165 ], [ -16.667687501164238, 63.807619184011806 ], [ -17.573036974886772, 63.731997599939611 ], [ -18.090590483011493, 63.489604258853511 ], [ -18.683049013543112, 63.403512176702328 ], [ -19.125791188147904, 63.406720179763447 ], [ -20.203162122457144, 63.548769554530658 ], [ -21.206471666603971, 63.868071753355132 ], [ -22.007396945689649, 63.835987459067596 ], [ -22.010872221567908, 63.895001034861814 ], [ -22.042258441519671, 63.914078464964867 ], [ -22.11788837871897, 63.868714330547341 ], [ -22.130868493726116, 63.836597902451096 ], [ -22.394791376052673, 63.828816484613064 ], [ -22.695191158370164, 63.819959594437989 ], [ -22.733434295949202, 63.984300770014954 ], [ -22.668859684716619, 64.066315325660526 ], [ -22.468304124069629, 63.973352852285984 ], [ -22.394791377312835, 63.987773785221762 ], [ -22.12550702405078, 64.040599067378338 ], [ -21.992942648843616, 63.978981462440721 ], [ -21.638618338140379, 63.982791076736881 ], [ -21.249863300244236, 64.348960063327141 ], [ -21.370047817256623, 64.38032600900533 ], [ -21.899931810259115, 64.359969437570115 ], [ -22.481709948228076, 64.730953074587887 ], [ -23.221367806845407, 64.820743294461224 ], [ -23.2376827456524, 64.818220328759622 ], [ -23.663012226902818, 64.752446764312978 ], [ -23.865266411581121, 64.7286521541361 ], [ -24.012792994601011, 64.897593884810007 ], [ -23.639991910264758, 64.890395704882579 ], [ -22.647307882429256, 65.053964032055063 ], [ -22.223879056731338, 65.362148763561137 ], [ -22.255284205114982, 65.474465011587398 ], [ -22.519568690195495, 65.537310961962049 ], [ -23.797217922579041, 65.447884271627942 ], [ -24.169124723848739, 65.572230052345759 ], [ -23.956622504411616, 65.720421570267959 ], [ -23.646860649672579, 65.721772997934735 ], [ -23.679053332844315, 65.972381615695937 ], [ -23.493887556159976, 66.12124502382882 ], [ -22.550217070112826, 65.997212668876259 ], [ -22.567672857590797, 66.083179633326949 ], [ -22.829316286592185, 66.350147745668636 ], [ -22.716580185512544, 66.411894927304175 ], [ -22.303563311061762, 66.360744095909737 ], [ -21.517663398395943, 66.008212437057907 ], [ -21.400231731746775, 65.850284207684865 ], [ -21.384488134827667, 65.611328846725399 ], [ -21.095302064553845, 65.383424295304593 ], [ -20.794081281756927, 65.586594396281427 ], [ -20.411048774446268, 65.706313479425546 ], [ -20.335719386960076, 65.970285923883523 ], [ -20.241128346976819, 66.048769391894993 ], [ -20.091079081881116, 66.037203450016193 ], [ -19.732094684303146, 65.847570329385633 ], [ -19.535255530598505, 65.808567065965761 ], [ -19.265622171543676, 66.049136337033843 ], [ -18.798053316667982, 66.134462526189495 ], [ -18.200995169349635, 65.850134858059008 ], [ -18.213241315434924, 66.034169013833477 ], [ -18.167589325774571, 66.100374656447485 ], [ -17.46027406411045, 66.033987889933698 ], [ -17.124988559060583, 66.157187361476389 ], [ -16.626947066041218, 66.211465434139541 ], [ -16.412499599812676, 66.451106820889351 ], [ -16.108803696323122, 66.486465290573548 ], [ -15.823795228316145, 66.400726418556516 ] ] ], [ [ [ -20.223875558114315, 63.393787926526173 ], [ -20.306913093067486, 63.390563492214106 ], [ -20.372890110858794, 63.460293717674887 ], [ -20.249243898508787, 63.473133089912785 ], [ -20.223875558114315, 63.393787926526173 ] ] ] ] } }
]
}
