{
"type": "FeatureCollection",
"name": "IT",
"crs": { "type": "name", "properties": { "name": "urn:ogc:def:crs:OGC:1.3:CRS84" } },
"features": [
{ "type": "Feature", "properties": { "NUTS_ID": "ITC11", "name": "Torino" }, "geometry": { "type": "Polygon", "coordinates": [ [ [ 7.065755124527523, 44.713464399341476 ], [ 6.988237220465876, 44.835134574191017 ], [ 6.775591579323692, 44.899675728420917 ], [ 6.630050928584914, 45.109856575043395 ], [ 7.094370374830631, 45.231261429219209 ], [ 7.164300076629697, 45.399440462450094 ], [ 7.104722952318007, 45.468454370064102 ], [ 7.510880897953816, 45.581828284808971 ], [ 7.895810862130627, 45.590027964655491 ], [ 8.027011822401757, 45.403092628556308 ], [ 7.998891957852397, 45.236806639801721 ], [ 8.151933319369824, 45.168558659403253 ], [ 8.128986536705849, 45.122995862417454 ], [ 7.928222397371472, 45.085509501798555 ], [ 7.901583788793579, 44.901167832258757 ], [ 7.94338654249751, 44.846305527682816 ], [ 7.065755124527523, 44.713464399341476 ] ] ] } },
{ "type": "Feature", "properties": { "NUTS_ID": "ITC12", "name": "Vercelli" }, "geometry": { "type": "Polygon", "coordinates": [ [ [ 8.151933319369824, 45.168558659403253 ], [ 7.998891957852397, 45.236806639801721 ], [ 8.027011822401757, 45.403092628556308 ], [ 8.127187741006047, 45.390944627149217 ], [ 8.21937848343819, 45.459657021857382 ], [ 8.271300016838499, 45.655789734474084 ], [ 8.125791504001002, 45.747246059795678 ], [ 7.936649094368084, 45.724340626620936 ], [ 7.864076428328577, 45.916750421437115 ], [ 7.877137290648188, 45.926955137426276 ], [ 8.212554289354228, 45.93143886738158 ], [ 8.349896958220478, 45.772373992654003 ], [ 8.408186489659922, 45.445669407707015 ], [ 8.513538560716828, 45.313395594395359 ], [ 8.547813848375625, 45.168079215415752 ], [ 8.151933319369824, 45.168558659403253 ] ] ] } },
{ "type": "Feature", "properties": { "NUTS_ID": "ITC13", "name": "Biella" }, "geometry": { "type": "Polygon", "coordinates": [ [ [ 7.895810862130627, 45.590027964655491 ], [ 7.936649094368084, 45.724340626620936 ], [ 8.125791504001002, 45.747246059795678 ], [ 8.271300016838499, 45.655789734474084 ], [ 8.21937848343819, 45.459657021857382 ], [ 8.127187741006047, 45.390944627149217 ], [ 8.027011822401757, 45.403092628556308 ], [ 7.895810862130627, 45.590027964655491 ] ] ] } },
{ "type": "Feature", "properties": { "NUTS_ID": "ITC14", "name": "Verbano-Cusio-Ossola" }, "geometry": { "type": "Polygon", "coordinates": [ [ [ 7.877137290648188, 45.926955137426276 ], [ 8.135858342074844, 46.148363014637553 ], [ 8.130197564243266, 46.274942133773557 ], [ 8.384716933731539, 46.452158565743893 ], [ 8.457142173561715, 46.420734265068404 ], [ 8.463298231116246, 46.251014087663357 ], [ 8.713935970650262, 46.097271949835765 ], [ 8.593811097786229, 45.828225127600163 ], [ 8.455660662494514, 45.860537684492051 ], [ 8.349896958220478, 45.772373992654003 ], [ 8.212554289354228, 45.93143886738158 ], [ 7.877137290648188, 45.926955137426276 ] ] ] } },
{ "type": "Feature", "properties": { "NUTS_ID": "ITC15", "name": "Novara" }, "geometry": { "type": "Polygon", "coordinates": [ [ [ 8.349896958220478, 45.772373992654003 ], [ 8.455660662494514, 45.860537684492051 ], [ 8.593811097786229, 45.828225127600163 ], [ 8.579161751120399, 45.766776534699318 ], [ 8.706896361455925, 45.558316020820101 ], [ 8.842915421471169, 45.393840995869809 ], [ 8.696842263815771, 45.307200617867522 ], [ 8.513538560716828, 45.313395594395359 ], [ 8.408186489659922, 45.445669407707015 ], [ 8.349896958220478, 45.772373992654003 ] ] ] } },
{ "type": "Feature", "properties": { "NUTS_ID": "ITC16", "name": "Cuneo" }, "geometry": { "type": "Polygon", "coordinates": [ [ [ 6.887427980240159, 44.361286894180829 ], [ 6.948443098930043, 44.654741985309045 ], [ 7.065755124527523, 44.713464399341476 ], [ 7.94338654249751, 44.846305527682816 ], [ 8.222080660549018, 44.715727025246736 ], [ 8.252819255599031, 44.528740613166718 ], [ 8.015629579168953, 44.11067645409323 ], [ 7.781202814171117, 44.12850113080718 ], [ 7.714236356735006, 44.061513613180551 ], [ 7.661688243453211, 44.161871975145246 ], [ 7.31113633430721, 44.138303684663612 ], [ 7.023372451500818, 44.239177020811809 ], [ 6.887427980240159, 44.361286894180829 ] ] ] } },
{ "type": "Feature", "properties": { "NUTS_ID": "ITC17", "name": "Asti" }, "geometry": { "type": "Polygon", "coordinates": [ [ [ 8.252819255599031, 44.528740613166718 ], [ 8.222080660549018, 44.715727025246736 ], [ 7.94338654249751, 44.846305527682816 ], [ 7.901583788793579, 44.901167832258757 ], [ 7.928222397371472, 45.085509501798555 ], [ 8.128986536705849, 45.122995862417454 ], [ 8.180953609220115, 45.029200388742588 ], [ 8.34143421105443, 45.020032502440934 ], [ 8.475399214156862, 44.783541294030343 ], [ 8.261600723143522, 44.519459332994806 ], [ 8.252819255599031, 44.528740613166718 ] ] ] } },
{ "type": "Feature", "properties": { "NUTS_ID": "ITC18", "name": "Alessandria" }, "geometry": { "type": "Polygon", "coordinates": [ [ [ 8.261600723143522, 44.519459332994806 ], [ 8.475399214156862, 44.783541294030343 ], [ 8.34143421105443, 45.020032502440934 ], [ 8.180953609220115, 45.029200388742588 ], [ 8.128986536705849, 45.122995862417454 ], [ 8.151933319369824, 45.168558659403253 ], [ 8.547813848375625, 45.168079215415752 ], [ 8.673872021619159, 45.03212461650601 ], [ 8.887464579686265, 45.03565522912281 ], [ 9.182133791605148, 44.778512114250937 ], [ 9.200074145413003, 44.686099331915464 ], [ 9.202995371924155, 44.613476549271802 ], [ 9.122032595847688, 44.590018334900982 ], [ 8.943018703994055, 44.666647102557874 ], [ 8.884412914466393, 44.565397173376859 ], [ 8.652689455547899, 44.580046897925143 ], [ 8.576181854610201, 44.509205839693038 ], [ 8.261600723143522, 44.519459332994806 ] ] ] } },
{ "type": "Feature", "properties": { "NUTS_ID": "ITC20", "name": "Valle d’Aosta/Vallée d’Aoste" }, "geometry": { "type": "Polygon", "coordinates": [ [ [ 7.104722952318007, 45.468454370064102 ], [ 7.01188574774983, 45.51196719669624 ], [ 6.98078642169975, 45.627455526862263 ], [ 6.802368307845005, 45.778562004915486 ], [ 7.044886013638479, 45.922413068294127 ], [ 7.164979385485601, 45.862696361692336 ], [ 7.589798320623923, 45.979787148596117 ], [ 7.864076428328577, 45.916750421437115 ], [ 7.936649094368084, 45.724340626620936 ], [ 7.895810862130627, 45.590027964655491 ], [ 7.510880897953816, 45.581828284808971 ], [ 7.104722952318007, 45.468454370064102 ] ] ] } },
{ "type": "Feature", "properties": { "NUTS_ID": "ITC31", "name": "Imperia" }, "geometry": { "type": "Polygon", "coordinates": [ [ [ 7.529860025573349, 43.78401301406538 ], [ 7.523637345190542, 43.891002934585792 ], [ 7.714236356735006, 44.061513613180551 ], [ 7.781202814171117, 44.12850113080718 ], [ 8.015629579168953, 44.11067645409323 ], [ 8.009991540776932, 44.010836726007369 ], [ 8.135350904125294, 43.938940421504455 ], [ 7.954569605984419, 43.851436949774026 ], [ 7.529860025573349, 43.78401301406538 ] ] ] } },
{ "type": "Feature", "properties": { "NUTS_ID": "ITC32", "name": "Savona" }, "geometry": { "type": "Polygon", "coordinates": [ [ [ 8.135350904125294, 43.938940421504455 ], [ 8.009991540776932, 44.010836726007369 ], [ 8.015629579168953, 44.11067645409323 ], [ 8.252819255599031, 44.528740613166718 ], [ 8.261600723143522, 44.519459332994806 ], [ 8.576181854610201, 44.509205839693038 ], [ 8.649883551199526, 44.482105040006779 ], [ 8.633010367519732, 44.37980353079648 ], [ 8.274538421328554, 44.128229692422849 ], [ 8.135350904125294, 43.938940421504455 ] ] ] } },
{ "type": "Feature", "properties": { "NUTS_ID": "ITC33", "name": "Genova" }, "geometry": { "type": "Polygon", "coordinates": [ [ [ 8.633010367519732, 44.37980353079648 ], [ 8.649883551199526, 44.482105040006779 ], [ 8.576181854610201, 44.509205839693038 ], [ 8.652689455547899, 44.580046897925143 ], [ 8.884412914466393, 44.565397173376859 ], [ 8.943018703994055, 44.666647102557874 ], [ 9.122032595847688, 44.590018334900982 ], [ 9.202995371924155, 44.613476549271802 ], [ 9.493362949377683, 44.555858924781084 ], [ 9.479059479757368, 44.409240651188924 ], [ 9.551185328677025, 44.271007935287706 ], [ 9.511343798878041, 44.216675562910417 ], [ 9.081010971338092, 44.369987226418374 ], [ 8.774266924322776, 44.419022276086224 ], [ 8.633010367519732, 44.37980353079648 ] ] ] } },
{ "type": "Feature", "properties": { "NUTS_ID": "ITC34", "name": "La Spezia" }, "geometry": { "type": "Polygon", "coordinates": [ [ [ 9.511343798878041, 44.216675562910417 ], [ 9.551185328677025, 44.271007935287706 ], [ 9.479059479757368, 44.409240651188924 ], [ 9.59379210493082, 44.424653019674054 ], [ 9.686725744145331, 44.365921869064671 ], [ 10.042168493209644, 44.0902670502104 ], [ 10.018769669458909, 44.044535918363209 ], [ 9.793183438332644, 44.072307807200886 ], [ 9.511343798878041, 44.216675562910417 ] ] ] } },
{ "type": "Feature", "properties": { "NUTS_ID": "ITC41", "name": "Varese" }, "geometry": { "type": "Polygon", "coordinates": [ [ [ 8.713935970650262, 46.097271949835765 ], [ 8.825443814276392, 46.069474889741848 ], [ 8.809260427737895, 45.995512180480333 ], [ 8.912914089369746, 45.918621614903884 ], [ 8.912146832221961, 45.830445076440007 ], [ 8.950464500601845, 45.663219814860049 ], [ 9.055754886578381, 45.646503884263616 ], [ 9.052902084403195, 45.623193602256769 ], [ 8.706896361455925, 45.558316020820101 ], [ 8.579161751120399, 45.766776534699318 ], [ 8.593811097786229, 45.828225127600163 ], [ 8.713935970650262, 46.097271949835765 ] ] ] } },
{ "type": "Feature", "properties": { "NUTS_ID": "ITC42", "name": "Como" }, "geometry": { "type": "Polygon", "coordinates": [ [ [ 9.414123256120567, 46.136869553549893 ], [ 9.292146246847084, 46.082596815419038 ], [ 9.310981370338135, 45.852349455032162 ], [ 9.247138899460975, 45.742651942430648 ], [ 9.055754886578381, 45.646503884263616 ], [ 8.950464500601845, 45.663219814860049 ], [ 8.912146832221961, 45.830445076440007 ], [ 9.057613339545997, 45.860551795523214 ], [ 9.011459098694418, 46.013928673444561 ], [ 9.159377254691004, 46.169600827015152 ], [ 9.248531338543906, 46.233767857136208 ], [ 9.395310383319659, 46.208035670686861 ], [ 9.414123256120567, 46.136869553549893 ] ] ] } },
{ "type": "Feature", "properties": { "NUTS_ID": "ITC43", "name": "Lecco" }, "geometry": { "type": "Polygon", "coordinates": [ [ [ 9.476587749467242, 45.669248502267521 ], [ 9.32516825126206, 45.670309057791783 ], [ 9.247138899460975, 45.742651942430648 ], [ 9.310981370338135, 45.852349455032162 ], [ 9.292146246847084, 46.082596815419038 ], [ 9.414123256120567, 46.136869553549893 ], [ 9.526920841534858, 46.011509826938195 ], [ 9.476587749467242, 45.669248502267521 ] ] ] } },
{ "type": "Feature", "properties": { "NUTS_ID": "ITC44", "name": "Sondrio" }, "geometry": { "type": "Polygon", "coordinates": [ [ [ 10.169590087622062, 46.05705358388299 ], [ 9.681802964667826, 46.060189472280825 ], [ 9.526920841534858, 46.011509826938195 ], [ 9.414123256120567, 46.136869553549893 ], [ 9.395310383319659, 46.208035670686861 ], [ 9.248531338543906, 46.233767857136208 ], [ 9.263576577435824, 46.453248845497349 ], [ 9.317495114370795, 46.496360461186526 ], [ 9.438267698325829, 46.479373974040477 ], [ 9.546284511438991, 46.31600666592648 ], [ 9.696925689639629, 46.299869962782573 ], [ 9.91501254590505, 46.369679225172241 ], [ 10.097203280476789, 46.237583510920025 ], [ 10.153615759724159, 46.270524804614851 ], [ 10.131632638924437, 46.397432672754739 ], [ 10.048212119570106, 46.473138170691513 ], [ 10.084912314637617, 46.570596296297509 ], [ 10.208885221218065, 46.621747470086795 ], [ 10.4528011864139, 46.53068305387368 ], [ 10.622145398071567, 46.448101885974417 ], [ 10.515751635692615, 46.343224481853845 ], [ 10.190779073487096, 46.168985367563565 ], [ 10.169590087622062, 46.05705358388299 ] ] ] } },
{ "type": "Feature", "properties": { "NUTS_ID": "ITC46", "name": "Bergamo" }, "geometry": { "type": "Polygon", "coordinates": [ [ [ 9.519206986052907, 45.504481985090166 ], [ 9.495871138940963, 45.639704118839774 ], [ 9.476587749467242, 45.669248502267521 ], [ 9.526920841534858, 46.011509826938195 ], [ 9.681802964667826, 46.060189472280825 ], [ 10.169590087622062, 46.05705358388299 ], [ 10.208943367933689, 46.014885667671649 ], [ 10.117856382804797, 45.932398264891525 ], [ 10.050907556418787, 45.700622043359083 ], [ 9.859489838269912, 45.565259047456472 ], [ 9.889638335248655, 45.42733516070895 ], [ 9.519206986052907, 45.504481985090166 ] ] ] } },
{ "type": "Feature", "properties": { "NUTS_ID": "ITC47", "name": "Brescia" }, "geometry": { "type": "Polygon", "coordinates": [ [ [ 10.317723071595076, 45.20471594260146 ], [ 9.948712045581109, 45.317355243010795 ], [ 9.889638335248655, 45.42733516070895 ], [ 9.859489838269912, 45.565259047456472 ], [ 10.050907556418787, 45.700622043359083 ], [ 10.117856382804797, 45.932398264891525 ], [ 10.208943367933689, 46.014885667671649 ], [ 10.169590087622062, 46.05705358388299 ], [ 10.190779073487096, 46.168985367563565 ], [ 10.515751635692615, 46.343224481853845 ], [ 10.56043928701529, 46.255280870323006 ], [ 10.477618104715411, 46.01172338081988 ], [ 10.516289133590837, 45.856122610404334 ], [ 10.840176546171993, 45.832758545579701 ], [ 10.655995453369831, 45.614514432133504 ], [ 10.654655464578727, 45.415826970032541 ], [ 10.48583791244517, 45.394296286830937 ], [ 10.317723071595076, 45.20471594260146 ] ] ] } },
{ "type": "Feature", "properties": { "NUTS_ID": "ITC48", "name": "Pavia" }, "geometry": { "type": "Polygon", "coordinates": [ [ [ 8.547813848375625, 45.168079215415752 ], [ 8.513538560716828, 45.313395594395359 ], [ 8.696842263815771, 45.307200617867522 ], [ 8.842915421471169, 45.393840995869809 ], [ 8.969617564472527, 45.282614864205343 ], [ 9.33884662055709, 45.312966400659505 ], [ 9.4384807075424, 45.187529154483116 ], [ 9.480108177460382, 45.163442103690443 ], [ 9.53160159540546, 45.165351838169038 ], [ 9.548684449505979, 45.132648654485472 ], [ 9.364782858593806, 45.032985944277293 ], [ 9.296212747118155, 44.913668788172707 ], [ 9.34132786354645, 44.822998586224195 ], [ 9.308945514117722, 44.724013696655859 ], [ 9.200074145413003, 44.686099331915464 ], [ 9.182133791605148, 44.778512114250937 ], [ 8.887464579686265, 45.03565522912281 ], [ 8.673872021619159, 45.03212461650601 ], [ 8.547813848375625, 45.168079215415752 ] ] ] } },
{ "type": "Feature", "properties": { "NUTS_ID": "ITC49", "name": "Lodi" }, "geometry": { "type": "Polygon", "coordinates": [ [ [ 9.548684449505979, 45.132648654485472 ], [ 9.53160159540546, 45.165351838169038 ], [ 9.482772133106259, 45.195726806152244 ], [ 9.4384807075424, 45.187529154483116 ], [ 9.33884662055709, 45.312966400659505 ], [ 9.483930021462598, 45.44869143072092 ], [ 9.492711590929439, 45.371750233149129 ], [ 9.891101695291427, 45.130897855303267 ], [ 9.730886063785084, 45.066550134014001 ], [ 9.548684449505979, 45.132648654485472 ] ] ] } },
{ "type": "Feature", "properties": { "NUTS_ID": "ITC4A", "name": "Cremona" }, "geometry": { "type": "Polygon", "coordinates": [ [ [ 9.891101695291427, 45.130897855303267 ], [ 9.492711590929439, 45.371750233149129 ], [ 9.483930021462598, 45.44869143072092 ], [ 9.519206986052907, 45.504481985090166 ], [ 9.889638335248655, 45.42733516070895 ], [ 9.948712045581109, 45.317355243010795 ], [ 10.317723071595076, 45.20471594260146 ], [ 10.440330125610084, 45.119564788436143 ], [ 10.435705130072586, 45.057811683111318 ], [ 10.507596504403381, 45.062482542782682 ], [ 10.464030601429872, 44.937171461846702 ], [ 10.083503066795364, 45.043958427294719 ], [ 9.891101695291427, 45.130897855303267 ] ] ] } },
{ "type": "Feature", "properties": { "NUTS_ID": "ITC4B", "name": "Mantova" }, "geometry": { "type": "Polygon", "coordinates": [ [ [ 11.246231471008517, 44.95142814814723 ], [ 10.887909551569521, 44.914266041670999 ], [ 10.810076884962635, 44.936520812482129 ], [ 10.696699361692948, 44.972173940229837 ], [ 10.504343921380624, 44.922417917478519 ], [ 10.464030601429872, 44.937171461846702 ], [ 10.507596504403381, 45.062482542782682 ], [ 10.435705130072586, 45.057811683111318 ], [ 10.440330125610084, 45.119564788436143 ], [ 10.317723071595076, 45.20471594260146 ], [ 10.48583791244517, 45.394296286830937 ], [ 10.654655464578727, 45.415826970032541 ], [ 10.726389550321523, 45.311016736542108 ], [ 10.810076884712819, 45.298676232855847 ], [ 11.056811453404157, 45.118921659749496 ], [ 11.205502616579526, 45.109487527383536 ], [ 11.215301493302201, 45.048478822021707 ], [ 11.42676564283164, 44.950076158956648 ], [ 11.246231471008517, 44.95142814814723 ] ] ] } },
{ "type": "Feature", "properties": { "NUTS_ID": "ITC4C", "name": "Milano" }, "geometry": { "type": "MultiPolygon", "coordinates": [ [ [ [ 9.53160159540546, 45.165351838169038 ], [ 9.480108177460382, 45.163442103690443 ], [ 9.4384807075424, 45.187529154483116 ], [ 9.482772133106259, 45.195726806152244 ], [ 9.53160159540546, 45.165351838169038 ] ] ], [ [ [ 9.495871138940963, 45.639704118839774 ], [ 9.519206986052907, 45.504481985090166 ], [ 9.483930021462598, 45.44869143072092 ], [ 9.33884662055709, 45.312966400659505 ], [ 8.969617564472527, 45.282614864205343 ], [ 8.842915421471169, 45.393840995869809 ], [ 8.706896361455925, 45.558316020820101 ], [ 9.052902084403195, 45.623193602256769 ], [ 9.317913974474671, 45.547403879144802 ], [ 9.495871138940963, 45.639704118839774 ] ] ] ] } },
{ "type": "Feature", "properties": { "NUTS_ID": "ITC4D", "name": "Monza e della Brianza" }, "geometry": { "type": "Polygon", "coordinates": [ [ [ 9.052902084403195, 45.623193602256769 ], [ 9.055754886578381, 45.646503884263616 ], [ 9.247138899460975, 45.742651942430648 ], [ 9.32516825126206, 45.670309057791783 ], [ 9.476587749467242, 45.669248502267521 ], [ 9.495871138940963, 45.639704118839774 ], [ 9.317913974474671, 45.547403879144802 ], [ 9.052902084403195, 45.623193602256769 ] ] ] } },
{ "type": "Feature", "properties": { "NUTS_ID": "ITF11", "name": "L’Aquila" }, "geometry": { "type": "Polygon", "coordinates": [ [ [ 13.030574718180011, 42.11535294370055 ], [ 13.100660992474346, 42.164624203476386 ], [ 13.310925258673956, 42.164501561177644 ], [ 13.140809874560702, 42.447230027077431 ], [ 13.190993532052378, 42.570066806250999 ], [ 13.39403138394708, 42.591233872516085 ], [ 13.481317666528199, 42.488441308574323 ], [ 13.765287309014857, 42.420117653473859 ], [ 13.827595508684992, 42.293399774427357 ], [ 13.803850396887968, 42.171317006479548 ], [ 14.085253215665519, 42.086697399556719 ], [ 14.098725836000026, 42.004578788369784 ], [ 14.11339079979958, 41.915192578965829 ], [ 14.229757267413989, 41.877056371019989 ], [ 14.133477861953258, 41.752279570360464 ], [ 13.941038341319809, 41.687943855911563 ], [ 13.672029510507032, 41.794362445859662 ], [ 13.530732761043646, 41.779319808181484 ], [ 13.29629941382049, 41.94858839642697 ], [ 13.140838246754704, 42.004578787942791 ], [ 13.06899303898485, 42.030454326303555 ], [ 13.030574718180011, 42.11535294370055 ] ] ] } },
{ "type": "Feature", "properties": { "NUTS_ID": "ITF12", "name": "Teramo" }, "geometry": { "type": "Polygon", "coordinates": [ [ [ 14.146269234094394, 42.530505897425833 ], [ 13.835420581389995, 42.490206474845756 ], [ 13.765287309014857, 42.420117653473859 ], [ 13.481317666528199, 42.488441308574323 ], [ 13.39403138394708, 42.591233872516085 ], [ 13.357774517497926, 42.694069974625286 ], [ 13.915740683460275, 42.894493395608492 ], [ 13.927528000762996, 42.859353074274445 ], [ 14.146269234094394, 42.530505897425833 ] ] ] } },
{ "type": "Feature", "properties": { "NUTS_ID": "ITF13", "name": "Pescara" }, "geometry": { "type": "Polygon", "coordinates": [ [ [ 14.253960642498289, 42.444798470105766 ], [ 14.139102044937049, 42.371564878591272 ], [ 14.085253215665519, 42.086697399556719 ], [ 13.803850396887968, 42.171317006479548 ], [ 13.827595508684992, 42.293399774427357 ], [ 13.765287309014857, 42.420117653473859 ], [ 13.835420581389995, 42.490206474845756 ], [ 14.146269234094394, 42.530505897425833 ], [ 14.253960642498289, 42.444798470105766 ] ] ] } },
{ "type": "Feature", "properties": { "NUTS_ID": "ITF14", "name": "Chieti" }, "geometry": { "type": "Polygon", "coordinates": [ [ [ 14.779562767586054, 42.070059353905478 ], [ 14.717506139698596, 42.004578787973379 ], [ 14.485358809298308, 41.759622857716202 ], [ 14.356393843417063, 41.876677237723122 ], [ 14.229757267413989, 41.877056371019989 ], [ 14.11339079979958, 41.915192578965829 ], [ 14.098725836000026, 42.004578788369784 ], [ 14.085253215665519, 42.086697399556719 ], [ 14.139102044937049, 42.371564878591272 ], [ 14.253960642498289, 42.444798470105766 ], [ 14.779562767586054, 42.070059353905478 ] ] ] } },
{ "type": "Feature", "properties": { "NUTS_ID": "ITF21", "name": "Isernia" }, "geometry": { "type": "Polygon", "coordinates": [ [ [ 13.977927998197748, 41.462453942224087 ], [ 14.011673102878971, 41.560349014856378 ], [ 13.941038341319809, 41.687943855911563 ], [ 14.133477861953258, 41.752279570360464 ], [ 14.229757267413989, 41.877056371019989 ], [ 14.356393843417063, 41.876677237723122 ], [ 14.485358809298308, 41.759622857716202 ], [ 14.475272234945272, 41.577687108019781 ], [ 14.382519063715099, 41.443216325511528 ], [ 14.148815008327317, 41.500551136019737 ], [ 14.05412711501125, 41.40568522367456 ], [ 13.977927998197748, 41.462453942224087 ] ] ] } },
{ "type": "Feature", "properties": { "NUTS_ID": "ITF22", "name": "Campobasso" }, "geometry": { "type": "Polygon", "coordinates": [ [ [ 15.13817867906134, 41.927007598310325 ], [ 15.12122415454763, 41.698278617152141 ], [ 14.942917155312459, 41.594928381441456 ], [ 15.007655459740949, 41.486357125458262 ], [ 14.505007695210098, 41.382563341596367 ], [ 14.382519063715099, 41.443216325511528 ], [ 14.475272234945272, 41.577687108019781 ], [ 14.485358809298308, 41.759622857716202 ], [ 14.717506139698596, 42.004578787973379 ], [ 14.779562767586054, 42.070059353905478 ], [ 14.943715753304314, 42.004578787878394 ], [ 15.13817867906134, 41.927007598310325 ] ] ] } },
{ "type": "Feature", "properties": { "NUTS_ID": "ITF31", "name": "Caserta" }, "geometry": { "type": "Polygon", "coordinates": [ [ [ 13.762086965694055, 41.222503118344932 ], [ 13.873718287859111, 41.338294087459836 ], [ 13.977927998197748, 41.462453942224087 ], [ 14.05412711501125, 41.40568522367456 ], [ 14.148815008327317, 41.500551136019737 ], [ 14.382519063715099, 41.443216325511528 ], [ 14.505007695210098, 41.382563341596367 ], [ 14.435158889454998, 41.106194838669865 ], [ 14.531199934436652, 41.013306335397566 ], [ 14.078423546296856, 40.956184481655619 ], [ 14.032136106867291, 40.89889417517756 ], [ 13.762086965694055, 41.222503118344932 ] ] ] } },
{ "type": "Feature", "properties": { "NUTS_ID": "ITF32", "name": "Benevento" }, "geometry": { "type": "Polygon", "coordinates": [ [ [ 14.505007695210098, 41.382563341596367 ], [ 15.007655459740949, 41.486357125458262 ], [ 15.149196332242431, 41.280412506053047 ], [ 15.004890636444534, 41.255703261648627 ], [ 14.946001252800693, 41.089716568260236 ], [ 14.571968244357429, 41.009466435246111 ], [ 14.531199934436652, 41.013306335397566 ], [ 14.435158889454998, 41.106194838669865 ], [ 14.505007695210098, 41.382563341596367 ] ] ] } },
{ "type": "Feature", "properties": { "NUTS_ID": "ITF33", "name": "Napoli" }, "geometry": { "type": "MultiPolygon", "coordinates": [ [ [ [ 14.571248137681074, 40.651970779931602 ], [ 14.468572555160254, 40.620196331803804 ], [ 14.393248765228414, 40.767198606807661 ], [ 14.101462281397088, 40.832705845700232 ], [ 14.032136106867291, 40.89889417517756 ], [ 14.078423546296856, 40.956184481655619 ], [ 14.531199934436652, 41.013306335397566 ], [ 14.571968244357429, 41.009466435246111 ], [ 14.605582072276807, 40.847567343962098 ], [ 14.532468050728237, 40.76671837715552 ], [ 14.571248137681074, 40.651970779931602 ] ] ], [ [ [ 13.985561348309728, 40.723803488404407 ], [ 13.94118624280458, 40.685944672840144 ], [ 13.818092060489244, 40.701902874086841 ], [ 13.861543684605547, 40.771901843096067 ], [ 13.985561348309728, 40.723803488404407 ] ] ] ] } },
{ "type": "Feature", "properties": { "NUTS_ID": "ITF34", "name": "Avellino" }, "geometry": { "type": "Polygon", "coordinates": [ [ [ 14.571968244357429, 41.009466435246111 ], [ 14.946001252800693, 41.089716568260236 ], [ 15.004890636444534, 41.255703261648627 ], [ 15.149196332242431, 41.280412506053047 ], [ 15.240641363850262, 41.245094212620785 ], [ 15.271772447430587, 41.112066094433054 ], [ 15.54292107565001, 41.055823472105182 ], [ 15.524404142683602, 40.928347327762118 ], [ 15.335024570168521, 40.834843992594742 ], [ 15.188456713122946, 40.718582742542907 ], [ 14.605582072276807, 40.847567343962098 ], [ 14.571968244357429, 41.009466435246111 ] ] ] } },
{ "type": "Feature", "properties": { "NUTS_ID": "ITF35", "name": "Salerno" }, "geometry": { "type": "Polygon", "coordinates": [ [ [ 14.468572555160254, 40.620196331803804 ], [ 14.571248137681074, 40.651970779931602 ], [ 14.532468050728237, 40.76671837715552 ], [ 14.605582072276807, 40.847567343962098 ], [ 15.188456713122946, 40.718582742542907 ], [ 15.335024570168521, 40.834843992594742 ], [ 15.549716270521241, 40.490191508803967 ], [ 15.788371992553181, 40.26707645435539 ], [ 15.644965154332134, 40.0428371949058 ], [ 15.550738111624437, 40.065847786432599 ], [ 15.333558278984102, 40.015367122740081 ], [ 15.153750016771751, 40.15118200753524 ], [ 14.953698202602828, 40.224456075140054 ], [ 14.979871075092468, 40.411918419195928 ], [ 14.790256598360223, 40.65533046944504 ], [ 14.468572555160254, 40.620196331803804 ] ] ] } },
{ "type": "Feature", "properties": { "NUTS_ID": "ITF43", "name": "Taranto" }, "geometry": { "type": "Polygon", "coordinates": [ [ [ 16.86726385482358, 40.397845333376551 ], [ 16.726253300409383, 40.505021337026513 ], [ 16.724989805510742, 40.713814408476949 ], [ 17.353692703025093, 40.748575322605433 ], [ 17.526156493555195, 40.467285522598658 ], [ 17.798413294543455, 40.379636035323365 ], [ 17.763496420634834, 40.295497393370354 ], [ 17.478694355498778, 40.309121080043447 ], [ 17.109757447515857, 40.510011271500794 ], [ 16.86726385482358, 40.397845333376551 ] ] ] } },
{ "type": "Feature", "properties": { "NUTS_ID": "ITF44", "name": "Brindisi" }, "geometry": { "type": "Polygon", "coordinates": [ [ [ 18.097446023965603, 40.51530452798967 ], [ 17.798413294543455, 40.379636035323365 ], [ 17.526156493555195, 40.467285522598658 ], [ 17.353692703025093, 40.748575322605433 ], [ 17.321765395793744, 40.824253515175798 ], [ 17.38898115477755, 40.891863500230571 ], [ 17.981523046649734, 40.654808635906519 ], [ 18.097446023965603, 40.51530452798967 ] ] ] } },
{ "type": "Feature", "properties": { "NUTS_ID": "ITF45", "name": "Lecce" }, "geometry": { "type": "Polygon", "coordinates": [ [ [ 17.763496420634834, 40.295497393370354 ], [ 17.798413294543455, 40.379636035323365 ], [ 18.097446023965603, 40.51530452798967 ], [ 18.43131602749326, 40.271491121042793 ], [ 18.503379563178964, 40.115554055838146 ], [ 18.434829422266734, 40.019683419172203 ], [ 18.331469678297172, 39.802572350339481 ], [ 18.074047158421539, 39.915877846827073 ], [ 18.01975667751228, 40.019683419527013 ], [ 17.894468370645999, 40.244669175609324 ], [ 17.763496420634834, 40.295497393370354 ] ] ] } },
{ "type": "Feature", "properties": { "NUTS_ID": "ITF46", "name": "Foggia" }, "geometry": { "type": "Polygon", "coordinates": [ [ [ 16.02473859247625, 41.42559043951006 ], [ 16.012291492416242, 41.234868836513201 ], [ 15.87031116155174, 41.139900098440236 ], [ 15.54292107565001, 41.055823472105182 ], [ 15.271772447430587, 41.112066094433054 ], [ 15.240641363850262, 41.245094212620785 ], [ 15.149196332242431, 41.280412506053047 ], [ 15.007655459740949, 41.486357125458262 ], [ 14.942917155312459, 41.594928381441456 ], [ 15.12122415454763, 41.698278617152141 ], [ 15.13817867906134, 41.927007598310325 ], [ 16.132081432787253, 41.911974775426373 ], [ 16.169092427122372, 41.770675320265582 ], [ 15.906752730037308, 41.592403084068671 ], [ 16.02473859247625, 41.42559043951006 ] ] ] } },
{ "type": "Feature", "properties": { "NUTS_ID": "ITF47", "name": "Bari" }, "geometry": { "type": "Polygon", "coordinates": [ [ [ 17.38898115477755, 40.891863500230571 ], [ 17.321765395793744, 40.824253515175798 ], [ 17.353692703025093, 40.748575322605433 ], [ 16.724989805510742, 40.713814408476949 ], [ 16.506251349588556, 40.744175557426061 ], [ 16.433040852360723, 40.705518295126886 ], [ 16.244098251566104, 40.838008622476572 ], [ 16.202531834743777, 40.917511168604712 ], [ 16.354332740345395, 41.156262395019155 ], [ 16.43304085151928, 41.188861958874391 ], [ 16.499166597405434, 41.171947931789525 ], [ 16.542302545978902, 41.229440853795211 ], [ 17.099636711984704, 41.059236547043469 ], [ 17.38898115477755, 40.891863500230571 ] ] ] } },
{ "type": "Feature", "properties": { "NUTS_ID": "ITF48", "name": "Barletta-Andria-Trani" }, "geometry": { "type": "Polygon", "coordinates": [ [ [ 16.542302545978902, 41.229440853795211 ], [ 16.499166597405434, 41.171947931789525 ], [ 16.43304085151928, 41.188861958874391 ], [ 16.354332740345395, 41.156262395019155 ], [ 16.202531834743777, 40.917511168604712 ], [ 16.048412731176786, 40.935243535766375 ], [ 16.007879109140021, 41.058458387347265 ], [ 15.87031116155174, 41.139900098440236 ], [ 16.012291492416242, 41.234868836513201 ], [ 16.02473859247625, 41.42559043951006 ], [ 16.43304085240073, 41.271751381870089 ], [ 16.542302545978902, 41.229440853795211 ] ] ] } },
{ "type": "Feature", "properties": { "NUTS_ID": "ITF51", "name": "Potenza" }, "geometry": { "type": "Polygon", "coordinates": [ [ [ 15.644965154332134, 40.0428371949058 ], [ 15.788371992553181, 40.26707645435539 ], [ 15.549716270521241, 40.490191508803967 ], [ 15.335024570168521, 40.834843992594742 ], [ 15.524404142683602, 40.928347327762118 ], [ 15.54292107565001, 41.055823472105182 ], [ 15.87031116155174, 41.139900098440236 ], [ 16.007879109140021, 41.058458387347265 ], [ 16.048412731176786, 40.935243535766375 ], [ 16.202531834743777, 40.917511168604712 ], [ 16.244098251566104, 40.838008622476572 ], [ 16.144082176763472, 40.792220163682295 ], [ 16.072610999803757, 40.628677370783024 ], [ 16.192711823736733, 40.290266610524881 ], [ 16.361487899040817, 40.287687518721725 ], [ 16.398880782505881, 40.055400027097058 ], [ 16.391618761469136, 40.015019341020427 ], [ 16.287227307416305, 39.92945268683259 ], [ 16.075719803696394, 39.906529463872339 ], [ 15.876606643835684, 39.9975201792072 ], [ 15.755955854470685, 39.923418013478525 ], [ 15.676447685034484, 40.019683419442792 ], [ 15.644965154332134, 40.0428371949058 ] ] ] } },
{ "type": "Feature", "properties": { "NUTS_ID": "ITF52", "name": "Matera" }, "geometry": { "type": "Polygon", "coordinates": [ [ [ 16.644044043046698, 40.119134956509569 ], [ 16.433040852463456, 40.130681138190887 ], [ 16.398880782505881, 40.055400027097058 ], [ 16.361487899040817, 40.287687518721725 ], [ 16.192711823736733, 40.290266610524881 ], [ 16.072610999803757, 40.628677370783024 ], [ 16.144082176763472, 40.792220163682295 ], [ 16.244098251566104, 40.838008622476572 ], [ 16.433040852360723, 40.705518295126886 ], [ 16.506251349588556, 40.744175557426061 ], [ 16.724989805510742, 40.713814408476949 ], [ 16.726253300409383, 40.505021337026513 ], [ 16.86726385482358, 40.397845333376551 ], [ 16.644044043046698, 40.119134956509569 ] ] ] } },
{ "type": "Feature", "properties": { "NUTS_ID": "ITF61", "name": "Cosenza" }, "geometry": { "type": "Polygon", "coordinates": [ [ [ 15.755955854470685, 39.923418013478525 ], [ 15.876606643835684, 39.9975201792072 ], [ 16.075719803696394, 39.906529463872339 ], [ 16.287227307416305, 39.92945268683259 ], [ 16.391618761469136, 40.015019341020427 ], [ 16.398880782505881, 40.055400027097058 ], [ 16.433040852463456, 40.130681138190887 ], [ 16.644044043046698, 40.119134956509569 ], [ 16.60768192072522, 40.019683419314312 ], [ 16.503113907036575, 39.797698903500013 ], [ 16.534075884810434, 39.679882049943593 ], [ 17.02506450352254, 39.483578641974759 ], [ 16.755570693646806, 39.345968708976365 ], [ 16.755717327136715, 39.206913830937687 ], [ 16.613183708524538, 39.194124309970341 ], [ 16.43304085220116, 39.061993737322801 ], [ 16.317361635077518, 39.101764341485925 ], [ 16.093152917906771, 39.048742892012861 ], [ 16.018688944050023, 39.37440796049686 ], [ 15.847835997255709, 39.611561713544937 ], [ 15.755955854470685, 39.923418013478525 ] ] ] } },
{ "type": "Feature", "properties": { "NUTS_ID": "ITF62", "name": "Crotone" }, "geometry": { "type": "Polygon", "coordinates": [ [ [ 16.890732053895853, 38.927128675706406 ], [ 16.865307324169631, 39.012691988454684 ], [ 16.698389664497082, 39.087679929266521 ], [ 16.613183708524538, 39.194124309970341 ], [ 16.755717327136715, 39.206913830937687 ], [ 16.755570693646806, 39.345968708976365 ], [ 17.02506450352254, 39.483578641974759 ], [ 17.139026867151909, 39.387797527807557 ], [ 17.126740941581978, 39.102963400602633 ], [ 17.174810364123232, 38.991164474317763 ], [ 17.09374059716674, 38.908409274949555 ], [ 16.890732053895853, 38.927128675706406 ] ] ] } },
{ "type": "Feature", "properties": { "NUTS_ID": "ITF63", "name": "Catanzaro" }, "geometry": { "type": "Polygon", "coordinates": [ [ [ 16.093152917906771, 39.048742892012861 ], [ 16.317361635077518, 39.101764341485925 ], [ 16.43304085220116, 39.061993737322801 ], [ 16.613183708524538, 39.194124309970341 ], [ 16.698389664497082, 39.087679929266521 ], [ 16.865307324169631, 39.012691988454684 ], [ 16.890732053895853, 38.927128675706406 ], [ 16.609175588591082, 38.804030184016987 ], [ 16.548608605894302, 38.707491873503834 ], [ 16.564368131252046, 38.608268150875887 ], [ 16.582084461684566, 38.469790347178623 ], [ 16.41998513010881, 38.553951799223199 ], [ 16.341701716140459, 38.655938444889138 ], [ 16.338241629099013, 38.791240491383434 ], [ 16.213753436711045, 38.810439753807565 ], [ 16.20676791083962, 38.909048081333594 ], [ 16.093152917906771, 39.048742892012861 ] ] ] } },
{ "type": "Feature", "properties": { "NUTS_ID": "ITF64", "name": "Vibo Valentia" }, "geometry": { "type": "Polygon", "coordinates": [ [ [ 16.213753436711045, 38.810439753807565 ], [ 16.338241629099013, 38.791240491383434 ], [ 16.341701716140459, 38.655938444889138 ], [ 16.41998513010881, 38.553951799223199 ], [ 16.340272232083109, 38.441330552296783 ], [ 16.087691681447797, 38.546677949219344 ], [ 15.91895642663045, 38.506761543165581 ], [ 15.862150269757031, 38.655624596459901 ], [ 16.135692364239411, 38.730059502104119 ], [ 16.213753436711045, 38.810439753807565 ] ] ] } },
{ "type": "Feature", "properties": { "NUTS_ID": "ITF65", "name": "Reggio Calabria" }, "geometry": { "type": "Polygon", "coordinates": [ [ [ 15.91895642663045, 38.506761543165581 ], [ 16.087691681447797, 38.546677949219344 ], [ 16.340272232083109, 38.441330552296783 ], [ 16.41998513010881, 38.553951799223199 ], [ 16.582084461684566, 38.469790347178623 ], [ 16.544919987632529, 38.403732233740811 ], [ 16.43304085230529, 38.328867113171434 ], [ 16.217215498256497, 38.184522836003779 ], [ 16.057452035336656, 37.935726761175921 ], [ 15.74225525448329, 37.928622342417491 ], [ 15.648994753717526, 38.007327452090934 ], [ 15.649220368377737, 38.210197002969053 ], [ 15.812763569421818, 38.310170396987239 ], [ 15.91895642663045, 38.506761543165581 ] ] ] } },
{ "type": "Feature", "properties": { "NUTS_ID": "ITG11", "name": "Trapani" }, "geometry": { "type": "MultiPolygon", "coordinates": [ [ [ [ 12.896495987613854, 37.577118366394522 ], [ 12.692723987654043, 37.571079675761816 ], [ 12.529055328438131, 37.666735306210569 ], [ 12.447078552294712, 37.775758593830609 ], [ 12.445201685940072, 37.889001578008219 ], [ 12.532716519497134, 38.036624811330981 ], [ 12.759389736227215, 38.154171239279485 ], [ 12.866164829390492, 38.050587791159415 ], [ 12.977262495385441, 38.040205857757634 ], [ 13.040554103260087, 37.946147529812684 ], [ 12.96089208230824, 37.856499693104062 ], [ 13.075725688517515, 37.77906657008635 ], [ 13.012097426045887, 37.742671648898565 ], [ 12.896495987613854, 37.577118366394522 ] ] ], [ [ [ 12.099065869505855, 36.760675352589516 ], [ 12.023123705165784, 36.722625708750009 ], [ 11.926032105489746, 36.772500287235538 ], [ 12.036545174837507, 36.814981666224078 ], [ 12.099065869505855, 36.760675352589516 ] ] ] ] } },
{ "type": "Feature", "properties": { "NUTS_ID": "ITG12", "name": "Palermo" }, "geometry": { "type": "Polygon", "coordinates": [ [ [ 14.183486324891419, 38.019396452548719 ], [ 14.279869589003765, 37.840080767009013 ], [ 14.272922400589419, 37.728944242040519 ], [ 14.135052404713699, 37.616705575857161 ], [ 14.061427498799496, 37.695957453837487 ], [ 13.977776689048104, 37.597798675809038 ], [ 13.814684877901199, 37.724314986760191 ], [ 13.732527524415897, 37.682966034741085 ], [ 13.414397519693612, 37.648972520236605 ], [ 13.367985374934639, 37.55759478075943 ], [ 13.012097426045887, 37.742671648898565 ], [ 13.075725688517515, 37.77906657008635 ], [ 12.96089208230824, 37.856499693104062 ], [ 13.040554103260087, 37.946147529812684 ], [ 12.977262495385441, 38.040205857757634 ], [ 13.10071199840915, 38.17446591983925 ], [ 13.298594430665565, 38.20641118212589 ], [ 13.732867802847977, 37.980773191760804 ], [ 14.183486324891419, 38.019396452548719 ] ] ] } },
{ "type": "Feature", "properties": { "NUTS_ID": "ITG13", "name": "Messina" }, "geometry": { "type": "MultiPolygon", "coordinates": [ [ [ [ 15.541098871759877, 38.146420250170884 ], [ 15.258139133817116, 37.807298540366197 ], [ 14.914594530330495, 37.944252038895122 ], [ 14.782856010513267, 37.924776075502329 ], [ 14.742268884244044, 37.818132092215137 ], [ 14.279869589003765, 37.840080767009013 ], [ 14.183486324891419, 38.019396452548719 ], [ 14.510527057852675, 38.042348407637824 ], [ 14.886114609878964, 38.178654066605546 ], [ 15.10611119652939, 38.131466988647404 ], [ 15.565162780377911, 38.277591839193981 ], [ 15.541098871759877, 38.146420250170884 ] ] ], [ [ [ 14.983257693994064, 38.472885777389735 ], [ 14.888181281005977, 38.465178166190718 ], [ 14.767079716138673, 38.579107051717237 ], [ 14.876153491890168, 38.599225363815599 ], [ 14.983257693994064, 38.472885777389735 ] ] ] ] } },
{ "type": "Feature", "properties": { "NUTS_ID": "ITG14", "name": "Agrigento" }, "geometry": { "type": "Polygon", "coordinates": [ [ [ 12.896495987613854, 37.577118366394522 ], [ 13.012097426045887, 37.742671648898565 ], [ 13.367985374934639, 37.55759478075943 ], [ 13.414397519693612, 37.648972520236605 ], [ 13.732527524415897, 37.682966034741085 ], [ 13.805124429932414, 37.654941575253204 ], [ 13.700030973490547, 37.560574036507958 ], [ 13.692254164747521, 37.468329753668236 ], [ 13.843507416880767, 37.421423577258309 ], [ 14.013074199745047, 37.250554567365896 ], [ 14.036207324626767, 37.106028414103179 ], [ 13.887340218399615, 37.110016434411406 ], [ 13.603289461407693, 37.250554567649608 ], [ 12.896495987613854, 37.577118366394522 ] ] ] } },
{ "type": "Feature", "properties": { "NUTS_ID": "ITG15", "name": "Caltanissetta" }, "geometry": { "type": "Polygon", "coordinates": [ [ [ 14.036207324626767, 37.106028414103179 ], [ 14.013074199745047, 37.250554567365896 ], [ 13.843507416880767, 37.421423577258309 ], [ 13.692254164747521, 37.468329753668236 ], [ 13.700030973490547, 37.560574036507958 ], [ 13.805124429932414, 37.654941575253204 ], [ 13.732527524415897, 37.682966034741085 ], [ 13.814684877901199, 37.724314986760191 ], [ 13.977776689048104, 37.597798675809038 ], [ 14.061427498799496, 37.695957453837487 ], [ 14.135052404713699, 37.616705575857161 ], [ 14.080101617215414, 37.36593879678923 ], [ 14.352670515879487, 37.306139861214788 ], [ 14.382968954653572, 37.250554568176909 ], [ 14.444122523985545, 37.052950564525247 ], [ 14.337611975545165, 37.001971265383105 ], [ 14.036207324626767, 37.106028414103179 ] ] ] } },
{ "type": "Feature", "properties": { "NUTS_ID": "ITG16", "name": "Enna" }, "geometry": { "type": "Polygon", "coordinates": [ [ [ 14.352670515879487, 37.306139861214788 ], [ 14.080101617215414, 37.36593879678923 ], [ 14.135052404713699, 37.616705575857161 ], [ 14.272922400589419, 37.728944242040519 ], [ 14.279869589003765, 37.840080767009013 ], [ 14.742268884244044, 37.818132092215137 ], [ 14.718538351584128, 37.726087689261341 ], [ 14.80597885190806, 37.640360986129473 ], [ 14.798958697477637, 37.537436771890121 ], [ 14.565313273460671, 37.537965217900521 ], [ 14.574586199491037, 37.383539947015095 ], [ 14.352670515879487, 37.306139861214788 ] ] ] } },
{ "type": "Feature", "properties": { "NUTS_ID": "ITG17", "name": "Catania" }, "geometry": { "type": "Polygon", "coordinates": [ [ [ 15.091498994129191, 37.357708633397529 ], [ 14.891680724827118, 37.390968857077084 ], [ 14.806177732785157, 37.250554567423933 ], [ 14.797613067627893, 37.117468681864224 ], [ 14.444122523985545, 37.052950564525247 ], [ 14.382968954653572, 37.250554568176909 ], [ 14.352670515879487, 37.306139861214788 ], [ 14.574586199491037, 37.383539947015095 ], [ 14.565313273460671, 37.537965217900521 ], [ 14.798958697477637, 37.537436771890121 ], [ 14.80597885190806, 37.640360986129473 ], [ 14.718538351584128, 37.726087689261341 ], [ 14.742268884244044, 37.818132092215137 ], [ 14.782856010513267, 37.924776075502329 ], [ 14.914594530330495, 37.944252038895122 ], [ 15.258139133817116, 37.807298540366197 ], [ 15.095543005508723, 37.474094986889469 ], [ 15.091498994129191, 37.357708633397529 ] ] ] } },
{ "type": "Feature", "properties": { "NUTS_ID": "ITG18", "name": "Ragusa" }, "geometry": { "type": "Polygon", "coordinates": [ [ [ 14.337611975545165, 37.001971265383105 ], [ 14.444122523985545, 37.052950564525247 ], [ 14.797613067627893, 37.117468681864224 ], [ 14.880210567519036, 36.973720641838575 ], [ 14.873065562183941, 36.835829553228052 ], [ 15.000358137509188, 36.702847609276546 ], [ 14.517629147333233, 36.787590295988174 ], [ 14.337611975545165, 37.001971265383105 ] ] ] } },
{ "type": "Feature", "properties": { "NUTS_ID": "ITG19", "name": "Siracusa" }, "geometry": { "type": "Polygon", "coordinates": [ [ [ 15.091498994129191, 37.357708633397529 ], [ 15.244775112738733, 37.250554568091111 ], [ 15.202071683072582, 37.191419093102191 ], [ 15.293808716170272, 37.031055378230533 ], [ 15.119931307626707, 36.849625726247162 ], [ 15.112599355479654, 36.676428032519695 ], [ 15.000358137509188, 36.702847609276546 ], [ 14.873065562183941, 36.835829553228052 ], [ 14.880210567519036, 36.973720641838575 ], [ 14.797613067627893, 37.117468681864224 ], [ 14.806177732785157, 37.250554567423933 ], [ 14.891680724827118, 37.390968857077084 ], [ 15.091498994129191, 37.357708633397529 ] ] ] } },
{ "type": "Feature", "properties": { "NUTS_ID": "ITG2D", "name": "Sassari" }, "geometry": { "type": "MultiPolygon", "coordinates": [ [ [ [ 9.719257098886342, 40.879545761193192 ], [ 9.691857935069656, 40.7870700349063 ], [ 9.749370037359435, 40.658097118236824 ], [ 9.569735705366405, 40.683449081404383 ], [ 9.314765570831643, 40.536063297069468 ], [ 9.212961647709625, 40.541730156277843 ], [ 9.213105912521387, 40.419856774670244 ], [ 9.075169556983731, 40.337393544503698 ], [ 8.846184223425265, 40.391860156057227 ], [ 8.62030640420264, 40.318978602697833 ], [ 8.500606405007105, 40.412062294795163 ], [ 8.399809168067803, 40.407568301094649 ], [ 8.309258729056554, 40.567942320800832 ], [ 8.161052708456484, 40.595904378324342 ], [ 8.21297330961894, 40.859178808549238 ], [ 8.562153548353825, 40.839641037688025 ], [ 8.799526590488872, 40.937640735251705 ], [ 9.211518225949941, 41.243869328430705 ], [ 9.455579577836732, 41.234254467611912 ], [ 9.447438292245559, 41.153648194965712 ], [ 9.545707256526571, 41.12145213452385 ], [ 9.604453993070884, 40.905008027721912 ], [ 9.719257098886342, 40.879545761193192 ] ] ], [ [ [ 8.374981218420066, 41.069644765452637 ], [ 8.308367977428656, 41.031962988350735 ], [ 8.22808344664594, 41.110810174869869 ], [ 8.33042840775674, 41.135649247772228 ], [ 8.374981218420066, 41.069644765452637 ] ] ], [ [ [ 8.265966578083265, 40.953495041815025 ], [ 8.224489244561147, 40.882408723501797 ], [ 8.125994900957979, 40.930460001733124 ], [ 8.21087680178454, 40.995473338496282 ], [ 8.265966578083265, 40.953495041815025 ] ] ] ] } },
{ "type": "Feature", "properties": { "NUTS_ID": "ITG2E", "name": "Nuoro" }, "geometry": { "type": "Polygon", "coordinates": [ [ [ 9.651118649709234, 39.549323989896102 ], [ 9.415523804471436, 39.653862365106043 ], [ 9.379370723937258, 39.894742172405429 ], [ 9.234176764072371, 39.906985750554803 ], [ 9.166119557856989, 39.834288973178872 ], [ 8.998869789150875, 39.928247714501872 ], [ 8.972667627986439, 40.021959175098608 ], [ 9.042898269812493, 40.057788578507832 ], [ 8.972568740797367, 40.203391989203872 ], [ 8.713363758280256, 40.194280462209967 ], [ 8.62030640420264, 40.318978602697833 ], [ 8.846184223425265, 40.391860156057227 ], [ 9.075169556983731, 40.337393544503698 ], [ 9.213105912521387, 40.419856774670244 ], [ 9.212961647709625, 40.541730156277843 ], [ 9.314765570831643, 40.536063297069468 ], [ 9.569735705366405, 40.683449081404383 ], [ 9.749370037359435, 40.658097118236824 ], [ 9.807587220535744, 40.486110644815177 ], [ 9.640163392000265, 40.24454477127211 ], [ 9.723964080420595, 40.057788577789118 ], [ 9.651118649709234, 39.549323989896102 ] ] ] } },
{ "type": "Feature", "properties": { "NUTS_ID": "ITG2F", "name": "Cagliari" }, "geometry": { "type": "Polygon", "coordinates": [ [ [ 8.91069446052895, 38.915529496443952 ], [ 8.829658558565516, 39.113501899686412 ], [ 8.922084694871822, 39.297289014006026 ], [ 9.339270446497697, 39.413337019666599 ], [ 9.467346276644228, 39.222556243654886 ], [ 9.442284696404238, 39.126983400985523 ], [ 9.266783130058856, 39.215717138224122 ], [ 9.089416015511578, 39.196480101957981 ], [ 9.018533373418357, 39.004588935337736 ], [ 8.91069446052895, 38.915529496443952 ] ] ] } },
{ "type": "Feature", "properties": { "NUTS_ID": "ITG2G", "name": "Oristano" }, "geometry": { "type": "Polygon", "coordinates": [ [ [ 8.399809168067803, 40.407568301094649 ], [ 8.500606405007105, 40.412062294795163 ], [ 8.62030640420264, 40.318978602697833 ], [ 8.713363758280256, 40.194280462209967 ], [ 8.972568740797367, 40.203391989203872 ], [ 9.042898269812493, 40.057788578507832 ], [ 8.972667627986439, 40.021959175098608 ], [ 8.998869789150875, 39.928247714501872 ], [ 9.166119557856989, 39.834288973178872 ], [ 8.971679650538466, 39.806534998738364 ], [ 8.751017806005798, 39.634260152104375 ], [ 8.50225472443717, 39.713007208043663 ], [ 8.538588973431388, 39.865974073806932 ], [ 8.408736122307589, 39.936846558247908 ], [ 8.462233801109456, 40.057788578442207 ], [ 8.472132466461948, 40.261241373367497 ], [ 8.399809168067803, 40.407568301094649 ] ] ] } },
{ "type": "Feature", "properties": { "NUTS_ID": "ITG2H", "name": "Sud Sardegna" }, "geometry": { "type": "MultiPolygon", "coordinates": [ [ [ [ 9.415523804471436, 39.653862365106043 ], [ 9.651118649709234, 39.549323989896102 ], [ 9.568101406875241, 39.176706809125811 ], [ 9.442284696404238, 39.126983400985523 ], [ 9.467346276644228, 39.222556243654886 ], [ 9.339270446497697, 39.413337019666599 ], [ 8.922084694871822, 39.297289014006026 ], [ 8.829658558565516, 39.113501899686412 ], [ 8.91069446052895, 38.915529496443952 ], [ 8.630662087334153, 38.909865331511597 ], [ 8.52087106927527, 39.04698816278492 ], [ 8.425043203921703, 38.977909001997347 ], [ 8.388092972192029, 39.007539714687127 ], [ 8.398462392103202, 39.469803230932342 ], [ 8.50225472443717, 39.713007208043663 ], [ 8.751017806005798, 39.634260152104375 ], [ 8.971679650538466, 39.806534998738364 ], [ 9.166119557856989, 39.834288973178872 ], [ 9.234176764072371, 39.906985750554803 ], [ 9.379370723937258, 39.894742172405429 ], [ 9.415523804471436, 39.653862365106043 ] ] ], [ [ [ 8.320540187129369, 39.103798571781113 ], [ 8.25617594286658, 39.093184699068686 ], [ 8.191609515457362, 39.148707652966465 ], [ 8.314401456843219, 39.198082569119606 ], [ 8.320540187129369, 39.103798571781113 ] ] ] ] } },
{ "type": "Feature", "properties": { "NUTS_ID": "ITH10", "name": "Bolzano-Bozen" }, "geometry": { "type": "Polygon", "coordinates": [ [ [ 11.828336592845721, 46.508914512710916 ], [ 11.677506076470069, 46.493927713506416 ], [ 11.552531594893169, 46.366804983655314 ], [ 11.249340370249062, 46.246120590948856 ], [ 11.167220573682531, 46.28917823186346 ], [ 11.188308825564189, 46.488506087215903 ], [ 10.810076884929973, 46.442311572407192 ], [ 10.622145398071567, 46.448101885974417 ], [ 10.4528011864139, 46.53068305387368 ], [ 10.472954115181354, 46.603405977727697 ], [ 10.398166799595137, 46.680282722609803 ], [ 10.469651302255382, 46.854908998200997 ], [ 10.667848043969448, 46.863804404357815 ], [ 10.810076885607122, 46.779098301346743 ], [ 11.030746848193086, 46.781873828795014 ], [ 11.16428131536764, 46.965722619327387 ], [ 11.627199511745951, 47.013298837370506 ], [ 11.750250198913958, 46.983625312032984 ], [ 12.136013771373326, 47.080667456045099 ], [ 12.240745396712335, 47.069168359391313 ], [ 12.142597183940266, 46.997157717979235 ], [ 12.164068756483024, 46.914875288388437 ], [ 12.477924086306549, 46.67983561070659 ], [ 12.336441353647079, 46.626336650461624 ], [ 12.080457184526631, 46.656524777720932 ], [ 11.99668651855376, 46.554051333589314 ], [ 11.828336592845721, 46.508914512710916 ] ] ] } },
{ "type": "Feature", "properties": { "NUTS_ID": "ITH20", "name": "Trento" }, "geometry": { "type": "Polygon", "coordinates": [ [ [ 10.840176546171993, 45.832758545579701 ], [ 10.516289133590837, 45.856122610404334 ], [ 10.477618104715411, 46.01172338081988 ], [ 10.56043928701529, 46.255280870323006 ], [ 10.515751635692615, 46.343224481853845 ], [ 10.622145398071567, 46.448101885974417 ], [ 10.810076884929973, 46.442311572407192 ], [ 11.188308825564189, 46.488506087215903 ], [ 11.167220573682531, 46.28917823186346 ], [ 11.249340370249062, 46.246120590948856 ], [ 11.552531594893169, 46.366804983655314 ], [ 11.677506076470069, 46.493927713506416 ], [ 11.828336592845721, 46.508914512710916 ], [ 11.820686714705566, 46.314909925661844 ], [ 11.927178309420178, 46.190917300868584 ], [ 11.709758973178262, 46.083478093369784 ], [ 11.684367043007756, 45.984009318306335 ], [ 11.392468446712066, 45.977801303507498 ], [ 11.241503433368678, 45.883198798985944 ], [ 11.138337391256771, 45.697088615609438 ], [ 10.885132056692461, 45.708448295932811 ], [ 10.840176546171993, 45.832758545579701 ] ] ] } },
{ "type": "Feature", "properties": { "NUTS_ID": "ITH31", "name": "Verona" }, "geometry": { "type": "Polygon", "coordinates": [ [ [ 11.205502616579526, 45.109487527383536 ], [ 11.056811453404157, 45.118921659749496 ], [ 10.810076884712819, 45.298676232855847 ], [ 10.726389550321523, 45.311016736542108 ], [ 10.654655464578727, 45.415826970032541 ], [ 10.655995453369831, 45.614514432133504 ], [ 10.840176546171993, 45.832758545579701 ], [ 10.885132056692461, 45.708448295932811 ], [ 11.138337391256771, 45.697088615609438 ], [ 11.167519006597878, 45.631652716608968 ], [ 11.487054575392184, 45.265951834801569 ], [ 11.404557304912407, 45.23407239440558 ], [ 11.416932163295002, 45.129329172217489 ], [ 11.398340005416976, 45.064751512632384 ], [ 11.205502616579526, 45.109487527383536 ] ] ] } },
{ "type": "Feature", "properties": { "NUTS_ID": "ITH32", "name": "Vicenza" }, "geometry": { "type": "Polygon", "coordinates": [ [ [ 11.487054575392184, 45.265951834801569 ], [ 11.167519006597878, 45.631652716608968 ], [ 11.138337391256771, 45.697088615609438 ], [ 11.241503433368678, 45.883198798985944 ], [ 11.392468446712066, 45.977801303507498 ], [ 11.684367043007756, 45.984009318306335 ], [ 11.799595304349412, 45.880558103624942 ], [ 11.765602292367918, 45.843673567428333 ], [ 11.821666567965075, 45.687179431243841 ], [ 11.715480507440867, 45.677218916371771 ], [ 11.646993904150603, 45.631652716561298 ], [ 11.722989298459126, 45.472814626100345 ], [ 11.583124951041727, 45.287055677526922 ], [ 11.487054575392184, 45.265951834801569 ] ] ] } },
{ "type": "Feature", "properties": { "NUTS_ID": "ITH33", "name": "Belluno" }, "geometry": { "type": "Polygon", "coordinates": [ [ [ 12.498702798402139, 46.412222448909695 ], [ 12.350739776060433, 46.281007780013702 ], [ 12.478966927343924, 46.142620162454342 ], [ 12.400534318628045, 46.041996337048438 ], [ 12.317800330194286, 46.066138721428409 ], [ 11.799595304349412, 45.880558103624942 ], [ 11.684367043007756, 45.984009318306335 ], [ 11.709758973178262, 46.083478093369784 ], [ 11.927178309420178, 46.190917300868584 ], [ 11.820686714705566, 46.314909925661844 ], [ 11.828336592845721, 46.508914512710916 ], [ 11.99668651855376, 46.554051333589314 ], [ 12.080457184526631, 46.656524777720932 ], [ 12.336441353647079, 46.626336650461624 ], [ 12.477924086306549, 46.67983561070659 ], [ 12.69063519592004, 46.656972038128821 ], [ 12.731393018169976, 46.634288097736928 ], [ 12.498702798402139, 46.412222448909695 ] ] ] } },
{ "type": "Feature", "properties": { "NUTS_ID": "ITH34", "name": "Treviso" }, "geometry": { "type": "Polygon", "coordinates": [ [ [ 11.821666567965075, 45.687179431243841 ], [ 11.765602292367918, 45.843673567428333 ], [ 11.799595304349412, 45.880558103624942 ], [ 12.317800330194286, 46.066138721428409 ], [ 12.400534318628045, 46.041996337048438 ], [ 12.661673154569655, 45.792441078907068 ], [ 12.633677641190875, 45.702666812004637 ], [ 12.43673194213482, 45.631652716507425 ], [ 12.260630879608422, 45.544391829464871 ], [ 12.092476565880519, 45.598335015889518 ], [ 11.821666567965075, 45.687179431243841 ] ] ] } },
{ "type": "Feature", "properties": { "NUTS_ID": "ITH35", "name": "Venezia" }, "geometry": { "type": "MultiPolygon", "coordinates": [ [ [ [ 13.098785272810265, 45.644532896820024 ], [ 12.519308372393995, 45.488092508285796 ], [ 12.411840606610527, 45.534421542254087 ], [ 12.365453616895048, 45.427231236085532 ], [ 12.132562140600335, 45.300370485249168 ], [ 12.039192926978115, 45.335213778152642 ], [ 11.984121751558407, 45.433290899469121 ], [ 12.092476565880519, 45.598335015889518 ], [ 12.260630879608422, 45.544391829464871 ], [ 12.43673194213482, 45.631652716507425 ], [ 12.633677641190875, 45.702666812004637 ], [ 12.661673154569655, 45.792441078907068 ], [ 12.979057954505198, 45.834048868236955 ], [ 13.098785272810265, 45.644532896820024 ] ] ], [ [ [ 12.330572226332455, 45.160550601170762 ], [ 12.131172779558026, 45.074396033225391 ], [ 11.968785188981464, 45.133982947625128 ], [ 12.200493965481296, 45.257336884665058 ], [ 12.330572226332455, 45.160550601170762 ] ] ] ] } },
{ "type": "Feature", "properties": { "NUTS_ID": "ITH36", "name": "Padova" }, "geometry": { "type": "Polygon", "coordinates": [ [ [ 12.200493965481296, 45.257336884665058 ], [ 11.968785188981464, 45.133982947625128 ], [ 11.416932163295002, 45.129329172217489 ], [ 11.404557304912407, 45.23407239440558 ], [ 11.487054575392184, 45.265951834801569 ], [ 11.583124951041727, 45.287055677526922 ], [ 11.722989298459126, 45.472814626100345 ], [ 11.646993904150603, 45.631652716561298 ], [ 11.715480507440867, 45.677218916371771 ], [ 11.821666567965075, 45.687179431243841 ], [ 12.092476565880519, 45.598335015889518 ], [ 11.984121751558407, 45.433290899469121 ], [ 12.039192926978115, 45.335213778152642 ], [ 12.132562140600335, 45.300370485249168 ], [ 12.200493965481296, 45.257336884665058 ] ] ] } },
{ "type": "Feature", "properties": { "NUTS_ID": "ITH37", "name": "Rovigo" }, "geometry": { "type": "Polygon", "coordinates": [ [ [ 12.399056638112196, 44.792615335567625 ], [ 12.262576258094422, 44.929944253548157 ], [ 12.038111273613644, 44.976724948490777 ], [ 11.824371283112312, 44.974897039129253 ], [ 11.627462750512192, 44.90216611296222 ], [ 11.42676564283164, 44.950076158956648 ], [ 11.215301493302201, 45.048478822021707 ], [ 11.205502616579526, 45.109487527383536 ], [ 11.398340005416976, 45.064751512632384 ], [ 11.416932163295002, 45.129329172217489 ], [ 11.968785188981464, 45.133982947625128 ], [ 12.131172779558026, 45.074396033225391 ], [ 12.330572226332455, 45.160550601170762 ], [ 12.464826223922788, 44.934565295584292 ], [ 12.399056638112196, 44.792615335567625 ] ] ] } },
{ "type": "Feature", "properties": { "NUTS_ID": "ITH41", "name": "Pordenone" }, "geometry": { "type": "Polygon", "coordinates": [ [ [ 12.661673154569655, 45.792441078907068 ], [ 12.400534318628045, 46.041996337048438 ], [ 12.478966927343924, 46.142620162454342 ], [ 12.350739776060433, 46.281007780013702 ], [ 12.498702798402139, 46.412222448909695 ], [ 12.635964605473065, 46.343411558977301 ], [ 12.961030089465853, 46.307951829187978 ], [ 12.910490932641071, 45.982232328495797 ], [ 12.979057954505198, 45.834048868236955 ], [ 12.661673154569655, 45.792441078907068 ] ] ] } },
{ "type": "Feature", "properties": { "NUTS_ID": "ITH42", "name": "Udine" }, "geometry": { "type": "Polygon", "coordinates": [ [ [ 13.098785272810265, 45.644532896820024 ], [ 12.979057954505198, 45.834048868236955 ], [ 12.910490932641071, 45.982232328495797 ], [ 12.961030089465853, 46.307951829187978 ], [ 12.635964605473065, 46.343411558977301 ], [ 12.498702798402139, 46.412222448909695 ], [ 12.731393018169976, 46.634288097736928 ], [ 13.504249359530172, 46.56630384612243 ], [ 13.714185081104839, 46.522703436818034 ], [ 13.684031873864656, 46.437472358623261 ], [ 13.402879967444214, 46.300137003372249 ], [ 13.459856148679817, 46.224708681805673 ], [ 13.633614378458894, 46.191790826778465 ], [ 13.664051766610068, 46.170440605462993 ], [ 13.530244727345965, 46.067383546656671 ], [ 13.496939052950424, 46.051335023391523 ], [ 13.406680156795606, 45.725244065471578 ], [ 13.142316752821429, 45.759475225019244 ], [ 13.098785272810265, 45.644532896820024 ] ] ] } },
{ "type": "Feature", "properties": { "NUTS_ID": "ITH43", "name": "Gorizia" }, "geometry": { "type": "Polygon", "coordinates": [ [ [ 13.406680156795606, 45.725244065471578 ], [ 13.496939052950424, 46.051335023391523 ], [ 13.518262723293041, 45.978419272764235 ], [ 13.620869161530226, 45.984596023041995 ], [ 13.63717239080904, 45.938025609790756 ], [ 13.611410262465792, 45.90376807084612 ], [ 13.597137158436148, 45.819470726041416 ], [ 13.596242760471197, 45.807937324772205 ], [ 13.579783202424668, 45.786951550228409 ], [ 13.406680156795606, 45.725244065471578 ] ] ] } },
{ "type": "Feature", "properties": { "NUTS_ID": "ITH44", "name": "Trieste" }, "geometry": { "type": "Polygon", "coordinates": [ [ [ 13.579783202424668, 45.786951550228409 ], [ 13.596242760471197, 45.807937324772205 ], [ 13.708288688774543, 45.775019414055116 ], [ 13.89868555510818, 45.643424790155116 ], [ 13.869098217095974, 45.609214972112362 ], [ 13.829461544330744, 45.585080101504971 ], [ 13.735415187929338, 45.596160972970054 ], [ 13.723158648707658, 45.594806766403458 ], [ 13.759658375515642, 45.63165271633784 ], [ 13.579783202424668, 45.786951550228409 ] ] ] } },
{ "type": "Feature", "properties": { "NUTS_ID": "ITH51", "name": "Piacenza" }, "geometry": { "type": "Polygon", "coordinates": [ [ [ 9.202995371924155, 44.613476549271802 ], [ 9.200074145413003, 44.686099331915464 ], [ 9.308945514117722, 44.724013696655859 ], [ 9.34132786354645, 44.822998586224195 ], [ 9.296212747118155, 44.913668788172707 ], [ 9.364782858593806, 45.032985944277293 ], [ 9.548684449505979, 45.132648654485472 ], [ 9.730886063785084, 45.066550134014001 ], [ 9.891101695291427, 45.130897855303267 ], [ 10.083503066795364, 45.043958427294719 ], [ 9.960756531748794, 44.837714702093045 ], [ 9.493362949377683, 44.555858924781084 ], [ 9.202995371924155, 44.613476549271802 ] ] ] } },
{ "type": "Feature", "properties": { "NUTS_ID": "ITH52", "name": "Parma" }, "geometry": { "type": "Polygon", "coordinates": [ [ [ 9.493362949377683, 44.555858924781084 ], [ 9.960756531748794, 44.837714702093045 ], [ 10.083503066795364, 45.043958427294719 ], [ 10.464030601429872, 44.937171461846702 ], [ 10.504343921380624, 44.922417917478519 ], [ 10.386532250320405, 44.556205197107325 ], [ 10.142054447092201, 44.353852888725029 ], [ 9.897010632740757, 44.468142381345999 ], [ 9.686725744145331, 44.365921869064671 ], [ 9.59379210493082, 44.424653019674054 ], [ 9.479059479757368, 44.409240651188924 ], [ 9.493362949377683, 44.555858924781084 ] ] ] } },
{ "type": "Feature", "properties": { "NUTS_ID": "ITH53", "name": "Reggio nell’Emilia" }, "geometry": { "type": "Polygon", "coordinates": [ [ [ 10.142054447092201, 44.353852888725029 ], [ 10.386532250320405, 44.556205197107325 ], [ 10.504343921380624, 44.922417917478519 ], [ 10.696699361692948, 44.972173940229837 ], [ 10.810076884962635, 44.936520812482129 ], [ 10.887909551569521, 44.914266041670999 ], [ 10.788055810143106, 44.630551937178176 ], [ 10.470149243756241, 44.226041007131073 ], [ 10.253875127572835, 44.268566911055139 ], [ 10.142054447092201, 44.353852888725029 ] ] ] } },
{ "type": "Feature", "properties": { "NUTS_ID": "ITH54", "name": "Modena" }, "geometry": { "type": "Polygon", "coordinates": [ [ [ 10.470149243756241, 44.226041007131073 ], [ 10.788055810143106, 44.630551937178176 ], [ 10.887909551569521, 44.914266041670999 ], [ 11.246231471008517, 44.95142814814723 ], [ 11.341646390788897, 44.844274427390907 ], [ 11.293370640799397, 44.802797389650607 ], [ 11.135365054682206, 44.741417775627724 ], [ 10.991465127579339, 44.314332517782063 ], [ 10.81007688462461, 44.117408375030443 ], [ 10.695237933640215, 44.155307034548009 ], [ 10.624078231734007, 44.120351669241778 ], [ 10.470149243756241, 44.226041007131073 ] ] ] } },
{ "type": "Feature", "properties": { "NUTS_ID": "ITH55", "name": "Bologna" }, "geometry": { "type": "Polygon", "coordinates": [ [ [ 11.524959594089269, 44.157640006734873 ], [ 11.411026260200771, 44.223512926922403 ], [ 11.202439550013363, 44.100720978561796 ], [ 11.049449010433179, 44.090230054185838 ], [ 10.81007688462461, 44.117408375030443 ], [ 10.991465127579339, 44.314332517782063 ], [ 11.135365054682206, 44.741417775627724 ], [ 11.293370640799397, 44.802797389650607 ], [ 11.277507152791021, 44.727872869884571 ], [ 11.388934888580685, 44.764987724460497 ], [ 11.548902601430605, 44.723194535552004 ], [ 11.778609751611128, 44.622775043855647 ], [ 11.789198455900287, 44.554334650822035 ], [ 11.811772259086057, 44.388827347767794 ], [ 11.633571781764452, 44.264738403119942 ], [ 11.524959594089269, 44.157640006734873 ] ] ] } },
{ "type": "Feature", "properties": { "NUTS_ID": "ITH56", "name": "Ferrara" }, "geometry": { "type": "Polygon", "coordinates": [ [ [ 12.269902172495692, 44.62999512359098 ], [ 12.144750464576855, 44.556543651074975 ], [ 11.789198455900287, 44.554334650822035 ], [ 11.778609751611128, 44.622775043855647 ], [ 11.548902601430605, 44.723194535552004 ], [ 11.388934888580685, 44.764987724460497 ], [ 11.277507152791021, 44.727872869884571 ], [ 11.293370640799397, 44.802797389650607 ], [ 11.341646390788897, 44.844274427390907 ], [ 11.246231471008517, 44.95142814814723 ], [ 11.42676564283164, 44.950076158956648 ], [ 11.627462750512192, 44.90216611296222 ], [ 11.824371283112312, 44.974897039129253 ], [ 12.038111273613644, 44.976724948490777 ], [ 12.262576258094422, 44.929944253548157 ], [ 12.399056638112196, 44.792615335567625 ], [ 12.283192945470596, 44.802762527987937 ], [ 12.269902172495692, 44.62999512359098 ] ] ] } },
{ "type": "Feature", "properties": { "NUTS_ID": "ITH57", "name": "Ravenna" }, "geometry": { "type": "Polygon", "coordinates": [ [ [ 12.38428203347744, 44.224726441602506 ], [ 12.310127893276492, 44.21019789326256 ], [ 12.135606676147411, 44.261223270922663 ], [ 12.039114143410764, 44.319543072962475 ], [ 11.971307722693394, 44.259507128232165 ], [ 11.71590659617266, 44.12254050228033 ], [ 11.524959594089269, 44.157640006734873 ], [ 11.633571781764452, 44.264738403119942 ], [ 11.811772259086057, 44.388827347767794 ], [ 11.789198455900287, 44.554334650822035 ], [ 12.144750464576855, 44.556543651074975 ], [ 12.269902172495692, 44.62999512359098 ], [ 12.360421737773212, 44.264738402827525 ], [ 12.38428203347744, 44.224726441602506 ] ] ] } },
{ "type": "Feature", "properties": { "NUTS_ID": "ITH58", "name": "Forlì-Cesena" }, "geometry": { "type": "Polygon", "coordinates": [ [ [ 12.450348990426967, 44.16218966910133 ], [ 12.340817151730617, 43.969496983473853 ], [ 12.159845997454795, 43.895856941284073 ], [ 12.107463769392329, 43.753753609066877 ], [ 11.710189003785381, 43.877430528782568 ], [ 11.672577019416281, 43.981152539844544 ], [ 11.71590659617266, 44.12254050228033 ], [ 11.971307722693394, 44.259507128232165 ], [ 12.039114143410764, 44.319543072962475 ], [ 12.135606676147411, 44.261223270922663 ], [ 12.310127893276492, 44.21019789326256 ], [ 12.38428203347744, 44.224726441602506 ], [ 12.450348990426967, 44.16218966910133 ] ] ] } },
{ "type": "Feature", "properties": { "NUTS_ID": "ITH59", "name": "Rimini" }, "geometry": { "type": "Polygon", "coordinates": [ [ [ 12.75067143415462, 43.970633259685272 ], [ 12.661601189372583, 43.8390830991492 ], [ 12.487415448872794, 43.896451067759195 ], [ 12.513168314417907, 43.946445074559819 ], [ 12.503887654236161, 43.985423842991345 ], [ 12.412154642735699, 43.950248238022979 ], [ 12.414551431480396, 43.909895911682909 ], [ 12.462405477928383, 43.893752884151503 ], [ 12.283797648148576, 43.764898818729897 ], [ 12.107463769392329, 43.753753609066877 ], [ 12.159845997454795, 43.895856941284073 ], [ 12.340817151730617, 43.969496983473853 ], [ 12.450348990426967, 44.16218966910133 ], [ 12.75067143415462, 43.970633259685272 ] ] ] } },
{ "type": "Feature", "properties": { "NUTS_ID": "ITI11", "name": "Massa-Carrara" }, "geometry": { "type": "Polygon", "coordinates": [ [ [ 10.018769669458909, 44.044535918363209 ], [ 10.042168493209644, 44.0902670502104 ], [ 9.686725744145331, 44.365921869064671 ], [ 9.897010632740757, 44.468142381345999 ], [ 10.142054447092201, 44.353852888725029 ], [ 10.253875127572835, 44.268566911055139 ], [ 10.193340091789564, 44.187660076271328 ], [ 10.216728162415849, 44.059728514183142 ], [ 10.143475973019028, 43.975420548865287 ], [ 10.018769669458909, 44.044535918363209 ] ] ] } },
{ "type": "Feature", "properties": { "NUTS_ID": "ITI12", "name": "Lucca" }, "geometry": { "type": "Polygon", "coordinates": [ [ [ 10.143475973019028, 43.975420548865287 ], [ 10.216728162415849, 44.059728514183142 ], [ 10.193340091789564, 44.187660076271328 ], [ 10.253875127572835, 44.268566911055139 ], [ 10.470149243756241, 44.226041007131073 ], [ 10.624078231734007, 44.120351669241778 ], [ 10.722262506697932, 44.0556971551689 ], [ 10.661111593744309, 43.919488596945499 ], [ 10.72778150962958, 43.814152089778247 ], [ 10.711116187474779, 43.786333900721999 ], [ 10.258118041717562, 43.81514718882228 ], [ 10.143475973019028, 43.975420548865287 ] ] ] } },
{ "type": "Feature", "properties": { "NUTS_ID": "ITI13", "name": "Pistoia" }, "geometry": { "type": "Polygon", "coordinates": [ [ [ 10.624078231734007, 44.120351669241778 ], [ 10.695237933640215, 44.155307034548009 ], [ 10.81007688462461, 44.117408375030443 ], [ 11.049449010433179, 44.090230054185838 ], [ 11.020819573865495, 43.873220121716443 ], [ 10.964120140577274, 43.812480935172765 ], [ 10.810076885208058, 43.806817995236614 ], [ 10.72778150962958, 43.814152089778247 ], [ 10.661111593744309, 43.919488596945499 ], [ 10.722262506697932, 44.0556971551689 ], [ 10.624078231734007, 44.120351669241778 ] ] ] } },
{ "type": "Feature", "properties": { "NUTS_ID": "ITI14", "name": "Firenze" }, "geometry": { "type": "Polygon", "coordinates": [ [ [ 10.72778150962958, 43.814152089778247 ], [ 10.810076885208058, 43.806817995236614 ], [ 10.964120140577274, 43.812480935172765 ], [ 11.051354856128739, 43.777155117033573 ], [ 11.108598743951577, 43.822211254433242 ], [ 11.202439550013363, 44.100720978561796 ], [ 11.411026260200771, 44.223512926922403 ], [ 11.524959594089269, 44.157640006734873 ], [ 11.71590659617266, 44.12254050228033 ], [ 11.672577019416281, 43.981152539844544 ], [ 11.710189003785381, 43.877430528782568 ], [ 11.611021149271929, 43.80926585776637 ], [ 11.580629179518059, 43.683821001783983 ], [ 11.397507432956084, 43.548229008745622 ], [ 11.187059037756791, 43.489857383075226 ], [ 11.0262217470188, 43.53067794588862 ], [ 10.952091370694388, 43.452159084292489 ], [ 10.830026599460536, 43.551576714305661 ], [ 10.905733365621389, 43.681627043573585 ], [ 10.810076884827572, 43.705464918199127 ], [ 10.711116187474779, 43.786333900721999 ], [ 10.72778150962958, 43.814152089778247 ] ] ] } },
{ "type": "Feature", "properties": { "NUTS_ID": "ITI15", "name": "Prato" }, "geometry": { "type": "Polygon", "coordinates": [ [ [ 11.049449010433179, 44.090230054185838 ], [ 11.202439550013363, 44.100720978561796 ], [ 11.108598743951577, 43.822211254433242 ], [ 11.051354856128739, 43.777155117033573 ], [ 10.964120140577274, 43.812480935172765 ], [ 11.020819573865495, 43.873220121716443 ], [ 11.049449010433179, 44.090230054185838 ] ] ] } },
{ "type": "Feature", "properties": { "NUTS_ID": "ITI16", "name": "Livorno" }, "geometry": { "type": "MultiPolygon", "coordinates": [ [ [ [ 10.771465015705871, 43.022737626655818 ], [ 10.705672412696112, 42.941864592675778 ], [ 10.514174486106732, 42.95095572978903 ], [ 10.512680883440096, 43.249290893628277 ], [ 10.29976682353858, 43.581966612387752 ], [ 10.479092208557667, 43.616104083167976 ], [ 10.519834288396888, 43.359725997033479 ], [ 10.662853207379555, 43.257329302658441 ], [ 10.717287270671033, 43.108508126124995 ], [ 10.771465015705871, 43.022737626655818 ] ] ], [ [ [ 10.426908342756905, 42.857138763687168 ], [ 10.403087726228501, 42.731609064344731 ], [ 10.21437659465116, 42.746201254119775 ], [ 10.172962039890267, 42.76819775802997 ], [ 10.219186947513702, 42.798024757342496 ], [ 10.426908342756905, 42.857138763687168 ] ] ], [ [ [ 9.877627135386932, 43.068161739900013 ], [ 9.840952289392556, 42.986667896963873 ], [ 9.7569290676342, 43.01221894521904 ], [ 9.811755838036426, 43.106852722010196 ], [ 9.877627135386932, 43.068161739900013 ] ] ] ] } },
{ "type": "Feature", "properties": { "NUTS_ID": "ITI17", "name": "Pisa" }, "geometry": { "type": "Polygon", "coordinates": [ [ [ 10.258118041717562, 43.81514718882228 ], [ 10.711116187474779, 43.786333900721999 ], [ 10.810076884827572, 43.705464918199127 ], [ 10.905733365621389, 43.681627043573585 ], [ 10.830026599460536, 43.551576714305661 ], [ 10.952091370694388, 43.452159084292489 ], [ 10.994620746694151, 43.365136800054898 ], [ 10.911575527740824, 43.162610471807874 ], [ 10.810076884639725, 43.159495061957401 ], [ 10.717287270671033, 43.108508126124995 ], [ 10.662853207379555, 43.257329302658441 ], [ 10.519834288396888, 43.359725997033479 ], [ 10.479092208557667, 43.616104083167976 ], [ 10.29976682353858, 43.581966612387752 ], [ 10.258118041717562, 43.81514718882228 ] ] ] } },
{ "type": "Feature", "properties": { "NUTS_ID": "ITI18", "name": "Arezzo" }, "geometry": { "type": "Polygon", "coordinates": [ [ [ 12.213856033051602, 43.610824646697338 ], [ 12.082307728199217, 43.420396851075779 ], [ 12.135137753611344, 43.273738874736509 ], [ 11.96126361936413, 43.166890474490479 ], [ 11.735000695728639, 43.253222144663205 ], [ 11.397507432956084, 43.548229008745622 ], [ 11.580629179518059, 43.683821001783983 ], [ 11.611021149271929, 43.80926585776637 ], [ 11.710189003785381, 43.877430528782568 ], [ 12.107463769392329, 43.753753609066877 ], [ 12.283797648148576, 43.764898818729897 ], [ 12.318536898676927, 43.716878203727013 ], [ 12.213856033051602, 43.610824646697338 ] ] ] } },
{ "type": "Feature", "properties": { "NUTS_ID": "ITI19", "name": "Siena" }, "geometry": { "type": "Polygon", "coordinates": [ [ [ 10.952091370694388, 43.452159084292489 ], [ 11.0262217470188, 43.53067794588862 ], [ 11.187059037756791, 43.489857383075226 ], [ 11.397507432956084, 43.548229008745622 ], [ 11.735000695728639, 43.253222144663205 ], [ 11.96126361936413, 43.166890474490479 ], [ 11.952101386980756, 42.900830206549763 ], [ 11.894987395559994, 42.834653365166488 ], [ 11.746036827936374, 42.785742357663274 ], [ 11.648651791972627, 42.804409166465348 ], [ 11.634758994702199, 42.859353074834111 ], [ 11.585581008494223, 42.952590855305964 ], [ 11.401375571123751, 42.977879894142234 ], [ 11.339454395221461, 43.07427158288646 ], [ 10.911575527740824, 43.162610471807874 ], [ 10.994620746694151, 43.365136800054898 ], [ 10.952091370694388, 43.452159084292489 ] ] ] } },
{ "type": "Feature", "properties": { "NUTS_ID": "ITI1A", "name": "Grosseto" }, "geometry": { "type": "MultiPolygon", "coordinates": [ [ [ [ 11.600984974305986, 42.448508176021868 ], [ 11.449938679583298, 42.377670452046843 ], [ 11.154129399493501, 42.396813198563727 ], [ 11.128589080465064, 42.561361564196424 ], [ 10.793907867647267, 42.790801969606498 ], [ 10.705672412696112, 42.941864592675778 ], [ 10.771465015705871, 43.022737626655818 ], [ 10.717287270671033, 43.108508126124995 ], [ 10.810076884639725, 43.159495061957401 ], [ 10.911575527740824, 43.162610471807874 ], [ 11.339454395221461, 43.07427158288646 ], [ 11.401375571123751, 42.977879894142234 ], [ 11.585581008494223, 42.952590855305964 ], [ 11.634758994702199, 42.859353074834111 ], [ 11.648651791972627, 42.804409166465348 ], [ 11.746036827936374, 42.785742357663274 ], [ 11.799996355363634, 42.731365835962535 ], [ 11.756055588181356, 42.643197289747533 ], [ 11.593338504121981, 42.543670182686185 ], [ 11.600984974305986, 42.448508176021868 ] ] ], [ [ [ 10.958256044089817, 42.352137916436554 ], [ 10.901311906305889, 42.310372038558931 ], [ 10.811346074366723, 42.364507004189448 ], [ 10.886725442544709, 42.421459312918984 ], [ 10.958256044089817, 42.352137916436554 ] ] ] ] } },
{ "type": "Feature", "properties": { "NUTS_ID": "ITI21", "name": "Perugia" }, "geometry": { "type": "Polygon", "coordinates": [ [ [ 13.189225914117557, 42.733565600713469 ], [ 13.114779484563538, 42.644300810317098 ], [ 12.896352144486308, 42.61641800066328 ], [ 12.693084517514986, 42.63799051047102 ], [ 12.572328927492917, 42.724824737235529 ], [ 12.393316168827596, 42.705258922127555 ], [ 12.310488363733933, 42.777576369134891 ], [ 12.325003411210558, 42.859353074546377 ], [ 12.293812260698727, 42.914631119663198 ], [ 12.154830563950856, 42.937931517245985 ], [ 11.952101386980756, 42.900830206549763 ], [ 11.96126361936413, 43.166890474490479 ], [ 12.135137753611344, 43.273738874736509 ], [ 12.082307728199217, 43.420396851075779 ], [ 12.213856033051602, 43.610824646697338 ], [ 12.339453024866328, 43.59918766595257 ], [ 12.635587997022864, 43.429438033045699 ], [ 12.767457100518335, 43.459829995496221 ], [ 12.86235824235264, 43.211232351934605 ], [ 12.928455183285369, 42.966644112640267 ], [ 13.154772116879172, 42.849915861317001 ], [ 13.232309888574269, 42.859353074332915 ], [ 13.189225914117557, 42.733565600713469 ] ] ] } },
{ "type": "Feature", "properties": { "NUTS_ID": "ITI22", "name": "Terni" }, "geometry": { "type": "Polygon", "coordinates": [ [ [ 11.894987395559994, 42.834653365166488 ], [ 11.952101386980756, 42.900830206549763 ], [ 12.154830563950856, 42.937931517245985 ], [ 12.293812260698727, 42.914631119663198 ], [ 12.325003411210558, 42.859353074546377 ], [ 12.310488363733933, 42.777576369134891 ], [ 12.393316168827596, 42.705258922127555 ], [ 12.572328927492917, 42.724824737235529 ], [ 12.693084517514986, 42.63799051047102 ], [ 12.896352144486308, 42.61641800066328 ], [ 12.683416114630948, 42.442384318465571 ], [ 12.488074709414139, 42.398656609408526 ], [ 12.292617105534166, 42.510218157014954 ], [ 12.193653270302104, 42.655552274212525 ], [ 11.966218363357413, 42.683617575938534 ], [ 11.894987395559994, 42.834653365166488 ] ] ] } },
{ "type": "Feature", "properties": { "NUTS_ID": "ITI31", "name": "Pesaro e Urbino" }, "geometry": { "type": "Polygon", "coordinates": [ [ [ 13.172615030168952, 43.750345820179696 ], [ 12.767457100518335, 43.459829995496221 ], [ 12.635587997022864, 43.429438033045699 ], [ 12.339453024866328, 43.59918766595257 ], [ 12.213856033051602, 43.610824646697338 ], [ 12.318536898676927, 43.716878203727013 ], [ 12.283797648148576, 43.764898818729897 ], [ 12.462405477928383, 43.893752884151503 ], [ 12.487415448872794, 43.896451067759195 ], [ 12.661601189372583, 43.8390830991492 ], [ 12.75067143415462, 43.970633259685272 ], [ 13.172615030168952, 43.750345820179696 ] ] ] } },
{ "type": "Feature", "properties": { "NUTS_ID": "ITI32", "name": "Ancona" }, "geometry": { "type": "Polygon", "coordinates": [ [ [ 13.642096372369432, 43.474142486295698 ], [ 13.350187764606561, 43.406354735882935 ], [ 13.102090936625286, 43.422096104935946 ], [ 12.86235824235264, 43.211232351934605 ], [ 12.767457100518335, 43.459829995496221 ], [ 13.172615030168952, 43.750345820179696 ], [ 13.551597739719901, 43.597751069615839 ], [ 13.642096372369432, 43.474142486295698 ] ] ] } },
{ "type": "Feature", "properties": { "NUTS_ID": "ITI33", "name": "Macerata" }, "geometry": { "type": "Polygon", "coordinates": [ [ [ 13.742970319930063, 43.294147088329154 ], [ 13.70409006186582, 43.285521368305638 ], [ 13.462107158579498, 43.145549351654722 ], [ 13.443388049489204, 43.038433148914187 ], [ 13.248621254667796, 42.965105160532822 ], [ 13.241772024451862, 42.891976575143403 ], [ 13.232309888574269, 42.859353074332915 ], [ 13.154772116879172, 42.849915861317001 ], [ 12.928455183285369, 42.966644112640267 ], [ 12.86235824235264, 43.211232351934605 ], [ 13.102090936625286, 43.422096104935946 ], [ 13.350187764606561, 43.406354735882935 ], [ 13.642096372369432, 43.474142486295698 ], [ 13.742970319930063, 43.294147088329154 ] ] ] } },
{ "type": "Feature", "properties": { "NUTS_ID": "ITI34", "name": "Ascoli Piceno" }, "geometry": { "type": "Polygon", "coordinates": [ [ [ 13.915740683460275, 42.894493395608492 ], [ 13.357774517497926, 42.694069974625286 ], [ 13.189225914117557, 42.733565600713469 ], [ 13.232309888574269, 42.859353074332915 ], [ 13.241772024451862, 42.891976575143403 ], [ 13.70409006243387, 43.05082177294571 ], [ 13.849476115436271, 43.066739106726232 ], [ 13.915740683460275, 42.894493395608492 ] ] ] } },
{ "type": "Feature", "properties": { "NUTS_ID": "ITI35", "name": "Fermo" }, "geometry": { "type": "Polygon", "coordinates": [ [ [ 13.849476115436271, 43.066739106726232 ], [ 13.70409006243387, 43.05082177294571 ], [ 13.241772024451862, 42.891976575143403 ], [ 13.248621254667796, 42.965105160532822 ], [ 13.443388049489204, 43.038433148914187 ], [ 13.462107158579498, 43.145549351654722 ], [ 13.70409006186582, 43.285521368305638 ], [ 13.742970319930063, 43.294147088329154 ], [ 13.849476115436271, 43.066739106726232 ] ] ] } },
{ "type": "Feature", "properties": { "NUTS_ID": "ITI41", "name": "Viterbo" }, "geometry": { "type": "Polygon", "coordinates": [ [ [ 11.449938679583298, 42.377670452046843 ], [ 11.600984974305986, 42.448508176021868 ], [ 11.593338504121981, 42.543670182686185 ], [ 11.756055588181356, 42.643197289747533 ], [ 11.799996355363634, 42.731365835962535 ], [ 11.746036827936374, 42.785742357663274 ], [ 11.894987395559994, 42.834653365166488 ], [ 11.966218363357413, 42.683617575938534 ], [ 12.193653270302104, 42.655552274212525 ], [ 12.292617105534166, 42.510218157014954 ], [ 12.488074709414139, 42.398656609408526 ], [ 12.519635339220503, 42.294725104558289 ], [ 12.317870252241013, 42.164214712502329 ], [ 11.873819118808935, 42.21889835211018 ], [ 11.733759587610216, 42.157956186513637 ], [ 11.641997986478614, 42.28243450723803 ], [ 11.449938679583298, 42.377670452046843 ] ] ] } },
{ "type": "Feature", "properties": { "NUTS_ID": "ITI42", "name": "Rieti" }, "geometry": { "type": "Polygon", "coordinates": [ [ [ 12.488074709414139, 42.398656609408526 ], [ 12.683416114630948, 42.442384318465571 ], [ 12.896352144486308, 42.61641800066328 ], [ 13.114779484563538, 42.644300810317098 ], [ 13.189225914117557, 42.733565600713469 ], [ 13.357774517497926, 42.694069974625286 ], [ 13.39403138394708, 42.591233872516085 ], [ 13.190993532052378, 42.570066806250999 ], [ 13.140809874560702, 42.447230027077431 ], [ 13.310925258673956, 42.164501561177644 ], [ 13.100660992474346, 42.164624203476386 ], [ 13.030574718180011, 42.11535294370055 ], [ 12.659421568522992, 42.171030345528635 ], [ 12.519635339220503, 42.294725104558289 ], [ 12.488074709414139, 42.398656609408526 ] ] ] } },
{ "type": "Feature", "properties": { "NUTS_ID": "ITI43", "name": "Roma" }, "geometry": { "type": "Polygon", "coordinates": [ [ [ 11.733759587610216, 42.157956186513637 ], [ 11.873819118808935, 42.21889835211018 ], [ 12.317870252241013, 42.164214712502329 ], [ 12.519635339220503, 42.294725104558289 ], [ 12.659421568522992, 42.171030345528635 ], [ 13.030574718180011, 42.11535294370055 ], [ 13.06899303898485, 42.030454326303555 ], [ 13.140838246754704, 42.004578787942791 ], [ 13.29629941382049, 41.94858839642697 ], [ 13.008053274562327, 41.795371676892472 ], [ 13.175089757163411, 41.583538158555136 ], [ 13.068471644278185, 41.566955226179012 ], [ 12.923205112684094, 41.693509549267176 ], [ 12.728426203539696, 41.609083558791028 ], [ 12.570082257070771, 41.622625550826839 ], [ 12.567876723031068, 41.568969941543436 ], [ 12.773321527393735, 41.416263892721709 ], [ 12.606079855327307, 41.471522310613594 ], [ 12.242175541383912, 41.745547361844721 ], [ 12.11935093488772, 41.924501200653324 ], [ 11.931135728561856, 42.004578787678234 ], [ 11.834514909770631, 42.045686848440326 ], [ 11.733759587610216, 42.157956186513637 ] ], [ [ 12.396161372826473, 41.908299723129545 ], [ 12.50498626148466, 41.862835626309852 ], [ 12.570295246145605, 41.912359425473582 ], [ 12.495925170409162, 41.955308281762818 ], [ 12.396161372826473, 41.908299723129545 ] ] ] } },
{ "type": "Feature", "properties": { "NUTS_ID": "ITI44", "name": "Latina" }, "geometry": { "type": "Polygon", "coordinates": [ [ [ 12.773321527393735, 41.416263892721709 ], [ 12.567876723031068, 41.568969941543436 ], [ 12.570082257070771, 41.622625550826839 ], [ 12.728426203539696, 41.609083558791028 ], [ 12.923205112684094, 41.693509549267176 ], [ 13.068471644278185, 41.566955226179012 ], [ 13.175089757163411, 41.583538158555136 ], [ 13.310436464145383, 41.408875634826323 ], [ 13.488784287394491, 41.433990345682922 ], [ 13.629336624453767, 41.334078188661117 ], [ 13.873718287859111, 41.338294087459836 ], [ 13.762086965694055, 41.222503118344932 ], [ 13.291974430408183, 41.290709171962469 ], [ 13.06558981231727, 41.240413028883601 ], [ 12.773321527393735, 41.416263892721709 ] ] ] } },
{ "type": "Feature", "properties": { "NUTS_ID": "ITI45", "name": "Frosinone" }, "geometry": { "type": "Polygon", "coordinates": [ [ [ 13.29629941382049, 41.94858839642697 ], [ 13.530732761043646, 41.779319808181484 ], [ 13.672029510507032, 41.794362445859662 ], [ 13.941038341319809, 41.687943855911563 ], [ 14.011673102878971, 41.560349014856378 ], [ 13.977927998197748, 41.462453942224087 ], [ 13.873718287859111, 41.338294087459836 ], [ 13.629336624453767, 41.334078188661117 ], [ 13.488784287394491, 41.433990345682922 ], [ 13.310436464145383, 41.408875634826323 ], [ 13.175089757163411, 41.583538158555136 ], [ 13.008053274562327, 41.795371676892472 ], [ 13.29629941382049, 41.94858839642697 ] ] ] } }
]
}
