{
"type": "FeatureCollection",
"name": "LI",
"crs": { "type": "name", "properties": { "name": "urn:ogc:def:crs:OGC:1.3:CRS84" } },
"features": [
{ "type": "Feature", "properties": { "NUTS_ID": "LI000", "name": "Liechtenstein" }, "geometry": { "type": "Polygon", "coordinates": [ [ [ 9.624738714297392, 47.117995621722812 ], [ 9.607078007215934, 47.060774530370892 ], [ 9.602817781679216, 47.061893874467266 ], [ 9.53975146163261, 47.065144603275627 ], [ 9.476047355473506, 47.051797490728305 ], [ 9.480350925806068, 47.067670355359404 ], [ 9.512246786361596, 47.085359648964882 ], [ 9.515219953935688, 47.121946060678262 ], [ 9.487607900294439, 47.190294411659458 ], [ 9.510387870146436, 47.231780652939769 ], [ 9.530749051451899, 47.270581012081259 ], [ 9.555658633438627, 47.252738838888945 ], [ 9.55755141259222, 47.231401902860874 ], [ 9.579292647499809, 47.195100132999002 ], [ 9.565192448931045, 47.19121689979923 ], [ 9.557721321570764, 47.1875580800168 ], [ 9.564655050768721, 47.170305616801585 ], [ 9.590928107230235, 47.164685075916381 ], [ 9.620580375481051, 47.151645494005862 ], [ 9.624738714297392, 47.117995621722812 ] ] ] } }
]
}
