{
"type": "FeatureCollection",
"name": "LT",
"crs": { "type": "name", "properties": { "name": "urn:ogc:def:crs:OGC:1.3:CRS84" } },
"features": [
{ "type": "Feature", "properties": { "NUTS_ID": "LT011", "name": "Vilniaus apskritis" }, "geometry": { "type": "Polygon", "coordinates": [ [ [ 25.222028483962976, 55.041504944939255 ], [ 25.526559090746858, 55.040529948786023 ], [ 25.74124745828264, 55.063202837751426 ], [ 25.671326918651303, 55.203331483680962 ], [ 25.733778455227384, 55.305234897373879 ], [ 25.864906995601487, 55.302801069844193 ], [ 26.41040456857974, 55.214710728333984 ], [ 26.743374977778288, 55.254084120986342 ], [ 26.650860140494171, 55.158844539342638 ], [ 26.274548471585085, 55.122411973196073 ], [ 26.208658245541152, 54.997426447790502 ], [ 25.889589753408803, 54.93215972126243 ], [ 25.751852898088185, 54.822770382203096 ], [ 25.745966419281988, 54.587259041212903 ], [ 25.638004190885464, 54.476861691394774 ], [ 25.577344527879216, 54.34509146186236 ], [ 25.741904297055321, 54.265371696956912 ], [ 25.757732166248328, 54.170461106170954 ], [ 25.565126952820822, 54.152990568892001 ], [ 25.564098803527791, 54.246890124164814 ], [ 25.48938293351473, 54.295146574721834 ], [ 25.236589313470564, 54.251362913346227 ], [ 25.075028597612874, 54.147989474116685 ], [ 24.835949670841213, 54.149027403380202 ], [ 24.796812654629644, 54.219376458254473 ], [ 25.019088424383487, 54.441557430733184 ], [ 24.437575637536725, 54.425389454549482 ], [ 24.414311211636576, 54.533269064785337 ], [ 24.457384438438901, 54.631331406825034 ], [ 24.47050922845542, 54.641564614004324 ], [ 24.614690697646232, 54.808471495476759 ], [ 24.809598204210893, 54.887494930144513 ], [ 24.55363247040172, 54.989961888829797 ], [ 24.615572180717411, 55.044827190247446 ], [ 24.591402739730118, 55.086922511657839 ], [ 24.391269035607799, 55.296878636715974 ], [ 24.42978986389183, 55.390796530713402 ], [ 24.655050909370971, 55.517687630247437 ], [ 24.823372444475368, 55.366870604752464 ], [ 25.073709708450703, 55.313163200584135 ], [ 25.222848226093717, 55.191453604338442 ], [ 25.16951084201057, 55.151974425753409 ], [ 25.222028483962976, 55.041504944939255 ] ] ] } },
{ "type": "Feature", "properties": { "NUTS_ID": "LT021", "name": "Alytaus apskritis" }, "geometry": { "type": "Polygon", "coordinates": [ [ [ 24.414311211636576, 54.533269064785337 ], [ 24.437575637536725, 54.425389454549482 ], [ 25.019088424383487, 54.441557430733184 ], [ 24.796812654629644, 54.219376458254473 ], [ 24.835949670841213, 54.149027403380202 ], [ 24.759031809131084, 53.983090005834256 ], [ 24.624873923734381, 53.998955470709866 ], [ 24.390473768537735, 53.902966600118496 ], [ 24.201624574037464, 53.969946403293882 ], [ 23.833971809866103, 53.953027788012037 ], [ 23.514649981027137, 53.956560135641361 ], [ 23.493204308974946, 54.129743320491876 ], [ 23.321498450982055, 54.253325926027742 ], [ 23.399801194168937, 54.367873451616063 ], [ 23.512025422839777, 54.414320404071958 ], [ 23.611462756295509, 54.493956084163912 ], [ 23.755518035213921, 54.468568537474347 ], [ 23.971309193544609, 54.493290028706433 ], [ 24.169855677862166, 54.536798557607042 ], [ 24.414311211636576, 54.533269064785337 ] ] ] } },
{ "type": "Feature", "properties": { "NUTS_ID": "LT022", "name": "Kauno apskritis" }, "geometry": { "type": "Polygon", "coordinates": [ [ [ 23.331108181121717, 55.549799899541711 ], [ 23.588981676472265, 55.47364251683085 ], [ 23.879444147870036, 55.5581624106905 ], [ 24.066137064166607, 55.448610443982766 ], [ 24.247014171427235, 55.462149002842089 ], [ 24.42978986389183, 55.390796530713402 ], [ 24.391269035607799, 55.296878636715974 ], [ 24.591402739730118, 55.086922511657839 ], [ 24.615572180717411, 55.044827190247446 ], [ 24.55363247040172, 54.989961888829797 ], [ 24.809598204210893, 54.887494930144513 ], [ 24.614690697646232, 54.808471495476759 ], [ 24.47050922845542, 54.641564614004324 ], [ 24.457384438438901, 54.631331406825034 ], [ 24.414311211636576, 54.533269064785337 ], [ 24.169855677862166, 54.536798557607042 ], [ 23.971309193544609, 54.493290028706433 ], [ 23.755518035213921, 54.468568537474347 ], [ 23.656534467924427, 54.645154384421694 ], [ 23.64158122685739, 54.804363872749974 ], [ 23.394117064904918, 54.948595384307282 ], [ 23.504435187151806, 55.017384237825496 ], [ 23.41193759223658, 55.073508931848906 ], [ 23.504260124385642, 55.193336063840306 ], [ 23.02088690018854, 55.26296288060044 ], [ 22.734224122461661, 55.388672069042677 ], [ 22.675804593305898, 55.471072391177714 ], [ 23.158892386138707, 55.566259750130406 ], [ 23.331108181121717, 55.549799899541711 ] ] ] } },
{ "type": "Feature", "properties": { "NUTS_ID": "LT023", "name": "Klaipėdos apskritis" }, "geometry": { "type": "MultiPolygon", "coordinates": [ [ [ [ 21.895824735669365, 55.288225406343351 ], [ 21.848540268348817, 55.221431170607168 ], [ 21.651071036114136, 55.17998357930302 ], [ 21.379495628774372, 55.27883726528929 ], [ 21.272059243898074, 55.245401727269474 ], [ 21.250866969412765, 55.466274917673275 ], [ 21.157962673817483, 55.633814365262403 ], [ 21.075321471053623, 55.774151087160902 ], [ 21.058289069677116, 55.855177091778714 ], [ 21.064573398427473, 56.069163504886248 ], [ 21.122618285470683, 56.077172007051701 ], [ 21.226957849821822, 56.146124612432267 ], [ 21.540732001798652, 56.304287571092289 ], [ 21.978208905674155, 56.385142956747565 ], [ 21.94104055945818, 56.158959564192806 ], [ 21.700139543439953, 56.069899373085612 ], [ 21.512009884533132, 55.80884440596413 ], [ 21.741508181321805, 55.759278896303414 ], [ 21.880255683562744, 55.596994435581678 ], [ 21.816755349792089, 55.55563056762248 ], [ 21.874651523885447, 55.443391030141726 ], [ 22.024837647805036, 55.393630577323087 ], [ 21.895824735669365, 55.288225406343351 ] ] ], [ [ [ 21.065982308520077, 55.323031267900056 ], [ 21.014651332375688, 55.309212586694365 ], [ 20.948407343286298, 55.32707037264646 ], [ 21.038127532113567, 55.4131349426819 ], [ 21.07887037555739, 55.418693660976196 ], [ 21.065982308520077, 55.323031267900056 ] ] ] ] } },
{ "type": "Feature", "properties": { "NUTS_ID": "LT024", "name": "Marijampolės apskritis" }, "geometry": { "type": "Polygon", "coordinates": [ [ [ 23.656534467924427, 54.645154384421694 ], [ 23.755518035213921, 54.468568537474347 ], [ 23.611462756295509, 54.493956084163912 ], [ 23.512025422839777, 54.414320404071958 ], [ 23.399801194168937, 54.367873451616063 ], [ 23.321498450982055, 54.253325926027742 ], [ 23.002049964526037, 54.38368048293141 ], [ 22.792011657932466, 54.363377298835339 ], [ 22.693782181207922, 54.561637022538257 ], [ 22.761062339010461, 54.724371620738445 ], [ 22.849610905474393, 54.771609596813178 ], [ 22.838302562230442, 54.86071913772502 ], [ 22.588967914679177, 55.070251634234829 ], [ 23.41193759223658, 55.073508931848906 ], [ 23.504435187151806, 55.017384237825496 ], [ 23.394117064904918, 54.948595384307282 ], [ 23.64158122685739, 54.804363872749974 ], [ 23.656534467924427, 54.645154384421694 ] ] ] } },
{ "type": "Feature", "properties": { "NUTS_ID": "LT025", "name": "Panevėžio apskritis" }, "geometry": { "type": "Polygon", "coordinates": [ [ [ 26.046154367528185, 55.944105950114768 ], [ 25.686230242571785, 55.714929448764813 ], [ 25.519212923576895, 55.720951913105658 ], [ 25.363618300810646, 55.761949905486226 ], [ 25.142918189409958, 55.693892329370044 ], [ 24.715520738622736, 55.720726763197234 ], [ 24.655050909370971, 55.517687630247437 ], [ 24.42978986389183, 55.390796530713402 ], [ 24.247014171427235, 55.462149002842089 ], [ 24.066137064166607, 55.448610443982766 ], [ 23.879444147870036, 55.5581624106905 ], [ 24.019403797592304, 55.650915725782397 ], [ 24.028621684477191, 55.747878191175779 ], [ 23.960001865503862, 55.835594490876382 ], [ 24.084575753166739, 55.880062023758789 ], [ 24.034749580346965, 55.998201132987951 ], [ 24.158232569050707, 56.15629344688287 ], [ 24.151799912999245, 56.253348453940198 ], [ 24.503869340943265, 56.2761585768258 ], [ 24.667940038599301, 56.387353694733491 ], [ 24.882028232121076, 56.428979238346017 ], [ 25.171266373735612, 56.17424691837104 ], [ 25.643577901491767, 56.125077553723244 ], [ 25.821386271179843, 56.052178952058455 ], [ 26.046154367528185, 55.944105950114768 ] ] ] } },
{ "type": "Feature", "properties": { "NUTS_ID": "LT026", "name": "Šiaulių apskritis" }, "geometry": { "type": "Polygon", "coordinates": [ [ [ 22.920516840036306, 56.399142863012329 ], [ 23.093298698564467, 56.304705949068342 ], [ 23.341109877074402, 56.37438377770269 ], [ 23.961720438812751, 56.330435621173137 ], [ 24.151799912999245, 56.253348453940198 ], [ 24.158232569050707, 56.15629344688287 ], [ 24.034749580346965, 55.998201132987951 ], [ 24.084575753166739, 55.880062023758789 ], [ 23.960001865503862, 55.835594490876382 ], [ 24.028621684477191, 55.747878191175779 ], [ 24.019403797592304, 55.650915725782397 ], [ 23.879444147870036, 55.5581624106905 ], [ 23.588981676472265, 55.47364251683085 ], [ 23.331108181121717, 55.549799899541711 ], [ 23.158892386138707, 55.566259750130406 ], [ 22.675804593305898, 55.471072391177714 ], [ 22.626395967230888, 55.476676118737743 ], [ 22.46630138929271, 55.672948412829975 ], [ 22.515801009281514, 55.788660506115704 ], [ 22.689818388502815, 55.903346954318579 ], [ 22.62393907926786, 55.990946870911664 ], [ 22.738152220470642, 56.0693275954673 ], [ 22.579568447330129, 56.094580891830482 ], [ 22.635563693656504, 56.368167980985532 ], [ 22.920516840036306, 56.399142863012329 ] ] ] } },
{ "type": "Feature", "properties": { "NUTS_ID": "LT027", "name": "Tauragės apskritis" }, "geometry": { "type": "Polygon", "coordinates": [ [ [ 22.252533462505035, 55.683721439883158 ], [ 22.430308629411169, 55.667437836702852 ], [ 22.46630138929271, 55.672948412829975 ], [ 22.626395967230888, 55.476676118737743 ], [ 22.675804593305898, 55.471072391177714 ], [ 22.734224122461661, 55.388672069042677 ], [ 23.02088690018854, 55.26296288060044 ], [ 23.504260124385642, 55.193336063840306 ], [ 23.41193759223658, 55.073508931848906 ], [ 22.588967914679177, 55.070251634234829 ], [ 22.430308629290174, 55.052693809510444 ], [ 22.2773316723938, 55.064251059744457 ], [ 22.075801897458437, 55.042300988478559 ], [ 21.651071036114136, 55.17998357930302 ], [ 21.848540268348817, 55.221431170607168 ], [ 21.895824735669365, 55.288225406343351 ], [ 22.024837647805036, 55.393630577323087 ], [ 21.874651523885447, 55.443391030141726 ], [ 21.816755349792089, 55.55563056762248 ], [ 21.880255683562744, 55.596994435581678 ], [ 22.252533462505035, 55.683721439883158 ] ] ] } },
{ "type": "Feature", "properties": { "NUTS_ID": "LT028", "name": "Telšių apskritis" }, "geometry": { "type": "Polygon", "coordinates": [ [ [ 22.515801009281514, 55.788660506115704 ], [ 22.46630138929271, 55.672948412829975 ], [ 22.430308629411169, 55.667437836702852 ], [ 22.252533462505035, 55.683721439883158 ], [ 21.880255683562744, 55.596994435581678 ], [ 21.741508181321805, 55.759278896303414 ], [ 21.512009884533132, 55.80884440596413 ], [ 21.700139543439953, 56.069899373085612 ], [ 21.94104055945818, 56.158959564192806 ], [ 21.978208905674155, 56.385142956747565 ], [ 22.087350188675153, 56.427737915507322 ], [ 22.430308628178729, 56.407766268955697 ], [ 22.635563693656504, 56.368167980985532 ], [ 22.579568447330129, 56.094580891830482 ], [ 22.738152220470642, 56.0693275954673 ], [ 22.62393907926786, 55.990946870911664 ], [ 22.689818388502815, 55.903346954318579 ], [ 22.515801009281514, 55.788660506115704 ] ] ] } },
{ "type": "Feature", "properties": { "NUTS_ID": "LT029", "name": "Utenos apskritis" }, "geometry": { "type": "Polygon", "coordinates": [ [ [ 26.368328658623067, 55.716428025094032 ], [ 26.630367927387123, 55.680575783564485 ], [ 26.632426319666219, 55.608186989959094 ], [ 26.545939879067802, 55.493084400184628 ], [ 26.533179837610447, 55.360564408533925 ], [ 26.728920076680744, 55.307588849287917 ], [ 26.743374977778288, 55.254084120986342 ], [ 26.41040456857974, 55.214710728333984 ], [ 25.864906995601487, 55.302801069844193 ], [ 25.733778455227384, 55.305234897373879 ], [ 25.671326918651303, 55.203331483680962 ], [ 25.74124745828264, 55.063202837751426 ], [ 25.526559090746858, 55.040529948786023 ], [ 25.222028483962976, 55.041504944939255 ], [ 25.16951084201057, 55.151974425753409 ], [ 25.222848226093717, 55.191453604338442 ], [ 25.073709708450703, 55.313163200584135 ], [ 24.823372444475368, 55.366870604752464 ], [ 24.655050909370971, 55.517687630247437 ], [ 24.715520738622736, 55.720726763197234 ], [ 25.142918189409958, 55.693892329370044 ], [ 25.363618300810646, 55.761949905486226 ], [ 25.519212923576895, 55.720951913105658 ], [ 25.686230242571785, 55.714929448764813 ], [ 26.046154367528185, 55.944105950114768 ], [ 26.368328658623067, 55.716428025094032 ] ] ] } }
]
}
