{
"type": "FeatureCollection",
"name": "LU",
"crs": { "type": "name", "properties": { "name": "urn:ogc:def:crs:OGC:1.3:CRS84" } },
"features": [
{ "type": "Feature", "properties": { "NUTS_ID": "LU000", "name": "Luxembourg" }, "geometry": { "type": "Polygon", "coordinates": [ [ [ 6.024899633938699, 50.182779390294222 ], [ 6.137662259454002, 50.129951505348018 ], [ 6.136217786125566, 50.015151307214389 ], [ 6.29827906260718, 49.858824382047452 ], [ 6.474962737645637, 49.821275076008227 ], [ 6.499791042415906, 49.728207424492318 ], [ 6.380052606148396, 49.551105031055627 ], [ 6.367107613804149, 49.469506980058611 ], [ 5.893386024111964, 49.496944628654013 ], [ 5.818116879399927, 49.546310570859227 ], [ 5.893725008703598, 49.664883791961238 ], [ 5.746363995092075, 49.853614451826076 ], [ 5.899197083132014, 50.102807946319921 ], [ 6.024899633938699, 50.182779390294222 ] ] ] } }
]
}
