{
"type": "FeatureCollection",
"name": "LV",
"crs": { "type": "name", "properties": { "name": "urn:ogc:def:crs:OGC:1.3:CRS84" } },
"features": [
{ "type": "Feature", "properties": { "NUTS_ID": "LV005", "name": "Latgale" }, "geometry": { "type": "Polygon", "coordinates": [ [ [ 27.69077720281814, 57.370560912411584 ], [ 27.853503320699762, 57.266325368446012 ], [ 27.676497071963713, 56.853677755748613 ], [ 27.865960477462963, 56.85649154550142 ], [ 28.116536139384635, 56.561214497894412 ], [ 28.222693908782865, 56.28260717703607 ], [ 28.154555436086515, 56.169843616264679 ], [ 27.677470864244807, 55.932332078173964 ], [ 27.586096327569173, 55.793986882967893 ], [ 27.097997701166726, 55.841819479872392 ], [ 26.815600395876636, 55.693415107942911 ], [ 26.630367927387123, 55.680575783564485 ], [ 26.368328658623067, 55.716428025094032 ], [ 26.046154367528185, 55.944105950114768 ], [ 25.821386271179843, 56.052178952058455 ], [ 26.033723291646915, 56.07453611455265 ], [ 26.244822949966043, 56.188534551129997 ], [ 26.126499121198517, 56.40582496514061 ], [ 26.195401891747441, 56.474956446389633 ], [ 26.58077282209749, 56.493537490511379 ], [ 26.624916237292421, 56.540224050789689 ], [ 26.754817903611904, 56.583603151130752 ], [ 26.802205515464351, 56.72430285140959 ], [ 26.967294285512505, 56.86567707889364 ], [ 26.88146060845677, 56.989056209896717 ], [ 26.914958436928913, 57.055459253083519 ], [ 27.16301097936579, 57.219444020040747 ], [ 27.531117980871368, 57.274561739983625 ], [ 27.69077720281814, 57.370560912411584 ] ] ] } },
{ "type": "Feature", "properties": { "NUTS_ID": "LV009", "name": "Zemgale" }, "geometry": { "type": "Polygon", "coordinates": [ [ [ 26.624916237292421, 56.540224050789689 ], [ 26.58077282209749, 56.493537490511379 ], [ 26.195401891747441, 56.474956446389633 ], [ 26.126499121198517, 56.40582496514061 ], [ 26.244822949966043, 56.188534551129997 ], [ 26.033723291646915, 56.07453611455265 ], [ 25.821386271179843, 56.052178952058455 ], [ 25.643577901491767, 56.125077553723244 ], [ 25.171266373735612, 56.17424691837104 ], [ 24.882028232121076, 56.428979238346017 ], [ 24.667940038599301, 56.387353694733491 ], [ 24.503869340943265, 56.2761585768258 ], [ 24.151799912999245, 56.253348453940198 ], [ 23.961720438812751, 56.330435621173137 ], [ 23.341109877074402, 56.37438377770269 ], [ 23.093298698564467, 56.304705949068342 ], [ 22.920516840036306, 56.399142863012329 ], [ 22.732146401010876, 56.476282647487423 ], [ 22.885943316722699, 56.697648819140213 ], [ 23.286243944326678, 56.721359237743521 ], [ 23.506191460362388, 56.89251994415195 ], [ 23.667380455754529, 56.866802146061481 ], [ 23.789641077772846, 56.738108298298123 ], [ 24.110989570769586, 56.676083849248492 ], [ 24.528587638939992, 56.718041523396543 ], [ 24.607016299321966, 56.708720355962335 ], [ 24.606557935392349, 56.627519983163374 ], [ 24.728486541150158, 56.551035266900058 ], [ 24.984082341479727, 56.58978900393565 ], [ 25.088909644924723, 56.719853775069822 ], [ 25.243842825895051, 56.703347632346123 ], [ 25.507322853967814, 56.804861306488228 ], [ 25.782823258146333, 56.810807121007279 ], [ 25.949233409786796, 56.655325347078673 ], [ 26.40933959555796, 56.626862488172122 ], [ 26.624916237292421, 56.540224050789689 ] ] ] } },
{ "type": "Feature", "properties": { "NUTS_ID": "LV00A", "name": "Rīga" }, "geometry": { "type": "Polygon", "coordinates": [ [ [ 24.339403918488742, 57.195788862162523 ], [ 24.638034120660532, 57.138723688840727 ], [ 24.704522885587224, 57.365566579998095 ], [ 24.818186805857881, 57.381485763300098 ], [ 25.123731290461546, 57.067149005232984 ], [ 25.108016625587684, 56.948879413227289 ], [ 24.494120846259346, 56.887436589416346 ], [ 24.46496228827484, 56.845749098429707 ], [ 24.528587638939992, 56.718041523396543 ], [ 24.110989570769586, 56.676083849248492 ], [ 23.789641077772846, 56.738108298298123 ], [ 23.667380455754529, 56.866802146061481 ], [ 23.506191460362388, 56.89251994415195 ], [ 23.552945562451882, 56.979896873825012 ], [ 23.90687578218343, 57.002124858949664 ], [ 24.339403918488742, 57.195788862162523 ] ] ] } },
{ "type": "Feature", "properties": { "NUTS_ID": "LV00B", "name": "Kurzeme" }, "geometry": { "type": "Polygon", "coordinates": [ [ [ 23.552945562451882, 56.979896873825012 ], [ 23.506191460362388, 56.89251994415195 ], [ 23.286243944326678, 56.721359237743521 ], [ 22.885943316722699, 56.697648819140213 ], [ 22.732146401010876, 56.476282647487423 ], [ 22.920516840036306, 56.399142863012329 ], [ 22.635563693656504, 56.368167980985532 ], [ 22.430308628178729, 56.407766268955697 ], [ 22.087350188675153, 56.427737915507322 ], [ 21.978208905674155, 56.385142956747565 ], [ 21.540732001798652, 56.304287571092289 ], [ 21.226957849821822, 56.146124612432267 ], [ 21.122618285470683, 56.077172007051701 ], [ 21.064573398427473, 56.069163504886248 ], [ 20.984876441546877, 56.240944852325995 ], [ 20.993566228574355, 56.491587374693005 ], [ 21.076440509707158, 56.829140063075087 ], [ 21.372774945556536, 57.010410583552208 ], [ 21.427720462342744, 57.277535468202082 ], [ 21.704825409982568, 57.550906134050244 ], [ 22.430308629383205, 57.722475313023629 ], [ 22.582352550409905, 57.744445728973822 ], [ 22.681753782108625, 57.564979363940068 ], [ 23.124069822329254, 57.348787779601373 ], [ 23.270893591571163, 57.095205454118997 ], [ 23.552945562451882, 56.979896873825012 ] ] ] } },
{ "type": "Feature", "properties": { "NUTS_ID": "LV00C", "name": "Vidzeme" }, "geometry": { "type": "Polygon", "coordinates": [ [ [ 24.353252565829873, 57.876085498557728 ], [ 25.046306919071025, 58.040145986491552 ], [ 25.331553846629767, 58.048036593982779 ], [ 26.016346924322484, 57.847152793703259 ], [ 26.285555370450048, 57.606356089293307 ], [ 26.550303546968937, 57.529700552138053 ], [ 26.926515405366594, 57.623565331003995 ], [ 27.351577279489639, 57.518273513010165 ], [ 27.527486192882908, 57.524820634442555 ], [ 27.547367847151278, 57.427884247620604 ], [ 27.69077720281814, 57.370560912411584 ], [ 27.531117980871368, 57.274561739983625 ], [ 27.16301097936579, 57.219444020040747 ], [ 26.914958436928913, 57.055459253083519 ], [ 26.88146060845677, 56.989056209896717 ], [ 26.967294285512505, 56.86567707889364 ], [ 26.802205515464351, 56.72430285140959 ], [ 26.754817903611904, 56.583603151130752 ], [ 26.624916237292421, 56.540224050789689 ], [ 26.40933959555796, 56.626862488172122 ], [ 25.949233409786796, 56.655325347078673 ], [ 25.782823258146333, 56.810807121007279 ], [ 25.507322853967814, 56.804861306488228 ], [ 25.243842825895051, 56.703347632346123 ], [ 25.088909644924723, 56.719853775069822 ], [ 24.984082341479727, 56.58978900393565 ], [ 24.728486541150158, 56.551035266900058 ], [ 24.606557935392349, 56.627519983163374 ], [ 24.607016299321966, 56.708720355962335 ], [ 24.528587638939992, 56.718041523396543 ], [ 24.46496228827484, 56.845749098429707 ], [ 24.494120846259346, 56.887436589416346 ], [ 25.108016625587684, 56.948879413227289 ], [ 25.123731290461546, 57.067149005232984 ], [ 24.818186805857881, 57.381485763300098 ], [ 24.704522885587224, 57.365566579998095 ], [ 24.638034120660532, 57.138723688840727 ], [ 24.339403918488742, 57.195788862162523 ], [ 24.402482055313637, 57.29940702062396 ], [ 24.353252565829873, 57.876085498557728 ] ] ] } }
]
}
