{
"type": "FeatureCollection",
"name": "ME",
"crs": { "type": "name", "properties": { "name": "urn:ogc:def:crs:OGC:1.3:CRS84" } },
"features": [
{ "type": "Feature", "properties": { "NUTS_ID": "ME000", "name": "Crna Gora" }, "geometry": { "type": "Polygon", "coordinates": [ [ [ 18.525291915855671, 42.420556032416435 ], [ 18.438103880178378, 42.555705067591333 ], [ 18.564870347498605, 42.658893346113537 ], [ 18.478501774620277, 42.859353074328567 ], [ 18.516181909018584, 43.000087196823621 ], [ 18.647721216377857, 43.057435079873834 ], [ 18.716687046575124, 43.263804508571162 ], [ 18.885431115043446, 43.343193134719527 ], [ 19.006318824494183, 43.271194075451817 ], [ 19.054778496683006, 43.296706470843176 ], [ 18.978342838412814, 43.52712834287577 ], [ 19.224123169478361, 43.527485998026748 ], [ 19.573099914347157, 43.244879261391048 ], [ 20.063936273520447, 43.006824145680859 ], [ 20.352928393310513, 42.833381369122392 ], [ 20.207414273471421, 42.756800302419144 ], [ 20.046894817433436, 42.75690432223454 ], [ 20.087790039943236, 42.578398392157069 ], [ 20.076299916480593, 42.555823530729434 ], [ 19.830933205619505, 42.466384167651441 ], [ 19.704852446617867, 42.639058624018745 ], [ 19.420086848735725, 42.329745320133071 ], [ 19.302652747730132, 42.187870304175398 ], [ 19.384526453024719, 42.078986476490158 ], [ 19.38072485929013, 42.004578788270443 ], [ 19.372528224583132, 41.844148059695875 ], [ 19.181630193098439, 41.939529959430509 ], [ 19.120347219798262, 42.004578787954699 ], [ 18.880334315903024, 42.259340549844353 ], [ 18.736442230438421, 42.304054126583814 ], [ 18.667184977521302, 42.42734707702698 ], [ 18.626351626638996, 42.381253409100736 ], [ 18.525291915855671, 42.420556032416435 ] ] ] } }
]
}
