{
"type": "FeatureCollection",
"name": "MK",
"crs": { "type": "name", "properties": { "name": "urn:ogc:def:crs:OGC:1.3:CRS84" } },
"features": [
{ "type": "Feature", "properties": { "NUTS_ID": "MK001", "name": "Vardarski" }, "geometry": { "type": "Polygon", "coordinates": [ [ [ 22.091067425866449, 41.815407951432633 ], [ 22.019845241384814, 41.746788536873957 ], [ 21.967237700425613, 41.67590135764577 ], [ 22.091067425689907, 41.646621177981778 ], [ 22.266379445671291, 41.556371997184179 ], [ 22.314205346536347, 41.496945097767359 ], [ 22.344128311308285, 41.430029470762229 ], [ 22.368940003878272, 41.385325359493656 ], [ 22.292512158545915, 41.309884938566498 ], [ 22.216216165370927, 41.170457396084025 ], [ 22.09106742654992, 41.138007273756571 ], [ 21.929438063566312, 41.100350402714973 ], [ 21.776065451878317, 41.45685865669963 ], [ 21.60786745505445, 41.452957130082069 ], [ 21.373880688658748, 41.605520841695629 ], [ 21.393491210648754, 41.71796586782709 ], [ 21.493007181347416, 41.760341139738635 ], [ 21.57862922303919, 41.749319388337696 ], [ 21.63883175350718, 41.834985591070286 ], [ 21.80555340444355, 41.918607250651789 ], [ 21.821308746678518, 41.960566360212695 ], [ 21.961090430331687, 42.004578787780559 ], [ 22.007941083766941, 42.019330442230476 ], [ 22.034183673447785, 42.015945319902322 ], [ 22.111414119050909, 41.885372391263736 ], [ 22.091067425866449, 41.815407951432633 ] ] ] } },
{ "type": "Feature", "properties": { "NUTS_ID": "MK002", "name": "Istočen" }, "geometry": { "type": "Polygon", "coordinates": [ [ [ 22.66119596628241, 42.073034126665199 ], [ 22.867214076469004, 42.02219965774492 ], [ 22.901933665951198, 41.877642067681997 ], [ 23.013414726986888, 41.691821891569596 ], [ 22.968327256442915, 41.519835642995851 ], [ 22.875419381231268, 41.523342394743494 ], [ 22.767482848583693, 41.57183745391302 ], [ 22.641610415867927, 41.640892401149543 ], [ 22.637194865236516, 41.727843109793398 ], [ 22.465575702526532, 41.78729401708344 ], [ 22.415588224181644, 41.729120326728093 ], [ 22.330454894641932, 41.664681091532515 ], [ 22.341294985655058, 41.610884834365258 ], [ 22.266379445671291, 41.556371997184179 ], [ 22.091067425689907, 41.646621177981778 ], [ 21.967237700425613, 41.67590135764577 ], [ 22.019845241384814, 41.746788536873957 ], [ 22.091067425866449, 41.815407951432633 ], [ 22.111414119050909, 41.885372391263736 ], [ 22.034183673447785, 42.015945319902322 ], [ 22.09106742584013, 42.024618973001232 ], [ 22.253228544800056, 42.032406834954571 ], [ 22.295622347909465, 42.067657018171204 ], [ 22.361000901888989, 42.041982333090253 ], [ 22.363319303208844, 42.114770172233378 ], [ 22.451838097802906, 42.125803033957936 ], [ 22.510411952468537, 42.155158453196933 ], [ 22.66119596628241, 42.073034126665199 ] ] ] } },
{ "type": "Feature", "properties": { "NUTS_ID": "MK003", "name": "Jugozapaden" }, "geometry": { "type": "Polygon", "coordinates": [ [ [ 21.393491210648754, 41.71796586782709 ], [ 21.373880688658748, 41.605520841695629 ], [ 21.26442885378853, 41.472097927918028 ], [ 21.187384199399947, 41.438165656554965 ], [ 21.127432388645691, 41.418163167191821 ], [ 21.134503465620529, 41.393782994931257 ], [ 20.954759407580266, 41.323895835627475 ], [ 21.017893151656079, 41.242116330120119 ], [ 21.039126355608634, 41.21500616897027 ], [ 20.908704416147096, 41.115991084687295 ], [ 20.837822960861462, 40.927682925489805 ], [ 20.732362154110742, 40.911645677600248 ], [ 20.632866160866278, 41.086512899393824 ], [ 20.597745022582746, 41.092033495586875 ], [ 20.51651156211091, 41.237873666783265 ], [ 20.516781861014238, 41.238291997426821 ], [ 20.501660206407621, 41.317153905766396 ], [ 20.560362917349984, 41.408458344608668 ], [ 20.459509571917998, 41.529465230692665 ], [ 20.557773818133761, 41.58187049560982 ], [ 20.72902439446197, 41.493463102592543 ], [ 20.9019945416224, 41.675327619405977 ], [ 21.052090327030104, 41.660563819624564 ], [ 21.028857619505484, 41.762770426895699 ], [ 21.088031546717069, 41.792196403667106 ], [ 21.190648542131193, 41.847656422300105 ], [ 21.23788610147815, 41.830002001198224 ], [ 21.342815004461624, 41.731290114329944 ], [ 21.393491210648754, 41.71796586782709 ] ] ] } },
{ "type": "Feature", "properties": { "NUTS_ID": "MK004", "name": "Jugoistočen" }, "geometry": { "type": "Polygon", "coordinates": [ [ [ 22.968327256442915, 41.519835642995851 ], [ 22.927591411164041, 41.338539330316252 ], [ 22.879178667829702, 41.34065311360839 ], [ 22.799353129911378, 41.34089947340096 ], [ 22.779613253161155, 41.327059134035537 ], [ 22.757236831193975, 41.302991106564541 ], [ 22.75830663142024, 41.246044030759613 ], [ 22.748710886523931, 41.173064974658281 ], [ 22.666470054781563, 41.186339606386923 ], [ 22.605696166522574, 41.126569031569353 ], [ 22.332051845521679, 41.120272519843418 ], [ 22.216216165370927, 41.170457396084025 ], [ 22.292512158545915, 41.309884938566498 ], [ 22.368940003878272, 41.385325359493656 ], [ 22.344128311308285, 41.430029470762229 ], [ 22.314205346536347, 41.496945097767359 ], [ 22.266379445671291, 41.556371997184179 ], [ 22.341294985655058, 41.610884834365258 ], [ 22.330454894641932, 41.664681091532515 ], [ 22.415588224181644, 41.729120326728093 ], [ 22.465575702526532, 41.78729401708344 ], [ 22.637194865236516, 41.727843109793398 ], [ 22.641610415867927, 41.640892401149543 ], [ 22.767482848583693, 41.57183745391302 ], [ 22.875419381231268, 41.523342394743494 ], [ 22.968327256442915, 41.519835642995851 ] ] ] } },
{ "type": "Feature", "properties": { "NUTS_ID": "MK005", "name": "Pelagoniski" }, "geometry": { "type": "Polygon", "coordinates": [ [ [ 21.373880688658748, 41.605520841695629 ], [ 21.60786745505445, 41.452957130082069 ], [ 21.776065451878317, 41.45685865669963 ], [ 21.929438063566312, 41.100350402714973 ], [ 21.910150180437174, 41.081946557672495 ], [ 21.7873777739993, 40.931125359895717 ], [ 21.502939050508914, 40.910607339940121 ], [ 21.242826563725988, 40.874186132918005 ], [ 21.119612153603477, 40.854682876503446 ], [ 20.980204391010304, 40.855665050155736 ], [ 20.97766373757997, 40.889660836816972 ], [ 20.837822960861462, 40.927682925489805 ], [ 20.908704416147096, 41.115991084687295 ], [ 21.039126355608634, 41.21500616897027 ], [ 21.017893151656079, 41.242116330120119 ], [ 20.954759407580266, 41.323895835627475 ], [ 21.134503465620529, 41.393782994931257 ], [ 21.127432388645691, 41.418163167191821 ], [ 21.187384199399947, 41.438165656554965 ], [ 21.26442885378853, 41.472097927918028 ], [ 21.373880688658748, 41.605520841695629 ] ] ] } },
{ "type": "Feature", "properties": { "NUTS_ID": "MK006", "name": "Pološki" }, "geometry": { "type": "Polygon", "coordinates": [ [ [ 21.216753785415882, 41.894167661243237 ], [ 21.23788610147815, 41.830002001198224 ], [ 21.190648542131193, 41.847656422300105 ], [ 21.088031546717069, 41.792196403667106 ], [ 21.028857619505484, 41.762770426895699 ], [ 21.052090327030104, 41.660563819624564 ], [ 20.9019945416224, 41.675327619405977 ], [ 20.72902439446197, 41.493463102592543 ], [ 20.557773818133761, 41.58187049560982 ], [ 20.526693225022747, 41.717829608624605 ], [ 20.573575608608255, 41.798247811763851 ], [ 20.562872105583946, 41.846136605954882 ], [ 20.594285897901997, 41.877327465695835 ], [ 20.727972573104399, 41.864277175923384 ], [ 20.772944172012391, 41.926757894658294 ], [ 20.767117203458582, 41.962758988395784 ], [ 20.775035327234704, 42.004578787957506 ], [ 20.787478364505823, 42.070297047159038 ], [ 20.927938966432968, 42.127326560148553 ], [ 20.98367300347125, 42.139854537466455 ], [ 21.049343404658767, 42.166252394406058 ], [ 21.139280458001828, 42.193091948156074 ], [ 21.212697331110597, 42.110700990520591 ], [ 21.149873739501832, 42.012815322874182 ], [ 21.216753785415882, 41.894167661243237 ] ] ] } },
{ "type": "Feature", "properties": { "NUTS_ID": "MK007", "name": "Severoistočen" }, "geometry": { "type": "Polygon", "coordinates": [ [ [ 22.360206291819384, 42.311157164360239 ], [ 22.510411952468537, 42.155158453196933 ], [ 22.451838097802906, 42.125803033957936 ], [ 22.363319303208844, 42.114770172233378 ], [ 22.361000901888989, 42.041982333090253 ], [ 22.295622347909465, 42.067657018171204 ], [ 22.253228544800056, 42.032406834954571 ], [ 22.09106742584013, 42.024618973001232 ], [ 22.034183673447785, 42.015945319902322 ], [ 22.007941083766941, 42.019330442230476 ], [ 21.961090430331687, 42.004578787780559 ], [ 21.821308746678518, 41.960566360212695 ], [ 21.694350531072104, 42.001024593903544 ], [ 21.638219937889442, 42.058334828540737 ], [ 21.6112451694264, 42.08142245394211 ], [ 21.559101109229779, 42.0671781737963 ], [ 21.512243123062898, 42.126163083406134 ], [ 21.489174748914653, 42.156700172518789 ], [ 21.444318747690836, 42.23493032693267 ], [ 21.465231851976167, 42.272592816188897 ], [ 21.586946401889598, 42.26281763852085 ], [ 21.675934671101064, 42.240684998158741 ], [ 21.777148238024573, 42.264997617044642 ], [ 21.951333552220763, 42.330061764895191 ], [ 22.065600963443334, 42.298496897187484 ], [ 22.1326913734713, 42.307227009753447 ], [ 22.275177589384462, 42.35837034096523 ], [ 22.360206291819384, 42.311157164360239 ] ] ] } },
{ "type": "Feature", "properties": { "NUTS_ID": "MK008", "name": "Skopski" }, "geometry": { "type": "Polygon", "coordinates": [ [ [ 21.512243123062898, 42.126163083406134 ], [ 21.559101109229779, 42.0671781737963 ], [ 21.6112451694264, 42.08142245394211 ], [ 21.638219937889442, 42.058334828540737 ], [ 21.694350531072104, 42.001024593903544 ], [ 21.821308746678518, 41.960566360212695 ], [ 21.80555340444355, 41.918607250651789 ], [ 21.63883175350718, 41.834985591070286 ], [ 21.57862922303919, 41.749319388337696 ], [ 21.493007181347416, 41.760341139738635 ], [ 21.393491210648754, 41.71796586782709 ], [ 21.342815004461624, 41.731290114329944 ], [ 21.23788610147815, 41.830002001198224 ], [ 21.216753785415882, 41.894167661243237 ], [ 21.149873739501832, 42.012815322874182 ], [ 21.212697331110597, 42.110700990520591 ], [ 21.248181562503024, 42.092498553535172 ], [ 21.321326160224825, 42.108013520910546 ], [ 21.377179691386949, 42.238032065094252 ], [ 21.444318747690836, 42.23493032693267 ], [ 21.489174748914653, 42.156700172518789 ], [ 21.512243123062898, 42.126163083406134 ] ] ] } }
]
}
