{
"type": "FeatureCollection",
"name": "MT",
"crs": { "type": "name", "properties": { "name": "urn:ogc:def:crs:OGC:1.3:CRS84" } },
"features": [
{ "type": "Feature", "properties": { "NUTS_ID": "MT001", "name": "Malta" }, "geometry": { "type": "Polygon", "coordinates": [ [ [ 14.489682626827042, 35.930393460509734 ], [ 14.49548284642105, 35.915295958428821 ], [ 14.502752032200469, 35.916816483753898 ], [ 14.511305469780593, 35.908659332509529 ], [ 14.498899133892824, 35.907260920110659 ], [ 14.496792495227126, 35.901009061113562 ], [ 14.500014709313291, 35.899794481445362 ], [ 14.499999743780609, 35.897996047983952 ], [ 14.493410286459234, 35.897186664870532 ], [ 14.490977172767899, 35.895069499078382 ], [ 14.497590100963663, 35.892959886054392 ], [ 14.505758477340937, 35.899059241958611 ], [ 14.519726416425698, 35.902657303266018 ], [ 14.518100099947404, 35.897639972738254 ], [ 14.511120436678249, 35.893120109349866 ], [ 14.505459782373768, 35.888111375372389 ], [ 14.503605377886146, 35.879200106225213 ], [ 14.51423994139545, 35.883064692426494 ], [ 14.514172397438598, 35.889265401231341 ], [ 14.51550830468295, 35.890102413668735 ], [ 14.517065328149984, 35.889377700069417 ], [ 14.519646359480344, 35.886288276230808 ], [ 14.519856147528756, 35.884277026422374 ], [ 14.521155888794715, 35.885200827486017 ], [ 14.525751185869588, 35.887981566301534 ], [ 14.545329099199028, 35.890686386814792 ], [ 14.557221271358324, 35.881798115117405 ], [ 14.564253390498665, 35.877483507932915 ], [ 14.567220565238449, 35.845497021129873 ], [ 14.541611353660539, 35.829932923234864 ], [ 14.500316562121649, 35.8117177036561 ], [ 14.456929669547559, 35.82221942618493 ], [ 14.430229653725648, 35.826297284035526 ], [ 14.389447802871066, 35.846084954336128 ], [ 14.360122795581963, 35.863460885440453 ], [ 14.34089722751238, 35.90610879730513 ], [ 14.342935144076449, 35.930920371827554 ], [ 14.355388176361163, 35.961594687739833 ], [ 14.389762445864019, 35.957817918858929 ], [ 14.425696337994871, 35.948437467450539 ], [ 14.463804964866462, 35.937050179135611 ], [ 14.489682626827042, 35.930393460509734 ] ] ] } },
{ "type": "Feature", "properties": { "NUTS_ID": "MT002", "name": "Gozo and Comino/Għawdex u Kemmuna" }, "geometry": { "type": "MultiPolygon", "coordinates": [ [ [ [ 14.350444418786132, 36.009373274786022 ], [ 14.32973879239943, 36.004135444284074 ], [ 14.323027926933781, 36.013199339751289 ], [ 14.314273505361779, 36.016030354551141 ], [ 14.337811357611903, 36.018977457901471 ], [ 14.350444418786132, 36.009373274786022 ] ] ], [ [ [ 14.268716105316523, 36.021573294958777 ], [ 14.230643786025766, 36.021203736576581 ], [ 14.212792281266806, 36.031197911318266 ], [ 14.193470123644996, 36.033250540623399 ], [ 14.187471519401155, 36.036581992481921 ], [ 14.192241124072613, 36.04659529784962 ], [ 14.18890089843922, 36.052435629749269 ], [ 14.191377417735271, 36.062036244559991 ], [ 14.212801765728127, 36.079846627572827 ], [ 14.229456128707135, 36.080297178594734 ], [ 14.265192730042124, 36.072805177298129 ], [ 14.309160067357212, 36.045803713283419 ], [ 14.309715131815397, 36.043790320088867 ], [ 14.309336748640051, 36.037863576612018 ], [ 14.307043128460183, 36.03238555108009 ], [ 14.304443452597367, 36.029476397494008 ], [ 14.294926060817216, 36.024282662141516 ], [ 14.268716105316523, 36.021573294958777 ] ] ] ] } }
]
}
