{
"type": "FeatureCollection",
"name": "NL",
"crs": { "type": "name", "properties": { "name": "urn:ogc:def:crs:OGC:1.3:CRS84" } },
"features": [
{ "type": "Feature", "properties": { "NUTS_ID": "NL112", "name": "Delfzijl en omgeving" }, "geometry": { "type": "Polygon", "coordinates": [ [ [ 7.092712413140665, 53.25701758145518 ], [ 6.911510489862972, 53.242969404744109 ], [ 6.747700338311632, 53.325180485300272 ], [ 6.874905014244085, 53.408013093336358 ], [ 6.92092052580634, 53.338301441316851 ], [ 7.074771969792253, 53.298616823669086 ], [ 7.092712413140665, 53.25701758145518 ] ] ] } },
{ "type": "Feature", "properties": { "NUTS_ID": "NL114", "name": "Oost-Groningen" }, "geometry": { "type": "Polygon", "coordinates": [ [ [ 7.208935201710104, 53.243064467250107 ], [ 7.202794541613294, 53.113281578867451 ], [ 7.194149484366672, 52.974282432134451 ], [ 7.092691935780805, 52.838200854747605 ], [ 6.935701877346035, 52.993362557357983 ], [ 6.861316742315352, 53.040782556787697 ], [ 6.813809984645363, 53.071048629271161 ], [ 6.931992200712815, 53.128803440202979 ], [ 6.911510489862972, 53.242969404744109 ], [ 7.092712413140665, 53.25701758145518 ], [ 7.208935201710104, 53.243064467250107 ] ] ] } },
{ "type": "Feature", "properties": { "NUTS_ID": "NL115", "name": "Overig Groningen" }, "geometry": { "type": "Polygon", "coordinates": [ [ [ 6.874905014244085, 53.408013093336358 ], [ 6.747700338311632, 53.325180485300272 ], [ 6.911510489862972, 53.242969404744109 ], [ 6.931992200712815, 53.128803440202979 ], [ 6.813809984645363, 53.071048629271161 ], [ 6.505700635382569, 53.18771654433835 ], [ 6.315237245423857, 53.094051396594892 ], [ 6.176816877145611, 53.159450391569585 ], [ 6.277499918685895, 53.31022516725411 ], [ 6.191301644504989, 53.410938117924459 ], [ 6.751100056148219, 53.45988809428934 ], [ 6.874905014244085, 53.408013093336358 ] ] ] } },
{ "type": "Feature", "properties": { "NUTS_ID": "NL126", "name": "Zuidoost-Friesland" }, "geometry": { "type": "Polygon", "coordinates": [ [ [ 6.315237245423857, 53.094051396594892 ], [ 6.404949709387282, 52.986324628457545 ], [ 6.369052934250912, 52.921973567840688 ], [ 6.119813762356834, 52.854267106673412 ], [ 5.8198264639056, 52.817317578178162 ], [ 5.916670711634468, 52.925254160755401 ], [ 5.79638673419239, 53.058840116034816 ], [ 6.176816877145611, 53.159450391569585 ], [ 6.315237245423857, 53.094051396594892 ] ] ] } },
{ "type": "Feature", "properties": { "NUTS_ID": "NL127", "name": "Noord-Friesland" }, "geometry": { "type": "MultiPolygon", "coordinates": [ [ [ [ 6.176816877145611, 53.159450391569585 ], [ 5.79638673419239, 53.058840116034816 ], [ 5.73334598547019, 53.116009029907197 ], [ 5.411228595649431, 53.151724574401534 ], [ 5.617008388257469, 53.307900580725757 ], [ 6.191301644504989, 53.410938117924459 ], [ 6.277499918685895, 53.31022516725411 ], [ 6.176816877145611, 53.159450391569585 ] ] ], [ [ [ 5.757353409478156, 53.45888729104761 ], [ 5.68362205460783, 53.403592075242571 ], [ 5.58128930868361, 53.451647373491888 ], [ 5.67933100561701, 53.495083413989143 ], [ 5.757353409478156, 53.45888729104761 ] ] ], [ [ [ 5.43305164424368, 53.397142521409101 ], [ 5.360120736361611, 53.35606666153226 ], [ 5.25096051761582, 53.407469140301608 ], [ 5.350260312984493, 53.445259540720272 ], [ 5.43305164424368, 53.397142521409101 ] ] ] ] } },
{ "type": "Feature", "properties": { "NUTS_ID": "NL128", "name": "Zuidwest-Friesland" }, "geometry": { "type": "Polygon", "coordinates": [ [ [ 5.411228595649431, 53.151724574401534 ], [ 5.73334598547019, 53.116009029907197 ], [ 5.79638673419239, 53.058840116034816 ], [ 5.916670711634468, 52.925254160755401 ], [ 5.8198264639056, 52.817317578178162 ], [ 5.795148621208278, 52.806499462645796 ], [ 5.377261457083343, 52.764805114553525 ], [ 5.164383533497771, 53.000910386471901 ], [ 5.411228595649431, 53.151724574401534 ] ] ] } },
{ "type": "Feature", "properties": { "NUTS_ID": "NL131", "name": "Noord-Drenthe" }, "geometry": { "type": "Polygon", "coordinates": [ [ [ 6.935701877346035, 52.993362557357983 ], [ 6.754813919255811, 52.95233656694856 ], [ 6.587468150967011, 52.735690886546131 ], [ 6.369052934250912, 52.921973567840688 ], [ 6.404949709387282, 52.986324628457545 ], [ 6.315237245423857, 53.094051396594892 ], [ 6.505700635382569, 53.18771654433835 ], [ 6.813809984645363, 53.071048629271161 ], [ 6.861316742315352, 53.040782556787697 ], [ 6.935701877346035, 52.993362557357983 ] ] ] } },
{ "type": "Feature", "properties": { "NUTS_ID": "NL132", "name": "Zuidoost-Drenthe" }, "geometry": { "type": "Polygon", "coordinates": [ [ [ 7.092691935780805, 52.838200854747605 ], [ 7.006229335508773, 52.63876304270515 ], [ 6.709741816491521, 52.627784127185762 ], [ 6.629429623907582, 52.669658350457681 ], [ 6.587468150967011, 52.735690886546131 ], [ 6.754813919255811, 52.95233656694856 ], [ 6.935701877346035, 52.993362557357983 ], [ 7.092691935780805, 52.838200854747605 ] ] ] } },
{ "type": "Feature", "properties": { "NUTS_ID": "NL133", "name": "Zuidwest-Drenthe" }, "geometry": { "type": "Polygon", "coordinates": [ [ [ 6.629429623907582, 52.669658350457681 ], [ 6.431138959862285, 52.614687234082815 ], [ 6.181813741915366, 52.686045374426435 ], [ 6.119813762356834, 52.854267106673412 ], [ 6.369052934250912, 52.921973567840688 ], [ 6.587468150967011, 52.735690886546131 ], [ 6.629429623907582, 52.669658350457681 ] ] ] } },
{ "type": "Feature", "properties": { "NUTS_ID": "NL211", "name": "Noord-Overijssel" }, "geometry": { "type": "Polygon", "coordinates": [ [ [ 5.8198264639056, 52.817317578178162 ], [ 6.119813762356834, 52.854267106673412 ], [ 6.181813741915366, 52.686045374426435 ], [ 6.431138959862285, 52.614687234082815 ], [ 6.629429623907582, 52.669658350457681 ], [ 6.709741816491521, 52.627784127185762 ], [ 6.697774679340382, 52.486301260641653 ], [ 6.390622260680889, 52.428055097404609 ], [ 6.109792492963221, 52.440574368383686 ], [ 5.864311109144031, 52.518169500909273 ], [ 5.84369405390478, 52.598958659171878 ], [ 5.963425965511145, 52.657834820742565 ], [ 5.795148621208278, 52.806499462645796 ], [ 5.8198264639056, 52.817317578178162 ] ] ] } },
{ "type": "Feature", "properties": { "NUTS_ID": "NL212", "name": "Zuidwest-Overijssel" }, "geometry": { "type": "Polygon", "coordinates": [ [ [ 6.390622260680889, 52.428055097404609 ], [ 6.338640568344487, 52.315093193735422 ], [ 6.381997427666512, 52.246085859587716 ], [ 6.166411538769181, 52.231045026129166 ], [ 6.088939187662382, 52.311362029051793 ], [ 6.109792492963221, 52.440574368383686 ], [ 6.390622260680889, 52.428055097404609 ] ] ] } },
{ "type": "Feature", "properties": { "NUTS_ID": "NL213", "name": "Twente" }, "geometry": { "type": "Polygon", "coordinates": [ [ [ 6.697774679340382, 52.486301260641653 ], [ 6.997369487592286, 52.444526701772276 ], [ 7.065685203546269, 52.241373034658061 ], [ 6.760464770400778, 52.118569367606121 ], [ 6.381997427666512, 52.246085859587716 ], [ 6.338640568344487, 52.315093193735422 ], [ 6.390622260680889, 52.428055097404609 ], [ 6.697774679340382, 52.486301260641653 ] ] ] } },
{ "type": "Feature", "properties": { "NUTS_ID": "NL221", "name": "Veluwe" }, "geometry": { "type": "Polygon", "coordinates": [ [ [ 6.109792492963221, 52.440574368383686 ], [ 6.088939187662382, 52.311362029051793 ], [ 6.166411538769181, 52.231045026129166 ], [ 6.17792787961837, 52.169250817467983 ], [ 6.075621852967987, 52.13739646603203 ], [ 6.00887259594419, 52.073910126232278 ], [ 5.66580707729059, 51.952785441516731 ], [ 5.606011591074548, 51.943248463645169 ], [ 5.40463278133703, 52.249629858551025 ], [ 5.778068111633273, 52.423364464084393 ], [ 5.864311109144031, 52.518169500909273 ], [ 6.109792492963221, 52.440574368383686 ] ] ] } },
{ "type": "Feature", "properties": { "NUTS_ID": "NL224", "name": "Zuidwest-Gelderland" }, "geometry": { "type": "Polygon", "coordinates": [ [ [ 5.026900114331841, 51.85856253412711 ], [ 5.209777792011119, 51.9612994923569 ], [ 5.606011591074548, 51.943248463645169 ], [ 5.66580707729059, 51.952785441516731 ], [ 5.59787970498629, 51.828082860475575 ], [ 5.128057745585052, 51.7376099175683 ], [ 5.000534162958093, 51.820937918896156 ], [ 5.026900114331841, 51.85856253412711 ] ] ] } },
{ "type": "Feature", "properties": { "NUTS_ID": "NL225", "name": "Achterhoek" }, "geometry": { "type": "Polygon", "coordinates": [ [ [ 6.760464770400778, 52.118569367606121 ], [ 6.7775683928871, 51.936839425282443 ], [ 6.407779531583725, 51.828092120121056 ], [ 6.167766021143598, 51.900804652321867 ], [ 6.117380963273488, 51.9382754633749 ], [ 6.147591220494309, 52.04515777729263 ], [ 6.00887259594419, 52.073910126232278 ], [ 6.075621852967987, 52.13739646603203 ], [ 6.17792787961837, 52.169250817467983 ], [ 6.166411538769181, 52.231045026129166 ], [ 6.381997427666512, 52.246085859587716 ], [ 6.760464770400778, 52.118569367606121 ] ] ] } },
{ "type": "Feature", "properties": { "NUTS_ID": "NL226", "name": "Arnhem/Nijmegen" }, "geometry": { "type": "Polygon", "coordinates": [ [ [ 6.00887259594419, 52.073910126232278 ], [ 6.147591220494309, 52.04515777729263 ], [ 6.117380963273488, 51.9382754633749 ], [ 6.167766021143598, 51.900804652321867 ], [ 5.990897524879339, 51.824310183885089 ], [ 5.953191999735481, 51.747846099075595 ], [ 5.865158660186066, 51.757407876299439 ], [ 5.59787970498629, 51.828082860475575 ], [ 5.66580707729059, 51.952785441516731 ], [ 6.00887259594419, 52.073910126232278 ] ] ] } },
{ "type": "Feature", "properties": { "NUTS_ID": "NL230", "name": "Flevoland" }, "geometry": { "type": "Polygon", "coordinates": [ [ [ 5.795148621208278, 52.806499462645796 ], [ 5.963425965511145, 52.657834820742565 ], [ 5.84369405390478, 52.598958659171878 ], [ 5.864311109144031, 52.518169500909273 ], [ 5.778068111633273, 52.423364464084393 ], [ 5.40463278133703, 52.249629858551025 ], [ 5.335461802348522, 52.290218556957122 ], [ 5.079161044616848, 52.388652913168073 ], [ 5.163737874324183, 52.431379153731505 ], [ 5.060426541261217, 52.578937638719303 ], [ 5.346864396929093, 52.691209678578872 ], [ 5.377261457083343, 52.764805114553525 ], [ 5.795148621208278, 52.806499462645796 ] ] ] } },
{ "type": "Feature", "properties": { "NUTS_ID": "NL321", "name": "Kop van Noord-Holland" }, "geometry": { "type": "Polygon", "coordinates": [ [ [ 5.164383533497771, 53.000910386471901 ], [ 5.377261457083343, 52.764805114553525 ], [ 5.346864396929093, 52.691209678578872 ], [ 5.060426541261217, 52.578937638719303 ], [ 4.926488147642396, 52.607051869254398 ], [ 4.867431622672242, 52.709996436394675 ], [ 4.649060489700092, 52.756148724868353 ], [ 4.729130244711049, 53.056720162258991 ], [ 4.831104374219741, 53.161677086757557 ], [ 4.895218973628658, 53.112865291861439 ], [ 4.790471922499005, 52.996019936341497 ], [ 4.833507946511085, 52.910832877912881 ], [ 5.164383533497771, 53.000910386471901 ] ] ] } },
{ "type": "Feature", "properties": { "NUTS_ID": "NL323", "name": "IJmond" }, "geometry": { "type": "Polygon", "coordinates": [ [ [ 4.609676911792859, 52.573400998821946 ], [ 4.719857308727168, 52.575644224869983 ], [ 4.782527988199478, 52.519534966370898 ], [ 4.699298815781499, 52.465985258167208 ], [ 4.722983719771532, 52.4333339345255 ], [ 4.68242967009257, 52.413310896330081 ], [ 4.560596904849609, 52.43742590965077 ], [ 4.609676911792859, 52.573400998821946 ] ] ] } },
{ "type": "Feature", "properties": { "NUTS_ID": "NL325", "name": "Zaanstreek" }, "geometry": { "type": "Polygon", "coordinates": [ [ [ 4.833982322634329, 52.538856937526539 ], [ 4.905963998230617, 52.508163653463392 ], [ 4.846489606120272, 52.437398072278718 ], [ 4.722983719771532, 52.4333339345255 ], [ 4.699298815781499, 52.465985258167208 ], [ 4.782527988199478, 52.519534966370898 ], [ 4.833982322634329, 52.538856937526539 ] ] ] } },
{ "type": "Feature", "properties": { "NUTS_ID": "NL327", "name": "Het Gooi en Vechtstreek" }, "geometry": { "type": "Polygon", "coordinates": [ [ [ 5.335461802348522, 52.290218556957122 ], [ 5.092003705365753, 52.172556981984002 ], [ 5.021537624463766, 52.302498417373428 ], [ 5.079161044616848, 52.388652913168073 ], [ 5.335461802348522, 52.290218556957122 ] ] ] } },
{ "type": "Feature", "properties": { "NUTS_ID": "NL328", "name": "Alkmaar en omgeving" }, "geometry": { "type": "Polygon", "coordinates": [ [ [ 4.649060489700092, 52.756148724868353 ], [ 4.867431622672242, 52.709996436394675 ], [ 4.926488147642396, 52.607051869254398 ], [ 4.833982322634329, 52.538856937526539 ], [ 4.782527988199478, 52.519534966370898 ], [ 4.719857308727168, 52.575644224869983 ], [ 4.609676911792859, 52.573400998821946 ], [ 4.649060489700092, 52.756148724868353 ] ] ] } },
{ "type": "Feature", "properties": { "NUTS_ID": "NL32A", "name": "Agglomeratie Haarlem" }, "geometry": { "type": "Polygon", "coordinates": [ [ [ 4.560596904849609, 52.43742590965077 ], [ 4.68242967009257, 52.413310896330081 ], [ 4.611683957490222, 52.313586858118093 ], [ 4.493847517890746, 52.328259992554095 ], [ 4.560596904849609, 52.43742590965077 ] ] ] } },
{ "type": "Feature", "properties": { "NUTS_ID": "NL32B", "name": "Groot-Amsterdam" }, "geometry": { "type": "Polygon", "coordinates": [ [ [ 5.060426541261217, 52.578937638719303 ], [ 5.163737874324183, 52.431379153731505 ], [ 5.079161044616848, 52.388652913168073 ], [ 5.021537624463766, 52.302498417373428 ], [ 4.794524044126319, 52.226726473318656 ], [ 4.728766240495895, 52.20981960114289 ], [ 4.582095283023182, 52.229650598085733 ], [ 4.611683957490222, 52.313586858118093 ], [ 4.68242967009257, 52.413310896330081 ], [ 4.722983719771532, 52.4333339345255 ], [ 4.846489606120272, 52.437398072278718 ], [ 4.905963998230617, 52.508163653463392 ], [ 4.833982322634329, 52.538856937526539 ], [ 4.926488147642396, 52.607051869254398 ], [ 5.060426541261217, 52.578937638719303 ] ] ] } },
{ "type": "Feature", "properties": { "NUTS_ID": "NL341", "name": "Zeeuwsch-Vlaanderen" }, "geometry": { "type": "Polygon", "coordinates": [ [ [ 4.234817405508229, 51.348254203026968 ], [ 3.977666514133952, 51.225132112569455 ], [ 3.856339488390994, 51.211056093592049 ], [ 3.618926123363827, 51.295494578961133 ], [ 3.437054303910656, 51.279280063075113 ], [ 3.380737262359116, 51.274259199512933 ], [ 3.365787354721749, 51.369835450945686 ], [ 3.437054304091494, 51.368065628029548 ], [ 4.234817405508229, 51.348254203026968 ] ] ] } },
{ "type": "Feature", "properties": { "NUTS_ID": "NL342", "name": "Overig Zeeland" }, "geometry": { "type": "Polygon", "coordinates": [ [ [ 3.839082827788579, 51.758296982606282 ], [ 3.977132098713659, 51.763080578907747 ], [ 4.24253566837067, 51.647120960694281 ], [ 4.210722859376607, 51.590797285217022 ], [ 4.279565168522002, 51.376017378298059 ], [ 4.243657894604261, 51.374737012055704 ], [ 3.619512217608162, 51.479223153137937 ], [ 3.691542468423349, 51.578622346664751 ], [ 3.847490095552702, 51.593673776413063 ], [ 3.839082827788579, 51.758296982606282 ] ] ] } },
{ "type": "Feature", "properties": { "NUTS_ID": "NL350", "name": "Utrecht" }, "geometry": { "type": "Polygon", "coordinates": [ [ [ 5.40463278133703, 52.249629858551025 ], [ 5.606011591074548, 51.943248463645169 ], [ 5.209777792011119, 51.9612994923569 ], [ 5.026900114331841, 51.85856253412711 ], [ 4.877899603559586, 51.937835372383887 ], [ 4.811352934849168, 52.106363052686824 ], [ 4.866589366199011, 52.168971856228737 ], [ 4.794524044126319, 52.226726473318656 ], [ 5.021537624463766, 52.302498417373428 ], [ 5.092003705365753, 52.172556981984002 ], [ 5.335461802348522, 52.290218556957122 ], [ 5.40463278133703, 52.249629858551025 ] ] ] } },
{ "type": "Feature", "properties": { "NUTS_ID": "NL361", "name": "Agglomeratie ’s-Gravenhage" }, "geometry": { "type": "Polygon", "coordinates": [ [ [ 4.374232694627095, 52.18709003405025 ], [ 4.530611315455563, 52.080482353055615 ], [ 4.557198519788828, 52.061237497374272 ], [ 4.407886357202479, 51.968177933082963 ], [ 4.365062315767692, 52.01877347736847 ], [ 4.19801862564395, 52.054144549321698 ], [ 4.374232694627095, 52.18709003405025 ] ] ] } },
{ "type": "Feature", "properties": { "NUTS_ID": "NL362", "name": "Delft en Westland" }, "geometry": { "type": "Polygon", "coordinates": [ [ [ 4.19801862564395, 52.054144549321698 ], [ 4.365062315767692, 52.01877347736847 ], [ 4.407886357202479, 51.968177933082963 ], [ 4.290040751204047, 51.933060088618937 ], [ 4.127788387683693, 52.000542566559545 ], [ 4.19801862564395, 52.054144549321698 ] ] ] } },
{ "type": "Feature", "properties": { "NUTS_ID": "NL363", "name": "Agglomeratie Leiden en Bollenstreek" }, "geometry": { "type": "Polygon", "coordinates": [ [ [ 4.493847517890746, 52.328259992554095 ], [ 4.611683957490222, 52.313586858118093 ], [ 4.582095283023182, 52.229650598085733 ], [ 4.728766240495895, 52.20981960114289 ], [ 4.530611315455563, 52.080482353055615 ], [ 4.374232694627095, 52.18709003405025 ], [ 4.405349848535887, 52.219532896840278 ], [ 4.440933161448011, 52.259690366487682 ], [ 4.493847517890746, 52.328259992554095 ] ] ] } },
{ "type": "Feature", "properties": { "NUTS_ID": "NL364", "name": "Zuidoost-Zuid-Holland" }, "geometry": { "type": "Polygon", "coordinates": [ [ [ 4.62098320072946, 51.889529041773514 ], [ 4.877899603559586, 51.937835372383887 ], [ 5.026900114331841, 51.85856253412711 ], [ 5.000534162958093, 51.820937918896156 ], [ 4.676294545424222, 51.724918470060054 ], [ 4.620420664891396, 51.714126592512464 ], [ 4.62098320072946, 51.889529041773514 ] ] ] } },
{ "type": "Feature", "properties": { "NUTS_ID": "NL365", "name": "Oost-Zuid-Holland" }, "geometry": { "type": "Polygon", "coordinates": [ [ [ 4.728766240495895, 52.20981960114289 ], [ 4.794524044126319, 52.226726473318656 ], [ 4.866589366199011, 52.168971856228737 ], [ 4.811352934849168, 52.106363052686824 ], [ 4.877899603559586, 51.937835372383887 ], [ 4.62098320072946, 51.889529041773514 ], [ 4.663207963617958, 51.997401982544268 ], [ 4.557198519788828, 52.061237497374272 ], [ 4.530611315455563, 52.080482353055615 ], [ 4.728766240495895, 52.20981960114289 ] ] ] } },
{ "type": "Feature", "properties": { "NUTS_ID": "NL366", "name": "Groot-Rijnmond" }, "geometry": { "type": "Polygon", "coordinates": [ [ [ 4.127788387683693, 52.000542566559545 ], [ 4.290040751204047, 51.933060088618937 ], [ 4.407886357202479, 51.968177933082963 ], [ 4.557198519788828, 52.061237497374272 ], [ 4.663207963617958, 51.997401982544268 ], [ 4.62098320072946, 51.889529041773514 ], [ 4.620420664891396, 51.714126592512464 ], [ 4.24253566837067, 51.647120960694281 ], [ 3.977132098713659, 51.763080578907747 ], [ 3.839082827788579, 51.758296982606282 ], [ 4.04563657035676, 51.85473684097385 ], [ 3.998241589338483, 51.972588615315999 ], [ 4.127788387683693, 52.000542566559545 ] ] ] } },
{ "type": "Feature", "properties": { "NUTS_ID": "NL411", "name": "West-Noord-Brabant" }, "geometry": { "type": "Polygon", "coordinates": [ [ [ 4.620420664891396, 51.714126592512464 ], [ 4.676294545424222, 51.724918470060054 ], [ 4.810698034364619, 51.753552775495685 ], [ 4.910328937589804, 51.694920038310116 ], [ 4.895902040676082, 51.594991722549125 ], [ 4.759925819036284, 51.502464611228369 ], [ 4.669544110541935, 51.426384044795562 ], [ 4.488827106188758, 51.470491610699824 ], [ 4.413481483588787, 51.444566327150568 ], [ 4.398315850405061, 51.369239465573301 ], [ 4.279565168522002, 51.376017378298059 ], [ 4.210722859376607, 51.590797285217022 ], [ 4.24253566837067, 51.647120960694281 ], [ 4.620420664891396, 51.714126592512464 ] ] ] } },
{ "type": "Feature", "properties": { "NUTS_ID": "NL414", "name": "Zuidoost-Noord-Brabant" }, "geometry": { "type": "Polygon", "coordinates": [ [ [ 5.102137093267302, 51.428956039428726 ], [ 5.27325701666, 51.55282955818835 ], [ 5.838077011102293, 51.566467416975421 ], [ 5.908784847658911, 51.395197473915935 ], [ 5.840245579919749, 51.346923989137935 ], [ 5.566283615270706, 51.220836498525848 ], [ 5.490810036753169, 51.28654573105085 ], [ 5.237716347787162, 51.26160036189377 ], [ 5.103999107934353, 51.356516469084035 ], [ 5.102137093267302, 51.428956039428726 ] ] ] } },
{ "type": "Feature", "properties": { "NUTS_ID": "NL415", "name": "Midden-Noord-Brabant" }, "geometry": { "type": "Polygon", "coordinates": [ [ [ 5.000534162958093, 51.820937918896156 ], [ 5.128057745585052, 51.7376099175683 ], [ 5.125078619751992, 51.645793946131974 ], [ 5.27325701666, 51.55282955818835 ], [ 5.102137093267302, 51.428956039428726 ], [ 5.039062133454919, 51.467538093337765 ], [ 4.879770692652888, 51.427750652832756 ], [ 4.759925819036284, 51.502464611228369 ], [ 4.895902040676082, 51.594991722549125 ], [ 4.910328937589804, 51.694920038310116 ], [ 4.810698034364619, 51.753552775495685 ], [ 4.676294545424222, 51.724918470060054 ], [ 5.000534162958093, 51.820937918896156 ] ] ] } },
{ "type": "Feature", "properties": { "NUTS_ID": "NL416", "name": "Noordoost-Noord-Brabant" }, "geometry": { "type": "Polygon", "coordinates": [ [ [ 5.59787970498629, 51.828082860475575 ], [ 5.865158660186066, 51.757407876299439 ], [ 6.009751333181989, 51.594007882327048 ], [ 5.838077011102293, 51.566467416975421 ], [ 5.27325701666, 51.55282955818835 ], [ 5.125078619751992, 51.645793946131974 ], [ 5.128057745585052, 51.7376099175683 ], [ 5.59787970498629, 51.828082860475575 ] ] ] } },
{ "type": "Feature", "properties": { "NUTS_ID": "NL421", "name": "Noord-Limburg" }, "geometry": { "type": "Polygon", "coordinates": [ [ [ 5.838077011102293, 51.566467416975421 ], [ 6.009751333181989, 51.594007882327048 ], [ 5.865158660186066, 51.757407876299439 ], [ 5.953191999735481, 51.747846099075595 ], [ 6.192230454914018, 51.522391427839416 ], [ 6.224405043705392, 51.364979023243514 ], [ 6.072657111116431, 51.242587578273977 ], [ 5.840245579919749, 51.346923989137935 ], [ 5.908784847658911, 51.395197473915935 ], [ 5.838077011102293, 51.566467416975421 ] ] ] } },
{ "type": "Feature", "properties": { "NUTS_ID": "NL422", "name": "Midden-Limburg" }, "geometry": { "type": "Polygon", "coordinates": [ [ [ 5.840245579919749, 51.346923989137935 ], [ 6.072657111116431, 51.242587578273977 ], [ 6.174812124024052, 51.184513429325193 ], [ 5.877055681567017, 51.032059737084921 ], [ 5.798274119211292, 51.059853379794006 ], [ 5.788313608187572, 51.159533988217582 ], [ 5.566283615270706, 51.220836498525848 ], [ 5.840245579919749, 51.346923989137935 ] ] ] } },
{ "type": "Feature", "properties": { "NUTS_ID": "NL423", "name": "Zuid-Limburg" }, "geometry": { "type": "Polygon", "coordinates": [ [ [ 5.798274119211292, 51.059853379794006 ], [ 5.877055681567017, 51.032059737084921 ], [ 6.086947595856187, 50.913134963047959 ], [ 6.020999005664916, 50.754295369911581 ], [ 5.892072996513579, 50.755237581779625 ], [ 5.766542833456962, 50.775222369976177 ], [ 5.682000428534085, 50.757446428273049 ], [ 5.687622128701352, 50.811923975910311 ], [ 5.669242424886265, 50.873206832862024 ], [ 5.76607410658899, 51.008594292545865 ], [ 5.798274119211292, 51.059853379794006 ] ] ] } }
]
}
