{
"type": "FeatureCollection",
"name": "NO",
"crs": { "type": "name", "properties": { "name": "urn:ogc:def:crs:OGC:1.3:CRS84" } },
"features": [
{ "type": "Feature", "properties": { "NUTS_ID": "NO020", "name": "Innlandet" }, "geometry": { "type": "Polygon", "coordinates": [ [ [ 12.254659304790636, 62.331024477695557 ], [ 12.299370194289882, 62.267493986114701 ], [ 12.231717721333466, 62.039733365802029 ], [ 12.162955260132588, 61.718815764913543 ], [ 12.405438822097548, 61.576307553751114 ], [ 12.588154145503893, 61.551014300198105 ], [ 12.850415584064788, 61.35826162651059 ], [ 12.670176624040115, 61.05597642255367 ], [ 12.247105362826012, 61.001935518796685 ], [ 12.600887725757561, 60.492545263532762 ], [ 12.466694414315253, 60.071112027323721 ], [ 12.208750908485026, 59.907280870601717 ], [ 11.839814230042647, 59.840672274460687 ], [ 11.771917969866244, 60.064081877804682 ], [ 11.190570835230785, 60.563094987263476 ], [ 10.936927469545841, 60.490686691503178 ], [ 10.746914899771708, 60.501349189345191 ], [ 10.745415655138451, 60.441495731606238 ], [ 10.892801017969584, 60.378049643517485 ], [ 10.855249179287041, 60.325095180563636 ], [ 10.391793206542109, 60.335004228919153 ], [ 10.208054448732977, 60.415019679153517 ], [ 10.186372624888936, 60.436795741847554 ], [ 10.011755198260952, 60.612172118270308 ], [ 9.774379840903917, 60.478796075137375 ], [ 9.520782782079085, 60.527141253714809 ], [ 9.292378401503129, 60.734047286612352 ], [ 8.251701008512702, 61.073943901249443 ], [ 8.089239258905254, 61.20227323469107 ], [ 8.231714685437424, 61.48999012039372 ], [ 7.980051135455124, 61.5638995836036 ], [ 7.86168841557087, 61.723610536633636 ], [ 7.537337021118528, 61.751594244503465 ], [ 7.349109063546218, 62.007681972220709 ], [ 7.427869440998059, 62.076642638437946 ], [ 7.585736659939006, 62.082453503773664 ], [ 8.320840221897475, 62.346628530376435 ], [ 9.062061819661292, 62.372608388946169 ], [ 9.658895128700413, 62.267413279979607 ], [ 10.068510866942443, 62.428199727441658 ], [ 10.027391029065589, 62.566096145941451 ], [ 10.153658005391266, 62.677916630289644 ], [ 10.728152433922824, 62.648044667695849 ], [ 10.914385948779239, 62.69159679656012 ], [ 11.113003709339102, 62.655287522343642 ], [ 11.571985221408658, 62.379142385504835 ], [ 12.254659304790636, 62.331024477695557 ] ] ] } },
{ "type": "Feature", "properties": { "NUTS_ID": "NO060", "name": "Trøndelag/Trööndelage" }, "geometry": { "type": "MultiPolygon", "coordinates": [ [ [ [ 12.110421458709419, 65.01035566036758 ], [ 12.692533855889682, 64.94694008498189 ], [ 13.152588988990898, 65.10446228566849 ], [ 14.325984923806821, 65.118915970255543 ], [ 13.796693177963201, 64.7135235201401 ], [ 13.686254923726164, 64.576504317197745 ], [ 14.11682811998441, 64.420718950803618 ], [ 14.136074074646313, 64.265392087871732 ], [ 14.143977138921672, 64.20160941752701 ], [ 13.986239349537984, 64.032707733068349 ], [ 13.221591932174146, 64.092155698968 ], [ 12.925361091403346, 64.054539081911841 ], [ 12.667978560495451, 63.960408002495846 ], [ 12.174658920574968, 63.598279895452542 ], [ 12.188845282718159, 63.466316254509913 ], [ 11.996040025440662, 63.2652462326989 ], [ 12.192861209717631, 63.017643760263425 ], [ 12.091942253134162, 62.898342358299232 ], [ 12.124060264208129, 62.748747202937601 ], [ 12.07317222686371, 62.613401585825322 ], [ 12.254659304790636, 62.331024477695557 ], [ 11.571985221408658, 62.379142385504835 ], [ 11.113003709339102, 62.655287522343642 ], [ 10.914385948779239, 62.69159679656012 ], [ 10.728152433922824, 62.648044667695849 ], [ 10.153658005391266, 62.677916630289644 ], [ 10.027391029065589, 62.566096145941451 ], [ 10.068510866942443, 62.428199727441658 ], [ 9.658895128700413, 62.267413279979607 ], [ 9.062061819661292, 62.372608388946169 ], [ 9.207528172522151, 62.525411810551972 ], [ 9.003344389527159, 62.712066345458844 ], [ 9.302408342781169, 62.842572197640344 ], [ 9.082511594020126, 63.0581172783385 ], [ 8.847154135996501, 63.121798196365667 ], [ 8.257522518031527, 63.020417076010681 ], [ 8.20073325885372, 63.111162778385236 ], [ 8.832085698993838, 63.201962209492805 ], [ 8.868119075046256, 63.347211834510723 ], [ 8.79804060480876, 63.380673688362492 ], [ 8.755213217489228, 63.424254832054643 ], [ 8.499031532181514, 63.452439298567775 ], [ 8.41794262647961, 63.516132960884477 ], [ 8.715539949562986, 63.782940015669446 ], [ 9.043041395019602, 63.607158083508338 ], [ 9.298628503396742, 63.54738061680343 ], [ 9.70262186482463, 63.568217336367425 ], [ 10.053969069864719, 63.398743654468376 ], [ 10.699921603776136, 63.479238954041278 ], [ 10.749498040919228, 63.662046098865211 ], [ 10.076254654317488, 63.551830633985375 ], [ 9.740798872414247, 63.78181005646848 ], [ 10.04848759485229, 63.963306839951045 ], [ 10.200764554638011, 64.187241444505744 ], [ 10.451091912416564, 64.370373642179075 ], [ 10.767181308442364, 64.423844523419817 ], [ 10.863708358857661, 64.536703963565472 ], [ 11.106657220918818, 64.559172204927251 ], [ 11.381492199906061, 64.717294801888968 ], [ 11.22990045262981, 64.830124033726605 ], [ 10.901660571489346, 64.866580121605296 ], [ 10.887247730392833, 64.919492593179044 ], [ 11.3910980313767, 64.974748924770694 ], [ 11.938758840707255, 65.148924027380289 ], [ 11.94371666143584, 65.077899114107282 ], [ 11.981971911585546, 65.070815572805571 ], [ 12.050577406106717, 65.063124795987491 ], [ 12.110421458709419, 65.01035566036758 ] ] ], [ [ [ 11.033170591683032, 65.110732876054016 ], [ 10.960881217476874, 65.065784379053625 ], [ 10.860014367063449, 65.111249188891449 ], [ 10.955845573949739, 65.159006595201049 ], [ 11.033170591683032, 65.110732876054016 ] ] ], [ [ [ 9.42732650233271, 63.758604317430688 ], [ 9.357736420952808, 63.731744830079045 ], [ 9.31409517204313, 63.785966368560821 ], [ 9.401918471421414, 63.863603171362584 ], [ 9.42732650233271, 63.758604317430688 ] ] ], [ [ [ 9.200381220605516, 63.995414587686227 ], [ 9.068718256156064, 63.960755633999312 ], [ 9.091505238700849, 64.030733354879985 ], [ 9.165744163097648, 64.052991278139913 ], [ 9.223127774639638, 64.034697776701876 ], [ 9.200381220605516, 63.995414587686227 ] ] ] ] } },
{ "type": "Feature", "properties": { "NUTS_ID": "NO071", "name": "Nordland/Nordlánnda" }, "geometry": { "type": "MultiPolygon", "coordinates": [ [ [ [ 18.125925245692624, 68.536515955763804 ], [ 18.124546980296778, 68.205327410004671 ], [ 17.926126715352293, 68.008619636156581 ], [ 17.238873373034707, 68.090961690066663 ], [ 16.779921144679438, 67.919265801904601 ], [ 16.510299233864451, 67.622942142975262 ], [ 16.149895481966368, 67.493278034869448 ], [ 16.128493286011082, 67.419871380284278 ], [ 16.383272413703882, 67.196432409287098 ], [ 16.373855485179252, 67.065738365581439 ], [ 15.455369092224924, 66.521939220615209 ], [ 15.453994737947466, 66.345233502675413 ], [ 15.413124449124082, 66.262332777159159 ], [ 15.033002803955942, 66.156855201714365 ], [ 14.558430991422183, 66.131414162047889 ], [ 14.538795822966136, 66.064439179793581 ], [ 14.609683066247026, 65.806526106539039 ], [ 14.516209666601283, 65.593844307868665 ], [ 14.496796069072559, 65.32595480595343 ], [ 14.325984923806821, 65.118915970255543 ], [ 13.152588988990898, 65.10446228566849 ], [ 12.692533855889682, 64.94694008498189 ], [ 12.110421458709419, 65.01035566036758 ], [ 12.050577406106717, 65.063124795987491 ], [ 12.127184812252176, 65.194883307774546 ], [ 12.117876838238645, 65.295410676022911 ], [ 12.141450938308687, 65.464868119195785 ], [ 12.581139179989114, 65.83896470264088 ], [ 12.454481277074132, 65.966624554064907 ], [ 12.225380232949767, 65.996927186293576 ], [ 12.29628830306291, 66.160641226992411 ], [ 12.632765094328217, 66.09199578673838 ], [ 12.827827808436636, 66.262413423822537 ], [ 12.95999527399983, 66.183980857197952 ], [ 13.372316072014454, 66.826056650753372 ], [ 13.588637798682242, 66.845889469199975 ], [ 14.136659439615228, 67.128494769929432 ], [ 14.581644872556426, 67.203783079524328 ], [ 14.627228091349945, 67.258426800934217 ], [ 14.595034400402119, 67.383946066123997 ], [ 14.852326310705356, 67.523539624947645 ], [ 15.185282195917656, 67.535930664297751 ], [ 15.299671274906224, 67.732076248313078 ], [ 14.914895648315353, 67.695173391734116 ], [ 14.857879183486698, 67.83247730255637 ], [ 14.919531265431884, 67.919897911213496 ], [ 15.182219029234023, 67.991258799411895 ], [ 15.462007124519959, 67.96576237274779 ], [ 15.405579997995455, 68.051889263577664 ], [ 15.44250186669092, 68.10017438800287 ], [ 15.946358024565589, 68.187777111516809 ], [ 16.203090545860142, 68.018324680865661 ], [ 16.411174118007978, 67.997294011716335 ], [ 16.436074047117568, 68.030124559639631 ], [ 16.30564920272807, 68.231920645003569 ], [ 16.333552314118105, 68.336881571381639 ], [ 16.719173027525439, 68.40456436783613 ], [ 17.171433580963857, 68.385024614563605 ], [ 17.23252596891248, 68.437581703344122 ], [ 16.991850928216088, 68.49381372299213 ], [ 16.55779418409006, 68.447402520574158 ], [ 16.894640038303141, 68.569109250717361 ], [ 17.968788915840705, 68.606522023695518 ], [ 18.125925245692624, 68.536515955763804 ] ] ], [ [ [ 16.22452237626916, 68.331102058367165 ], [ 16.152071774619483, 68.288997988113465 ], [ 16.052369688088042, 68.332615058305436 ], [ 16.158740299671269, 68.382689917304162 ], [ 16.22452237626916, 68.331102058367165 ] ] ], [ [ [ 15.645170460016159, 68.543681777194493 ], [ 15.751859339881959, 68.505781868693234 ], [ 15.958560720182156, 68.582481789820363 ], [ 16.114290730013963, 68.538914960836038 ], [ 15.621297973717398, 68.355963736335539 ], [ 13.747531547158736, 68.105717543383392 ], [ 13.510421702727509, 68.132892675659321 ], [ 13.777326100507024, 68.281277300906964 ], [ 15.169283734784621, 68.516219507938587 ], [ 15.424418278531745, 68.709869261108835 ], [ 15.613878960345398, 69.024634573290513 ], [ 15.897763830535041, 69.169605160006128 ], [ 15.963062366236032, 69.129017132387915 ], [ 15.938809831582631, 68.93520866587393 ], [ 16.005573070070074, 68.755538554630917 ], [ 15.667186825925095, 68.623538164337873 ], [ 15.645170460016159, 68.543681777194493 ] ] ], [ [ [ 15.397374925039696, 68.761687549821502 ], [ 14.813790752556072, 68.495603523188564 ], [ 14.708699165856919, 68.527736817132038 ], [ 14.683553821358171, 68.644397667740449 ], [ 14.411902877204751, 68.645378637430554 ], [ 14.515971298378386, 68.779613763850307 ], [ 14.855774083568548, 68.833851723172174 ], [ 15.123684358932424, 69.000996432194526 ], [ 15.324089487169246, 68.895611681918936 ], [ 15.397374925039696, 68.761687549821502 ] ] ], [ [ [ 14.468958256646463, 67.417998030786066 ], [ 14.397087249358808, 67.373865135582392 ], [ 14.290607372529577, 67.420738683927922 ], [ 14.387143393017427, 67.464510381661981 ], [ 14.468958256646463, 67.417998030786066 ] ] ], [ [ [ 13.99626681303989, 67.407214640183085 ], [ 13.940244233489199, 67.370974063819048 ], [ 13.823046892750128, 67.405491675647951 ], [ 13.896408638233199, 67.463710972037148 ], [ 13.99626681303989, 67.407214640183085 ] ] ], [ [ [ 13.803754281655202, 67.151581417745803 ], [ 13.704777497978782, 67.130660293897506 ], [ 13.671298919945292, 67.145972882569978 ], [ 13.658764609053415, 67.187869248042844 ], [ 13.77191123908465, 67.201609550299608 ], [ 13.824450057251761, 67.188333269802328 ], [ 13.803754281655202, 67.151581417745803 ] ] ], [ [ [ 13.190022288767134, 66.76484126096706 ], [ 13.094778115176403, 66.729050587063895 ], [ 13.020398244717999, 66.791991903068663 ], [ 13.108705916073491, 66.821969360535732 ], [ 13.190022288767134, 66.76484126096706 ] ] ], [ [ [ 13.068149672598789, 66.595664239029233 ], [ 12.986995636413321, 66.5929339367528 ], [ 12.93857172674187, 66.698203059091441 ], [ 13.043519020987285, 66.672758986620352 ], [ 13.068149672598789, 66.595664239029233 ] ] ], [ [ [ 12.882537164130447, 66.377692612704138 ], [ 12.813730014026969, 66.377692612785566 ], [ 12.788715751751635, 66.40555568793495 ], [ 12.815140808194291, 66.440887401574599 ], [ 12.938584607664025, 66.439969078244033 ], [ 12.937860066887025, 66.395772908141367 ], [ 12.882537164130447, 66.377692612704138 ] ] ], [ [ [ 12.901807169033923, 66.60229112777634 ], [ 12.841390052072295, 66.53975992580915 ], [ 12.747038032557365, 66.578902379465831 ], [ 12.823194795036629, 66.641290782124258 ], [ 12.901807169033923, 66.60229112777634 ] ] ], [ [ [ 12.721668201856358, 66.565528993750902 ], [ 12.652637646202104, 66.523795828625367 ], [ 12.555310598692177, 66.571784654203782 ], [ 12.657979929029441, 66.620611287759374 ], [ 12.721668201856358, 66.565528993750902 ] ] ], [ [ [ 12.684532647353526, 66.301270118184263 ], [ 12.608307111710241, 66.264052758712353 ], [ 12.511214466294597, 66.314322704781418 ], [ 12.6226250059833, 66.356094583277923 ], [ 12.684532647353526, 66.301270118184263 ] ] ], [ [ [ 12.303826903410453, 65.808452968130609 ], [ 12.246496316231587, 65.767584954226677 ], [ 12.109086518544649, 65.845660150675144 ], [ 12.179816319814824, 65.902647374594764 ], [ 12.303826903410453, 65.808452968130609 ] ] ], [ [ [ 12.286924573083258, 66.246799866491628 ], [ 12.224490218918991, 66.181275742806548 ], [ 12.119560320937111, 66.216385956722675 ], [ 12.209500593076736, 66.274984605149342 ], [ 12.286924573083258, 66.246799866491628 ] ] ], [ [ [ 12.175308574275196, 66.543693914795668 ], [ 12.113741273984278, 66.463925080152848 ], [ 12.070929415677799, 66.583158389895729 ], [ 12.142588739524685, 66.607641095510516 ], [ 12.175308574275196, 66.543693914795668 ] ] ], [ [ [ 12.002438338948412, 65.629527903667281 ], [ 11.867460400328874, 65.621505934913259 ], [ 11.824348868583616, 65.641986604286288 ], [ 12.109132458810976, 65.840907845049088 ], [ 12.102015206708558, 65.725774888576993 ], [ 12.002438338948412, 65.629527903667281 ] ] ], [ [ [ 12.047940354791926, 65.21845126746922 ], [ 11.972270830954361, 65.201586690486891 ], [ 11.923410900918531, 65.224386158980195 ], [ 11.996024767566562, 65.283400615199881 ], [ 12.047940354791926, 65.21845126746922 ] ] ], [ [ [ 12.013411331665038, 65.145101551473417 ], [ 11.981971911585546, 65.070815572805571 ], [ 11.94371666143584, 65.077899114107282 ], [ 11.938758840707255, 65.148924027380289 ], [ 12.013411331665038, 65.145101551473417 ] ] ], [ [ [ 12.132514136575173, 67.494953196185605 ], [ 12.078158669710279, 67.451210362596072 ], [ 11.988255972206085, 67.512748700068471 ], [ 12.077243791041417, 67.56320185988028 ], [ 12.132514136575173, 67.494953196185605 ] ] ] ] } },
{ "type": "Feature", "properties": { "NUTS_ID": "NO072", "name": "Troms/Romsa/Tromssa" }, "geometry": { "type": "MultiPolygon", "coordinates": [ [ [ [ 21.492220859068318, 70.17110816690996 ], [ 21.816598896069049, 70.113920245067689 ], [ 22.082373911549158, 70.16424703997366 ], [ 22.163129555570276, 70.072531904029745 ], [ 22.265145410098143, 69.961130884848416 ], [ 22.475597511443507, 69.906788956644277 ], [ 22.477837827617517, 69.810014290216515 ], [ 22.600208455431027, 69.692760539019474 ], [ 22.829401855227829, 69.632969260961957 ], [ 22.702436432559349, 69.516730776142595 ], [ 22.32220577031384, 69.474053901726919 ], [ 22.317603508884904, 69.392235048059661 ], [ 22.503360922225689, 69.250103346954575 ], [ 22.518730284992262, 69.170551704385232 ], [ 22.434763065074943, 69.103456685876111 ], [ 22.163129556151045, 69.076542053191773 ], [ 21.98361135086391, 69.072893503670642 ], [ 21.630272534358184, 69.268890535137203 ], [ 21.299035811208761, 69.307427484273262 ], [ 21.018146856282367, 69.206143502083918 ], [ 21.088598843455063, 69.098982833002907 ], [ 21.050527426387813, 69.050542546921491 ], [ 20.730045841461404, 69.11139241940289 ], [ 20.548636558941542, 69.059968546070451 ], [ 20.195390051244804, 69.02233196040082 ], [ 20.296467910994771, 68.823220716027294 ], [ 20.218125576741205, 68.69263259660201 ], [ 20.041310264518028, 68.565476043793097 ], [ 20.114517103603159, 68.460508197606373 ], [ 19.943272758059827, 68.378695749091847 ], [ 18.410969091789998, 68.573390534162314 ], [ 18.125925245692624, 68.536515955763804 ], [ 17.968788915840705, 68.606522023695518 ], [ 16.894640038303141, 68.569109250717361 ], [ 16.55779418409006, 68.447402520574158 ], [ 16.352713785769986, 68.42322237056031 ], [ 16.136054327412289, 68.405055902815235 ], [ 16.114290730013963, 68.538914960836038 ], [ 15.958560720182156, 68.582481789820363 ], [ 15.751859339881959, 68.505781868693234 ], [ 15.645170460016159, 68.543681777194493 ], [ 15.667186825925095, 68.623538164337873 ], [ 16.005573070070074, 68.755538554630917 ], [ 16.058621991754293, 68.722278017523038 ], [ 16.327836307542764, 68.882962416981499 ], [ 16.324239512051264, 68.962503588226298 ], [ 16.506188288021352, 69.066805605887069 ], [ 16.546086349100435, 68.785777189368645 ], [ 16.663846673725683, 68.669102909658221 ], [ 16.836143400458145, 68.692654026045801 ], [ 17.026676375240132, 68.818873332266577 ], [ 17.124292608697971, 68.727702063863163 ], [ 17.2034684021448, 68.739370896273002 ], [ 17.227596079172056, 68.895463713950463 ], [ 17.521171934766564, 68.860274723983409 ], [ 17.485759908313948, 69.02770736046071 ], [ 17.606868248005608, 69.074414187157558 ], [ 17.618794375851007, 69.132351323227809 ], [ 17.387649631987802, 69.134452860844789 ], [ 17.108956699708923, 69.032572016123737 ], [ 16.931401582146307, 69.065667430138333 ], [ 16.997937765713957, 69.372240366765027 ], [ 17.692928607144005, 69.564477332262669 ], [ 17.822747897893894, 69.538526731171117 ], [ 17.79845163866057, 69.458791347433859 ], [ 17.838352891434607, 69.438757782352923 ], [ 17.992781960976338, 69.513559677894392 ], [ 17.992752172385686, 69.61942691171248 ], [ 17.992781962323743, 69.646941250818685 ], [ 18.552304348686061, 69.773352529028401 ], [ 18.821908579213968, 70.068027130305595 ], [ 19.092327358448021, 70.150334971362241 ], [ 19.572633103687508, 69.980284163120118 ], [ 19.738709183440861, 69.746057912421122 ], [ 20.243549380457125, 69.821861118237692 ], [ 20.401617808350426, 69.586834698282914 ], [ 20.510491760299264, 69.665863018155804 ], [ 20.626964184178988, 69.873160279638853 ], [ 20.601657953066876, 70.134935896262945 ], [ 20.802620931890875, 70.100090983967078 ], [ 21.043333777970023, 69.914522726378294 ], [ 21.780228373361389, 69.930946628252741 ], [ 21.721404783506753, 70.03125377885813 ], [ 21.492220859068318, 70.17110816690996 ] ] ], [ [ [ 20.280469313281557, 70.233019693466247 ], [ 20.196213790027649, 70.205331357401022 ], [ 20.159639426152456, 70.304217939171323 ], [ 20.251958107627491, 70.30605568621958 ], [ 20.280469313281557, 70.233019693466247 ] ] ], [ [ [ 19.921928209536741, 70.074030540154141 ], [ 19.721153743109021, 70.057501137048845 ], [ 19.493159376269364, 70.237406592636276 ], [ 19.734433135028556, 70.273753525791335 ], [ 19.921928209536741, 70.074030540154141 ] ] ], [ [ [ 19.521919861948327, 70.103886802059293 ], [ 19.454279588709138, 70.081564433950007 ], [ 19.344204255005245, 70.134263200386201 ], [ 19.430855156873534, 70.17638422633263 ], [ 19.521919861948327, 70.103886802059293 ] ] ], [ [ [ 16.762228438916846, 68.965109739657251 ], [ 16.705479937193086, 68.899780700914448 ], [ 16.616431057197424, 68.952298847452525 ], [ 16.688209902084747, 69.008960730269919 ], [ 16.762228438916846, 68.965109739657251 ] ] ] ] } },
{ "type": "Feature", "properties": { "NUTS_ID": "NO073", "name": "Finnmark/Finnmárku/Finmarkku" }, "geometry": { "type": "MultiPolygon", "coordinates": [ [ [ [ 25.728687553333007, 70.873681056923871 ], [ 25.330469280588527, 70.568918259481507 ], [ 25.136035865928363, 70.326806940406627 ], [ 25.104074921319803, 70.228726124241234 ], [ 25.176113423719986, 70.206525935436403 ], [ 26.441218102448953, 70.826313214613208 ], [ 26.606569704245988, 70.77024388943012 ], [ 26.666065839840495, 70.53288110391739 ], [ 26.821031037937743, 70.51070749576769 ], [ 27.191557096256712, 70.743430116183262 ], [ 27.389149136625964, 70.961378899682117 ], [ 27.962164277240234, 71.066853241395208 ], [ 28.261746659739881, 70.960353870366802 ], [ 28.126196687001059, 70.653262775706878 ], [ 28.212432287121963, 70.528602597923779 ], [ 28.374392494447534, 70.541527804961902 ], [ 28.680122806810349, 70.724871119118433 ], [ 29.087241096176474, 70.814984257929936 ], [ 30.080469887863831, 70.658586445413533 ], [ 30.774918618075233, 70.434195285289732 ], [ 30.863621157788067, 70.343325400146128 ], [ 30.780694255640423, 70.269315492023964 ], [ 29.748677862561141, 69.996989521187245 ], [ 30.062223488663989, 69.834715200903929 ], [ 30.837990055851382, 69.777664203520416 ], [ 30.840591386027974, 69.776508472014029 ], [ 30.935640208208518, 69.656006046052454 ], [ 30.89025065743828, 69.550526986780227 ], [ 30.547796008208493, 69.541434175354468 ], [ 30.169397823541736, 69.653948654956281 ], [ 30.165594434996834, 69.545967522188619 ], [ 30.07916685687556, 69.457259989044942 ], [ 29.336653556540796, 69.305497709897068 ], [ 29.204072479535782, 69.094936132898539 ], [ 29.05543363466489, 69.026615125643545 ], [ 28.929561557074823, 69.051911620843768 ], [ 28.83953792808305, 69.124043898347566 ], [ 28.852063600899044, 69.205475264397748 ], [ 29.241064599244819, 69.42471804603953 ], [ 29.284296074745555, 69.497893588737654 ], [ 29.23782791425883, 69.56664070433574 ], [ 29.085443254192882, 69.695818631158218 ], [ 28.439952866038425, 69.818040565152515 ], [ 27.888308391177741, 70.078194623114825 ], [ 27.067950454389024, 69.921286447965443 ], [ 26.519853084756217, 69.937246349281921 ], [ 25.999792228474838, 69.697873605210219 ], [ 25.731618663221923, 69.270778479977722 ], [ 25.716623877413845, 68.977706350643061 ], [ 25.255591238086797, 68.834566780041328 ], [ 25.082746982755072, 68.647869432161713 ], [ 24.90242413173041, 68.592364161832336 ], [ 23.917017810906881, 68.826317045662165 ], [ 23.618878082043882, 68.706054427084254 ], [ 23.21703132779097, 68.64394040945237 ], [ 22.455719401899348, 68.722319227466528 ], [ 21.98361135086391, 69.072893503670642 ], [ 22.163129556151045, 69.076542053191773 ], [ 22.434763065074943, 69.103456685876111 ], [ 22.518730284992262, 69.170551704385232 ], [ 22.503360922225689, 69.250103346954575 ], [ 22.317603508884904, 69.392235048059661 ], [ 22.32220577031384, 69.474053901726919 ], [ 22.702436432559349, 69.516730776142595 ], [ 22.829401855227829, 69.632969260961957 ], [ 22.600208455431027, 69.692760539019474 ], [ 22.477837827617517, 69.810014290216515 ], [ 22.475597511443507, 69.906788956644277 ], [ 22.265145410098143, 69.961130884848416 ], [ 22.163129555570276, 70.072531904029745 ], [ 22.082373911549158, 70.16424703997366 ], [ 21.816598896069049, 70.113920245067689 ], [ 21.492220859068318, 70.17110816690996 ], [ 21.775615078925576, 70.286614289161847 ], [ 22.432561917269645, 70.282994009015383 ], [ 23.281178985140009, 70.536864793140722 ], [ 23.636760638527115, 70.544346085824969 ], [ 23.835540053527392, 70.645014960755603 ], [ 24.210791882587042, 70.608289939923381 ], [ 24.629585370749798, 70.894327598833698 ], [ 25.12916040403142, 70.907199871879229 ], [ 25.466781291885006, 71.077895451666038 ], [ 25.780100999232939, 71.066100820742207 ], [ 25.801452266057268, 70.993215796235361 ], [ 25.728687553333007, 70.873681056923871 ] ] ], [ [ [ 26.237322186247066, 71.050111044364854 ], [ 26.160328014421996, 70.985071740501013 ], [ 26.066422126326461, 71.031814372244042 ], [ 26.156355132704729, 71.079084090836417 ], [ 26.237322186247066, 71.050111044364854 ] ] ], [ [ [ 25.918208729101401, 70.695818996217241 ], [ 25.811116773069802, 70.641660380980412 ], [ 25.740078506758074, 70.683157287240235 ], [ 25.866921084139769, 70.736231558814964 ], [ 25.918208729101401, 70.695818996217241 ] ] ], [ [ [ 24.848665092472668, 71.07249930468322 ], [ 24.783814349340737, 71.021317337804803 ], [ 24.676500097379723, 71.068561572569365 ], [ 24.774871943754118, 71.114856644642259 ], [ 24.848665092472668, 71.07249930468322 ] ] ], [ [ [ 24.154728824682003, 70.96119662636211 ], [ 24.033243205392715, 70.915782849377337 ], [ 23.892183412148654, 70.989044219799567 ], [ 24.046102897734766, 71.030818326706083 ], [ 24.154728824682003, 70.96119662636211 ] ] ], [ [ [ 22.75273867711023, 70.488806726517979 ], [ 22.163878792512964, 70.4735078387193 ], [ 21.94237683978799, 70.568862682589241 ], [ 22.35366992093314, 70.710713668436085 ], [ 23.092928764193076, 70.683485191378779 ], [ 22.75273867711023, 70.488806726517979 ] ] ], [ [ [ 21.486077801143885, 70.35841768497896 ], [ 21.441945232086059, 70.29858489470945 ], [ 21.34938256745049, 70.344323046900243 ], [ 21.422993167913646, 70.414699292449967 ], [ 21.486077801143885, 70.35841768497896 ] ] ] ] } },
{ "type": "Feature", "properties": { "NUTS_ID": "NO081", "name": "Oslo" }, "geometry": { "type": "Polygon", "coordinates": [ [ [ 10.516254936710236, 60.02721567607464 ], [ 10.621413500434699, 60.12393023039084 ], [ 10.728152433167791, 60.123551255110776 ], [ 10.930950641240694, 59.93665549334051 ], [ 10.908499286515978, 59.830882057688896 ], [ 10.764788035935808, 59.82954441117176 ], [ 10.699975289691928, 59.825220855295996 ], [ 10.64198016966836, 59.911508459192845 ], [ 10.516254936710236, 60.02721567607464 ] ] ] } },
{ "type": "Feature", "properties": { "NUTS_ID": "NO083", "name": "Østfold" }, "geometry": { "type": "Polygon", "coordinates": [ [ [ 10.652725801706296, 59.439498963725846 ], [ 10.656190622429833, 59.446635696166979 ], [ 10.785064308189606, 59.535971333723083 ], [ 10.957989522367948, 59.637261439374853 ], [ 11.103691480595149, 59.701764263891164 ], [ 11.281078973092262, 59.761628681473631 ], [ 11.457517308807295, 59.671283254234659 ], [ 11.658127071071922, 59.672501655401163 ], [ 11.763318012367945, 59.613428205205203 ], [ 11.707313955808907, 59.583643914064673 ], [ 11.816781937461815, 59.337854839088493 ], [ 11.826196491599896, 59.237850055398525 ], [ 11.635764079495662, 58.909924699100671 ], [ 11.483599847809957, 58.891789817750315 ], [ 11.460796336170777, 58.988637874484631 ], [ 11.469437141453357, 58.989809912008752 ], [ 11.427165362540684, 59.03955211964837 ], [ 11.425922681778518, 59.059075836759064 ], [ 11.411567110734595, 59.062084953951498 ], [ 11.366993033028203, 59.113639741100471 ], [ 11.323281916158978, 59.115547528813472 ], [ 11.222586101136041, 59.090994114059242 ], [ 11.204825053850657, 59.101937346997957 ], [ 11.224515576458632, 59.134845948001825 ], [ 11.167315038182139, 59.158897006021462 ], [ 11.12951048931532, 59.144526736097838 ], [ 11.137829113857387, 59.116060111024368 ], [ 11.129594162395485, 59.102978932405335 ], [ 11.098036257850238, 59.086160543122936 ], [ 11.09771599413315, 59.086453230121485 ], [ 11.097712129756287, 59.086449021856673 ], [ 11.097712042246332, 59.086448951483277 ], [ 11.097702234752129, 59.086443422254241 ], [ 11.097702129054779, 59.086443382613346 ], [ 11.097691091609999, 59.086441160344037 ], [ 11.097690978309094, 59.086441155849428 ], [ 11.097685335573384, 59.086441365464879 ], [ 11.091909746988538, 59.087113889574518 ], [ 11.086210857029176, 59.085895927473949 ], [ 11.081203589307531, 59.082914644143131 ], [ 11.077416914578599, 59.078484985220982 ], [ 11.075250862831234, 59.073074902638041 ], [ 11.074934253584974, 59.067255922155624 ], [ 11.076500534172162, 59.061642764666587 ], [ 11.079786988744061, 59.056824382652195 ], [ 11.079789917245995, 59.056819216548085 ], [ 11.079789967861368, 59.056819109096217 ], [ 11.079793098880728, 59.05680769444745 ], [ 11.079793110905312, 59.056807576502962 ], [ 11.079792362862548, 59.056795763176972 ], [ 11.079792334944875, 59.05679564734519 ], [ 11.079787789086076, 59.056784718460861 ], [ 11.079787726858578, 59.056784618191855 ], [ 11.079781805371658, 59.056777936409148 ], [ 11.083290378520907, 59.053099916329472 ], [ 11.051995534120971, 59.024791740215335 ], [ 11.053233423143313, 58.990204689082248 ], [ 11.006046004461966, 59.002355221152193 ], [ 10.972066979929899, 59.079418935121424 ], [ 10.955471569568948, 59.090076965322403 ], [ 10.888665028071454, 59.042532642832533 ], [ 10.866953125589443, 59.047156329151306 ], [ 10.836842233604642, 59.101138350475175 ], [ 10.857072464459188, 59.120660163310824 ], [ 10.890932695573516, 59.128311330075384 ], [ 10.884494068642502, 59.173629243600814 ], [ 10.868312867433504, 59.180683558167829 ], [ 10.814754963986942, 59.159003945608127 ], [ 10.788731676501065, 59.187959902394354 ], [ 10.764721297327831, 59.193254076619652 ], [ 10.745069765830795, 59.225969124608554 ], [ 10.728152434345239, 59.30679871780157 ], [ 10.66240076057572, 59.337854839778622 ], [ 10.652725801706296, 59.439498963725846 ] ] ] } },
{ "type": "Feature", "properties": { "NUTS_ID": "NO084", "name": "Akershus" }, "geometry": { "type": "Polygon", "coordinates": [ [ [ 10.38433092279174, 59.534213615430694 ], [ 10.268562466772989, 59.664887591030585 ], [ 10.330911091600314, 59.782121703546899 ], [ 10.329319689777977, 59.87295742761161 ], [ 10.359058982570522, 59.967901142185305 ], [ 10.436776962248103, 60.029688754686731 ], [ 10.516254936710236, 60.02721567607464 ], [ 10.64198016966836, 59.911508459192845 ], [ 10.699975289691928, 59.825220855295996 ], [ 10.764788035935808, 59.82954441117176 ], [ 10.908499286515978, 59.830882057688896 ], [ 10.930950641240694, 59.93665549334051 ], [ 10.728152433167791, 60.123551255110776 ], [ 10.621413500434699, 60.12393023039084 ], [ 10.453853046340257, 60.192701708080151 ], [ 10.238461435559666, 60.340569708317055 ], [ 10.200939039953834, 60.373942895462577 ], [ 10.186372624888936, 60.436795741847554 ], [ 10.208054448732977, 60.415019679153517 ], [ 10.391793206542109, 60.335004228919153 ], [ 10.855249179287041, 60.325095180563636 ], [ 10.892801017969584, 60.378049643517485 ], [ 10.745415655138451, 60.441495731606238 ], [ 10.746914899771708, 60.501349189345191 ], [ 10.936927469545841, 60.490686691503178 ], [ 11.190570835230785, 60.563094987263476 ], [ 11.771917969866244, 60.064081877804682 ], [ 11.839814230042647, 59.840672274460687 ], [ 11.919410902132496, 59.778298333548229 ], [ 11.921263389505329, 59.697427316302566 ], [ 11.763318012367945, 59.613428205205203 ], [ 11.658127071071922, 59.672501655401163 ], [ 11.457517308807295, 59.671283254234659 ], [ 11.281078973092262, 59.761628681473631 ], [ 11.103691480595149, 59.701764263891164 ], [ 10.957989522367948, 59.637261439374853 ], [ 10.785064308189606, 59.535971333723083 ], [ 10.656190622429833, 59.446635696166979 ], [ 10.652725801706296, 59.439498963725846 ], [ 10.636337557198157, 59.611672188543693 ], [ 10.547928969361246, 59.524771517715571 ], [ 10.38433092279174, 59.534213615430694 ] ] ] } },
{ "type": "Feature", "properties": { "NUTS_ID": "NO085", "name": "Buskerud" }, "geometry": { "type": "Polygon", "coordinates": [ [ [ 8.251701008512702, 61.073943901249443 ], [ 9.292378401503129, 60.734047286612352 ], [ 9.520782782079085, 60.527141253714809 ], [ 9.774379840903917, 60.478796075137375 ], [ 10.011755198260952, 60.612172118270308 ], [ 10.186372624888936, 60.436795741847554 ], [ 10.200939039953834, 60.373942895462577 ], [ 10.238461435559666, 60.340569708317055 ], [ 10.453853046340257, 60.192701708080151 ], [ 10.621413500434699, 60.12393023039084 ], [ 10.516254936710236, 60.02721567607464 ], [ 10.436776962248103, 60.029688754686731 ], [ 10.359058982570522, 59.967901142185305 ], [ 10.329319689777977, 59.87295742761161 ], [ 10.330911091600314, 59.782121703546899 ], [ 10.268562466772989, 59.664887591030585 ], [ 10.009389564838948, 59.647317118410633 ], [ 9.937325760323017, 59.583588423762279 ], [ 10.03238561656925, 59.476552032602783 ], [ 9.767890837753416, 59.430002594799575 ], [ 9.675288091743656, 59.413705086411255 ], [ 9.493340453684837, 59.508044114812414 ], [ 9.342314266598812, 59.779588610155784 ], [ 9.209650213151473, 59.828837718652629 ], [ 9.16940987924232, 59.915568432806239 ], [ 9.012613297257001, 59.983064927923429 ], [ 8.892042114305097, 60.120897417407022 ], [ 8.71092798872653, 60.178135772849814 ], [ 8.149177117642534, 60.181299041524845 ], [ 7.881215989847271, 60.124349631382174 ], [ 7.488040360178378, 60.098838593508681 ], [ 7.664018532219731, 60.29839686191351 ], [ 7.715313824764936, 60.488140186599544 ], [ 7.529713434322944, 60.665315063201874 ], [ 7.569614932170765, 60.722859247403065 ], [ 7.669774696780611, 60.740622582566331 ], [ 7.881215988904185, 60.923125725854213 ], [ 8.053022504215043, 60.909715596562656 ], [ 8.24218418133991, 60.997987894371747 ], [ 8.251701008512702, 61.073943901249443 ] ] ] } },
{ "type": "Feature", "properties": { "NUTS_ID": "NO092", "name": "Agder" }, "geometry": { "type": "Polygon", "coordinates": [ [ [ 6.438776149309033, 58.290921211603745 ], [ 6.610258090501885, 58.430396688353497 ], [ 6.59389376621169, 58.579085795119568 ], [ 6.518304080235114, 58.654835845128247 ], [ 6.573231896161369, 58.709983230175055 ], [ 6.579543562243344, 58.883025007489508 ], [ 6.862103344205524, 59.109224270342921 ], [ 6.860026716774877, 59.331950782739789 ], [ 7.017535952865019, 59.574462066426477 ], [ 7.214666735386708, 59.672687095843223 ], [ 7.517464586346501, 59.599560385033392 ], [ 7.611067781644994, 59.337854839737602 ], [ 7.723457856358358, 59.289243911194269 ], [ 7.814576119527708, 59.105311517792579 ], [ 8.003688357209553, 58.964830123587546 ], [ 8.587274546382242, 58.915783205955677 ], [ 8.731046179494545, 58.8484460716314 ], [ 8.828049914359614, 58.975922131697587 ], [ 8.963709807158558, 58.988196973759813 ], [ 9.260492801941545, 58.795653027605937 ], [ 9.366022232663628, 58.771403556927716 ], [ 9.173924620706636, 58.71764508156572 ], [ 8.87460269642497, 58.459798856506858 ], [ 8.292947565390824, 58.151474775062724 ], [ 7.591966281644647, 57.975647912146933 ], [ 7.161018162495854, 58.053919587929578 ], [ 7.04791415617137, 58.017751736177807 ], [ 6.844143744121933, 58.096704841108583 ], [ 6.660759650649081, 58.080619880024052 ], [ 6.610498120358179, 58.122216888290026 ], [ 6.653236454355211, 58.220547489504312 ], [ 6.438776149309033, 58.290921211603745 ] ] ] } },
{ "type": "Feature", "properties": { "NUTS_ID": "NO093", "name": "Vestfold" }, "geometry": { "type": "Polygon", "coordinates": [ [ [ 9.825982093357011, 58.986759429677612 ], [ 9.833720503689594, 59.03777211950662 ], [ 9.844691023282644, 59.114412402986417 ], [ 9.83319561805237, 59.163538352470297 ], [ 9.893380135162467, 59.178690123828325 ], [ 9.869175425549972, 59.249179341046187 ], [ 9.75898461569188, 59.327621356613086 ], [ 9.767890837753416, 59.430002594799575 ], [ 10.03238561656925, 59.476552032602783 ], [ 9.937325760323017, 59.583588423762279 ], [ 10.009389564838948, 59.647317118410633 ], [ 10.268562466772989, 59.664887591030585 ], [ 10.38433092279174, 59.534213615430694 ], [ 10.48888846489481, 59.368858549412636 ], [ 10.45887071054428, 59.151702298607546 ], [ 9.958627493598437, 58.979518422991198 ], [ 9.825982093357011, 58.986759429677612 ] ] ] } },
{ "type": "Feature", "properties": { "NUTS_ID": "NO094", "name": "Telemark" }, "geometry": { "type": "Polygon", "coordinates": [ [ [ 9.366022232663628, 58.771403556927716 ], [ 9.260492801941545, 58.795653027605937 ], [ 8.963709807158558, 58.988196973759813 ], [ 8.828049914359614, 58.975922131697587 ], [ 8.731046179494545, 58.8484460716314 ], [ 8.587274546382242, 58.915783205955677 ], [ 8.003688357209553, 58.964830123587546 ], [ 7.814576119527708, 59.105311517792579 ], [ 7.723457856358358, 59.289243911194269 ], [ 7.611067781644994, 59.337854839737602 ], [ 7.517464586346501, 59.599560385033392 ], [ 7.214666735386708, 59.672687095843223 ], [ 7.09630778377764, 59.782812285431064 ], [ 7.23321759663668, 59.953161456110728 ], [ 7.440289387403073, 60.043347674166462 ], [ 7.488040360178378, 60.098838593508681 ], [ 7.881215989847271, 60.124349631382174 ], [ 8.149177117642534, 60.181299041524845 ], [ 8.71092798872653, 60.178135772849814 ], [ 8.892042114305097, 60.120897417407022 ], [ 9.012613297257001, 59.983064927923429 ], [ 9.16940987924232, 59.915568432806239 ], [ 9.209650213151473, 59.828837718652629 ], [ 9.342314266598812, 59.779588610155784 ], [ 9.493340453684837, 59.508044114812414 ], [ 9.675288091743656, 59.413705086411255 ], [ 9.767890837753416, 59.430002594799575 ], [ 9.75898461569188, 59.327621356613086 ], [ 9.869175425549972, 59.249179341046187 ], [ 9.893380135162467, 59.178690123828325 ], [ 9.83319561805237, 59.163538352470297 ], [ 9.844691023282644, 59.114412402986417 ], [ 9.833720503689594, 59.03777211950662 ], [ 9.825982093357011, 58.986759429677612 ], [ 9.720123957248409, 58.992538140603692 ], [ 9.457165192677747, 58.897525245133032 ], [ 9.366022232663628, 58.771403556927716 ] ] ] } },
{ "type": "Feature", "properties": { "NUTS_ID": "NO0A1", "name": "Rogaland" }, "geometry": { "type": "MultiPolygon", "coordinates": [ [ [ [ 6.649355180639031, 59.82514191762872 ], [ 6.711764222048193, 59.703277206305742 ], [ 7.09630778377764, 59.782812285431064 ], [ 7.214666735386708, 59.672687095843223 ], [ 7.017535952865019, 59.574462066426477 ], [ 6.860026716774877, 59.331950782739789 ], [ 6.862103344205524, 59.109224270342921 ], [ 6.579543562243344, 58.883025007489508 ], [ 6.573231896161369, 58.709983230175055 ], [ 6.518304080235114, 58.654835845128247 ], [ 6.59389376621169, 58.579085795119568 ], [ 6.610258090501885, 58.430396688353497 ], [ 6.438776149309033, 58.290921211603745 ], [ 5.71112723046152, 58.541665529020719 ], [ 5.528011174255832, 58.718940089937377 ], [ 5.597267646682083, 58.999917868807174 ], [ 6.022802231065731, 58.981282119333635 ], [ 5.934416682685517, 59.11626741313205 ], [ 6.098631206155228, 59.209631427654863 ], [ 6.09851652739655, 59.315606594842812 ], [ 5.868520452588301, 59.481448251547818 ], [ 5.818463870198316, 59.347644003996372 ], [ 5.620635258174366, 59.327986597421337 ], [ 5.45139363826887, 59.196433735845346 ], [ 5.236223943497639, 59.169327023584557 ], [ 5.193705776449693, 59.309399060297316 ], [ 5.302746536158233, 59.481120681743782 ], [ 5.457213302593311, 59.49808635070692 ], [ 5.610089423371595, 59.666079320881536 ], [ 5.821129143000974, 59.645227480163847 ], [ 6.147080759116372, 59.591485635439525 ], [ 6.223274589849716, 59.683625180565478 ], [ 6.323950071930995, 59.773739556605769 ], [ 6.434485032324608, 59.799110496078953 ], [ 6.649355180639031, 59.82514191762872 ] ] ], [ [ [ 6.082068264783685, 59.277022906406287 ], [ 6.00980676045711, 59.218875807591203 ], [ 5.906172600800222, 59.25897977118376 ], [ 6.00296863317979, 59.309929933835278 ], [ 6.082068264783685, 59.277022906406287 ] ] ], [ [ [ 5.834087009479584, 59.252712855729868 ], [ 5.863799940842694, 59.135428966326984 ], [ 5.808325301418952, 59.136599854254555 ], [ 5.751167831168217, 59.254262508383356 ], [ 5.834087009479584, 59.252712855729868 ] ] ], [ [ [ 5.820408695858397, 59.08745808908423 ], [ 5.744712162364329, 59.052036071936797 ], [ 5.64222005866196, 59.106237877506963 ], [ 5.754371352530192, 59.141592901176885 ], [ 5.820408695858397, 59.08745808908423 ] ] ], [ [ [ 4.922123287863406, 59.282605592385586 ], [ 4.843618086478257, 59.229352711379398 ], [ 4.766387624121379, 59.294143613294203 ], [ 4.864435127522955, 59.331443774434881 ], [ 4.922123287863406, 59.282605592385586 ] ] ] ] } },
{ "type": "Feature", "properties": { "NUTS_ID": "NO0A2", "name": "Vestland" }, "geometry": { "type": "MultiPolygon", "coordinates": [ [ [ [ 5.492609931438365, 62.017126543687297 ], [ 5.593287827455309, 61.96798332681319 ], [ 6.405622297372608, 61.984286693702984 ], [ 6.520686800901413, 61.93360833667461 ], [ 7.349109063546218, 62.007681972220709 ], [ 7.537337021118528, 61.751594244503465 ], [ 7.86168841557087, 61.723610536633636 ], [ 7.980051135455124, 61.5638995836036 ], [ 8.231714685437424, 61.48999012039372 ], [ 8.089239258905254, 61.20227323469107 ], [ 8.251701008512702, 61.073943901249443 ], [ 8.24218418133991, 60.997987894371747 ], [ 8.053022504215043, 60.909715596562656 ], [ 7.881215988904185, 60.923125725854213 ], [ 7.669774696780611, 60.740622582566331 ], [ 7.569614932170765, 60.722859247403065 ], [ 7.529713434322944, 60.665315063201874 ], [ 7.715313824764936, 60.488140186599544 ], [ 7.664018532219731, 60.29839686191351 ], [ 7.488040360178378, 60.098838593508681 ], [ 7.440289387403073, 60.043347674166462 ], [ 7.23321759663668, 59.953161456110728 ], [ 7.09630778377764, 59.782812285431064 ], [ 6.711764222048193, 59.703277206305742 ], [ 6.649355180639031, 59.82514191762872 ], [ 6.434485032324608, 59.799110496078953 ], [ 6.323950071930995, 59.773739556605769 ], [ 6.223274589849716, 59.683625180565478 ], [ 6.147080759116372, 59.591485635439525 ], [ 5.821129143000974, 59.645227480163847 ], [ 5.894323540335956, 60.024318976445294 ], [ 5.608717306161924, 59.909825551240374 ], [ 5.505279524833448, 59.967574277490961 ], [ 5.440635518532554, 59.820648448374229 ], [ 5.184259225500543, 59.734988074060794 ], [ 5.152349998797527, 59.851276631705204 ], [ 5.207050237386441, 59.987311957711995 ], [ 5.547017396965981, 60.076416247565334 ], [ 5.613445992781039, 60.158365618419303 ], [ 5.514472457527242, 60.219287670638252 ], [ 5.039313972787954, 60.281856399817102 ], [ 4.861393175951817, 60.822427791134018 ], [ 4.956621805936636, 60.983954116227245 ], [ 5.275279619399059, 61.11259937102912 ], [ 5.029828576096047, 61.316913240608613 ], [ 5.092807249763251, 61.55451755906784 ], [ 4.928531290380261, 61.853160382521018 ], [ 5.211095716118822, 62.095160695179892 ], [ 5.492609931438365, 62.017126543687297 ] ] ], [ [ [ 5.457213302593311, 59.49808635070692 ], [ 5.302746536158233, 59.481120681743782 ], [ 5.273159736332037, 59.553390454464626 ], [ 5.436654433529324, 59.681709410703554 ], [ 5.520033634496893, 59.723701710771522 ], [ 5.536170084259564, 59.686721910528966 ], [ 5.519854447628511, 59.570768081837677 ], [ 5.457213302593311, 59.49808635070692 ] ] ], [ [ [ 5.051311313385653, 61.131761297980688 ], [ 4.929100998292705, 61.058352578481937 ], [ 4.750824399370893, 61.107378678346763 ], [ 4.912098990210304, 61.192233671999361 ], [ 5.051311313385653, 61.131761297980688 ] ] ], [ [ [ 4.879169358144756, 61.573205321771212 ], [ 4.806136870797236, 61.558905123277853 ], [ 4.758903394977319, 61.652284809028288 ], [ 4.87783341594514, 61.695680870504567 ], [ 4.879169358144756, 61.573205321771212 ] ] ], [ [ [ 4.919444989124137, 61.291897973495374 ], [ 4.849692777909142, 61.219848775023223 ], [ 4.757368940809694, 61.266502855968362 ], [ 4.843993626141223, 61.318535016501265 ], [ 4.919444989124137, 61.291897973495374 ] ] ], [ [ [ 4.88899265812789, 60.519865227302475 ], [ 4.824455298421308, 60.518159413633505 ], [ 4.714037987223111, 60.619890394357363 ], [ 4.817007313171567, 60.660601788161983 ], [ 4.88899265812789, 60.519865227302475 ] ] ], [ [ [ 4.736681203928302, 61.316765107329239 ], [ 4.652958704799942, 61.248360091815464 ], [ 4.562374836507084, 61.294019638707944 ], [ 4.653245032613235, 61.340989636779746 ], [ 4.736681203928302, 61.316765107329239 ] ] ], [ [ [ 4.745889360807959, 60.98848512177743 ], [ 4.686092705277227, 60.97392096662437 ], [ 4.610496704595687, 61.054536027199156 ], [ 4.695763480153053, 61.088407557385267 ], [ 4.745889360807959, 60.98848512177743 ] ] ] ] } },
{ "type": "Feature", "properties": { "NUTS_ID": "NO0A3", "name": "Møre og Romsdal" }, "geometry": { "type": "MultiPolygon", "coordinates": [ [ [ [ 9.082511594020126, 63.0581172783385 ], [ 9.302408342781169, 62.842572197640344 ], [ 9.003344389527159, 62.712066345458844 ], [ 9.207528172522151, 62.525411810551972 ], [ 9.062061819661292, 62.372608388946169 ], [ 8.320840221897475, 62.346628530376435 ], [ 7.585736659939006, 62.082453503773664 ], [ 7.427869440998059, 62.076642638437946 ], [ 7.349109063546218, 62.007681972220709 ], [ 6.520686800901413, 61.93360833667461 ], [ 6.405622297372608, 61.984286693702984 ], [ 5.593287827455309, 61.96798332681319 ], [ 5.492609931438365, 62.017126543687297 ], [ 5.468304062130164, 62.140186111054142 ], [ 5.560418356746974, 62.397528983709897 ], [ 5.792320480344711, 62.300187081224927 ], [ 5.924365060099268, 62.40211031355512 ], [ 6.120873414198455, 62.333297417557887 ], [ 6.364327275782927, 62.335770819319087 ], [ 6.382470028661078, 62.496692966857545 ], [ 6.276818516010321, 62.574860656426111 ], [ 6.551805375885356, 62.664676078755548 ], [ 6.678116493107561, 62.609497328897298 ], [ 7.039004985135555, 62.955056263624215 ], [ 7.791346503264797, 63.084570846944807 ], [ 7.834662762274322, 63.06564730112008 ], [ 7.804688741199707, 62.975588619556532 ], [ 7.947250714710616, 62.959629827585673 ], [ 8.047662082322134, 63.079295142471288 ], [ 8.3401018251423, 62.905046163421616 ], [ 8.466532553893721, 62.900548138618966 ], [ 8.449898684435416, 62.986415439594929 ], [ 8.257522518031527, 63.020417076010681 ], [ 8.847154135996501, 63.121798196365667 ], [ 9.082511594020126, 63.0581172783385 ] ] ], [ [ [ 8.868119075046256, 63.347211834510723 ], [ 8.832085698993838, 63.201962209492805 ], [ 8.553218725075038, 63.262405315465834 ], [ 8.755213217489228, 63.424254832054643 ], [ 8.79804060480876, 63.380673688362492 ], [ 8.868119075046256, 63.347211834510723 ] ] ], [ [ [ 8.16832885291711, 63.39496903949842 ], [ 7.847543490321245, 63.269767627088328 ], [ 7.678322264645567, 63.38186505359073 ], [ 8.012397049146061, 63.492290160085034 ], [ 8.16832885291711, 63.39496903949842 ] ] ], [ [ [ 6.270676495246468, 62.401667053965056 ], [ 6.10862785793256, 62.401667053384273 ], [ 6.133027167117546, 62.439231666993848 ], [ 6.305677769752142, 62.465142140586686 ], [ 6.270676495246468, 62.401667053965056 ] ] ] ] } },
{ "type": "Feature", "properties": { "NUTS_ID": "NO0B1", "name": "Jan Mayen" }, "geometry": { "type": "Polygon", "coordinates": [ [ [ -8.99573248894249, 70.88477507621721 ], [ -8.849912176906834, 70.955351888056484 ], [ -8.379914899701255, 71.033543103154599 ], [ -8.50327559591131, 71.063394406213462 ], [ -8.258904164200084, 71.172978859000594 ], [ -7.937722419722739, 71.033810665564246 ], [ -8.08553206037346, 70.962307193398672 ], [ -8.212313429204317, 70.992986243757386 ], [ -8.848497899670351, 70.844763235563462 ], [ -8.99573248894249, 70.88477507621721 ] ] ] } },
{ "type": "Feature", "properties": { "NUTS_ID": "NO0B2", "name": "Svalbard" }, "geometry": { "type": "MultiPolygon", "coordinates": [ [ [ [ 33.139588248651542, 80.126204551784795 ], [ 32.035839516842564, 80.043277958047085 ], [ 31.571948081934295, 80.128668025691042 ], [ 31.74565164604893, 80.215528061699985 ], [ 32.514109989054575, 80.311992309406151 ], [ 33.066848136397667, 80.312739034461302 ], [ 33.301710010234757, 80.205609531831342 ], [ 33.139588248651542, 80.126204551784795 ] ] ], [ [ [ 30.231214223497812, 78.989063975454272 ], [ 30.164164982328195, 78.945296326459612 ], [ 30.066743876253867, 78.996144020514862 ], [ 30.162845606427076, 79.043482708794045 ], [ 30.231214223497812, 78.989063975454272 ] ] ], [ [ [ 29.325989854636823, 78.881995662092777 ], [ 29.259233854627499, 78.838605358560869 ], [ 29.117657371532811, 78.860377176831946 ], [ 29.070920441309401, 78.888212842091946 ], [ 29.110992986123879, 78.906713788159365 ], [ 29.277482422844798, 78.90355341874141 ], [ 29.325989854636823, 78.881995662092777 ] ] ], [ [ [ 28.496776442059407, 78.984767976260088 ], [ 28.165619106151293, 78.792618555434558 ], [ 27.968112294441351, 78.802974466489843 ], [ 28.38744610433578, 79.002871103392451 ], [ 28.496776442059407, 78.984767976260088 ] ] ], [ [ [ 26.842254904161226, 78.656225794342078 ], [ 26.684797842671895, 78.636914291563698 ], [ 26.392639650740122, 78.803247802264551 ], [ 26.629550480484202, 78.855586346779219 ], [ 26.842254904161226, 78.656225794342078 ] ] ], [ [ [ 28.181135998982896, 80.075962261629883 ], [ 28.062771546673243, 80.032364690987251 ], [ 27.912731524954207, 80.10952735517985 ], [ 28.069638880036749, 80.147158800900911 ], [ 28.181135998982896, 80.075962261629883 ] ] ], [ [ [ 24.100323408420429, 77.754169756611418 ], [ 23.781835536435459, 77.533567823733051 ], [ 22.897448652030405, 77.300360230509142 ], [ 22.788241287649058, 77.327340899634493 ], [ 22.723634655109425, 77.479393417891444 ], [ 22.599377363923733, 77.539487309435629 ], [ 21.082831074488048, 77.522081675179223 ], [ 21.020386245978461, 77.602886801768065 ], [ 21.228525591352344, 77.870141723814882 ], [ 21.20542998219182, 78.086611231537191 ], [ 21.252343383287052, 78.187305944040375 ], [ 20.889672869908718, 78.257382399485252 ], [ 20.552715370324538, 78.446039249180089 ], [ 21.29929906256195, 78.624015762030268 ], [ 21.790398971634477, 78.583310458479502 ], [ 22.064830586981309, 78.419632035182815 ], [ 22.097367523135034, 78.241672495252061 ], [ 22.934985780284368, 78.215150315461415 ], [ 24.100323408420429, 77.754169756611418 ] ] ], [ [ [ 21.591663746011946, 80.229245565894914 ], [ 22.159860673750767, 80.084190471637939 ], [ 22.361020649351339, 80.146887174626784 ], [ 22.566376492420702, 80.35693038971776 ], [ 22.91598084255261, 80.429846369605997 ], [ 23.107506262758974, 80.375900869968959 ], [ 23.199741218391519, 80.232193492602477 ], [ 23.314232634328825, 80.180463020281422 ], [ 24.49479300437919, 80.347160465616568 ], [ 25.254900943239914, 80.236863305920892 ], [ 26.848209618525537, 80.130854903718344 ], [ 27.10559057913683, 79.999432421521774 ], [ 25.520829878574446, 79.408354013569209 ], [ 23.694966127977626, 79.210602309718865 ], [ 23.035717887374766, 79.247147498613259 ], [ 22.457922559633122, 79.355168654403386 ], [ 21.005068148016569, 79.358845329046915 ], [ 20.443757620055464, 79.414466839507867 ], [ 20.298866890387234, 79.525555182646542 ], [ 20.685215547139393, 79.612422368655828 ], [ 20.837282270361982, 79.709891389806771 ], [ 18.720419549905678, 79.752833260134167 ], [ 18.319514237999851, 79.870342655049541 ], [ 18.164898324762099, 80.083432809299154 ], [ 18.62534436250186, 80.168033030703455 ], [ 19.091582434374388, 80.169371889247884 ], [ 19.528108700974069, 80.300188195824333 ], [ 19.718246834134682, 80.439310457953738 ], [ 19.879185419270367, 80.47708123686624 ], [ 20.740570675851675, 80.266594427010972 ], [ 21.591663746011946, 80.229245565894914 ] ] ], [ [ [ 19.279983707041271, 74.441653425553682 ], [ 19.061532509112883, 74.329905027596766 ], [ 18.822249798702771, 74.453377457084571 ], [ 19.085154040612384, 74.536531470551154 ], [ 19.279983707041271, 74.441653425553682 ] ] ], [ [ [ 17.870214260660209, 79.733523757691771 ], [ 17.957116693498872, 79.5425148641649 ], [ 18.578606722514518, 79.544560206337366 ], [ 19.106451448895172, 79.182425273117758 ], [ 20.04444660414152, 79.056719092602222 ], [ 20.557259090915185, 79.05518694847396 ], [ 21.015300675897667, 78.768160430065535 ], [ 19.19861218161871, 78.491231085135169 ], [ 18.987380022938869, 78.181888308240815 ], [ 18.544373815193371, 77.949567621095383 ], [ 18.265868265407466, 77.610014461959778 ], [ 17.647241520189702, 77.402108583228838 ], [ 16.969915271989571, 76.666501581661791 ], [ 16.518365696585654, 76.573062548066886 ], [ 16.065782476397317, 76.779785511591683 ], [ 16.036389787353635, 76.970869637438682 ], [ 15.266016978567253, 77.021547408448171 ], [ 14.609012799504885, 77.15732609496925 ], [ 14.174699024255444, 77.439724014248327 ], [ 14.368298190278468, 77.522121288546444 ], [ 15.12215151511251, 77.537525871016925 ], [ 15.38812032229638, 77.638552249988336 ], [ 16.290485274330511, 77.75591658264905 ], [ 16.331871921522591, 77.815852617402584 ], [ 15.3460888031364, 77.839794787805317 ], [ 14.067159778044632, 77.750506139022534 ], [ 13.825363168197029, 77.811809099661374 ], [ 13.739874426073145, 77.906268701597796 ], [ 13.92169130315704, 78.041634618587693 ], [ 14.805603695882922, 78.105128633123243 ], [ 15.767523585457681, 78.30582945771188 ], [ 16.45850783452315, 78.37331489107217 ], [ 16.559663312982959, 78.454436504633662 ], [ 16.515874267775004, 78.579249520590835 ], [ 15.581581817570457, 78.505947749299537 ], [ 15.450828111571855, 78.554083045210405 ], [ 15.325788351193953, 78.70558892219718 ], [ 15.202276292370218, 78.732165258613804 ], [ 14.624578377768078, 78.635616806733822 ], [ 14.366575480894543, 78.427475073529436 ], [ 14.066523564496284, 78.310819101556035 ], [ 12.991299225373048, 78.263828225981484 ], [ 11.787956782872472, 78.728165190124002 ], [ 11.718350065460248, 78.872218242716571 ], [ 11.861466543590582, 79.028110860435874 ], [ 11.765173107786019, 79.208471569400317 ], [ 11.61177625491967, 79.260400616085036 ], [ 11.344228136559465, 79.208027134666835 ], [ 11.061367796427607, 79.23741675646356 ], [ 10.828415469769617, 79.420529849122289 ], [ 10.656134331286639, 79.712600264175009 ], [ 11.464112536846024, 79.818077869535472 ], [ 12.022223764386958, 79.75295946672793 ], [ 12.422673391176984, 79.821434380343931 ], [ 13.523957830293639, 79.853236522877921 ], [ 13.596567052860653, 79.789744438528885 ], [ 13.151531410630124, 79.699721893208803 ], [ 13.073183326155865, 79.639706032539152 ], [ 13.807852078956238, 79.407152618130326 ], [ 14.137008234653251, 79.663685418177309 ], [ 14.373345164945031, 79.747796775119383 ], [ 14.64711442422327, 79.764263877956125 ], [ 15.210727497130376, 79.567326289782443 ], [ 15.770185069051927, 79.157395779041892 ], [ 16.234540008324753, 79.021401729891664 ], [ 16.252218074301364, 79.097671743771457 ], [ 15.947459809065945, 79.414901226038921 ], [ 15.800771387956642, 79.745104790080944 ], [ 16.059683727248952, 79.97405455876833 ], [ 16.459641101779901, 80.027487843171713 ], [ 17.714683126246918, 79.837086467211904 ], [ 17.870214260660209, 79.733523757691771 ] ] ], [ [ [ 20.111275153850364, 79.277404162610907 ], [ 20.069029960121533, 79.210289888095659 ], [ 19.963322580907573, 79.250680212755782 ], [ 20.040235954987537, 79.314173969410973 ], [ 20.111275153850364, 79.277404162610907 ] ] ], [ [ [ 21.22336463402052, 80.674129875825187 ], [ 21.137155830621957, 80.627327421944827 ], [ 21.050649523252506, 80.672884127530708 ], [ 21.158359042380244, 80.720925606196076 ], [ 21.22336463402052, 80.674129875825187 ] ] ], [ [ [ 19.812144006623729, 79.360307823780616 ], [ 19.724424595035423, 79.321215610152663 ], [ 19.620365619167529, 79.369163319854025 ], [ 19.726238856765921, 79.415661789678779 ], [ 19.812144006623729, 79.360307823780616 ] ] ], [ [ [ 20.873341230221467, 80.706726947116252 ], [ 20.779982779481589, 80.6112492621142 ], [ 20.641091771956042, 80.646546181866668 ], [ 20.770192919785181, 80.722171096731074 ], [ 20.873341230221467, 80.706726947116252 ] ] ], [ [ [ 18.520354586349459, 80.259458594235369 ], [ 18.36805118786425, 80.216071713163188 ], [ 18.157792336720206, 80.324082122850996 ], [ 18.367045985632817, 80.38055551278805 ], [ 18.520354586349459, 80.259458594235369 ] ] ], [ [ [ 12.025646955632375, 78.251709998857336 ], [ 11.907507059461157, 78.228485034116531 ], [ 11.52381589300176, 78.386071103832023 ], [ 11.066726641469641, 78.465304669267795 ], [ 10.546875928647708, 78.76337370865302 ], [ 10.465751205204265, 78.892843007872443 ], [ 10.898849182536257, 78.847911741440853 ], [ 11.145015025496896, 78.634201734829333 ], [ 11.812838784124025, 78.435744243729275 ], [ 12.025646955632375, 78.251709998857336 ] ] ] ] } }
]
}
