{
"type": "FeatureCollection",
"name": "PL",
"crs": { "type": "name", "properties": { "name": "urn:ogc:def:crs:OGC:1.3:CRS84" } },
"features": [
{ "type": "Feature", "properties": { "NUTS_ID": "PL213", "name": "Miasto Kraków" }, "geometry": { "type": "Polygon", "coordinates": [ [ [ 19.727523135369736, 50.061958102909323 ], [ 19.93836122012392, 50.137203552757569 ], [ 20.111461564124159, 50.038309550161131 ], [ 19.951729984625082, 49.959112016830439 ], [ 19.727523135369736, 50.061958102909323 ] ] ] } },
{ "type": "Feature", "properties": { "NUTS_ID": "PL214", "name": "Krakowski" }, "geometry": { "type": "Polygon", "coordinates": [ [ [ 20.681539112493141, 50.205875413679045 ], [ 20.522265206402395, 50.118971872992958 ], [ 20.582239430307766, 50.037535702691443 ], [ 20.518081802412336, 49.798243978436957 ], [ 20.198713232018097, 49.814106537948952 ], [ 19.991879528464839, 49.653543131447528 ], [ 19.808090635632219, 49.71876630365859 ], [ 19.757629057712265, 49.830103581676177 ], [ 19.752981253656614, 49.912415883693939 ], [ 19.625770799553827, 49.987944347278201 ], [ 19.549017339619876, 50.148404476621558 ], [ 19.709679054630428, 50.282397507972654 ], [ 19.849799394836268, 50.274461290829898 ], [ 19.844537657611493, 50.434195421319771 ], [ 19.949966502224587, 50.504782489703366 ], [ 20.212387236744288, 50.478791577389813 ], [ 20.422956652709722, 50.201185442149793 ], [ 20.681539112493141, 50.205875413679045 ] ], [ [ 19.727523135369736, 50.061958102909323 ], [ 19.951729984625082, 49.959112016830439 ], [ 20.111461564124159, 50.038309550161131 ], [ 19.93836122012392, 50.137203552757569 ], [ 19.727523135369736, 50.061958102909323 ] ] ] } },
{ "type": "Feature", "properties": { "NUTS_ID": "PL217", "name": "Tarnowski" }, "geometry": { "type": "Polygon", "coordinates": [ [ [ 21.208831663638716, 50.354897412343256 ], [ 21.160457929410633, 50.238988323272807 ], [ 21.168194694290715, 49.968527120973079 ], [ 21.297149682618553, 49.842863902797802 ], [ 21.24177224644751, 49.776104359478168 ], [ 20.929522788427448, 49.738828555902408 ], [ 20.518081802412336, 49.798243978436957 ], [ 20.582239430307766, 50.037535702691443 ], [ 20.522265206402395, 50.118971872992958 ], [ 20.681539112493141, 50.205875413679045 ], [ 20.820688783326727, 50.289214654103624 ], [ 21.208831663638716, 50.354897412343256 ] ] ] } },
{ "type": "Feature", "properties": { "NUTS_ID": "PL218", "name": "Nowosądecki" }, "geometry": { "type": "Polygon", "coordinates": [ [ [ 21.24177224644751, 49.776104359478168 ], [ 21.33355496152976, 49.695301571279501 ], [ 21.397712480363833, 49.433794034909702 ], [ 21.094217461123321, 49.424682864656056 ], [ 20.940032065433329, 49.312750014059034 ], [ 20.614939251411741, 49.417833082530024 ], [ 20.323136345972141, 49.558962495649645 ], [ 20.068447711474874, 49.559294260922307 ], [ 19.991879528464839, 49.653543131447528 ], [ 20.198713232018097, 49.814106537948952 ], [ 20.518081802412336, 49.798243978436957 ], [ 20.929522788427448, 49.738828555902408 ], [ 21.24177224644751, 49.776104359478168 ] ] ] } },
{ "type": "Feature", "properties": { "NUTS_ID": "PL219", "name": "Nowotarski" }, "geometry": { "type": "Polygon", "coordinates": [ [ [ 19.991879528464839, 49.653543131447528 ], [ 20.068447711474874, 49.559294260922307 ], [ 20.323136345972141, 49.558962495649645 ], [ 20.614939251411741, 49.417833082530024 ], [ 20.192865924299294, 49.335768143559278 ], [ 20.078023858805182, 49.198234842450908 ], [ 19.883929510417865, 49.20417706544545 ], [ 19.78359159343908, 49.221402874330593 ], [ 19.78062612418185, 49.389212075775752 ], [ 19.655565067833148, 49.41322037345865 ], [ 19.4673863400889, 49.613766865889431 ], [ 19.414951605684653, 49.775265139156488 ], [ 19.757629057712265, 49.830103581676177 ], [ 19.808090635632219, 49.71876630365859 ], [ 19.991879528464839, 49.653543131447528 ] ] ] } },
{ "type": "Feature", "properties": { "NUTS_ID": "PL21A", "name": "Oświęcimski" }, "geometry": { "type": "Polygon", "coordinates": [ [ [ 19.757629057712265, 49.830103581676177 ], [ 19.414951605684653, 49.775265139156488 ], [ 19.093208475620692, 49.956651889726956 ], [ 19.253810698714918, 50.134192868708823 ], [ 19.354387826631879, 50.170134164951023 ], [ 19.396819668229899, 50.291550430238054 ], [ 19.513998035587701, 50.391549061852615 ], [ 19.844537657611493, 50.434195421319771 ], [ 19.849799394836268, 50.274461290829898 ], [ 19.709679054630428, 50.282397507972654 ], [ 19.549017339619876, 50.148404476621558 ], [ 19.625770799553827, 49.987944347278201 ], [ 19.752981253656614, 49.912415883693939 ], [ 19.757629057712265, 49.830103581676177 ] ] ] } },
{ "type": "Feature", "properties": { "NUTS_ID": "PL224", "name": "Częstochowski" }, "geometry": { "type": "Polygon", "coordinates": [ [ [ 19.747059902620762, 50.865969890466559 ], [ 19.805883951703262, 50.81697070728324 ], [ 19.712949632398853, 50.72915609049484 ], [ 19.71847216445115, 50.649375789440569 ], [ 19.355205114629463, 50.529570808429604 ], [ 19.133613905418187, 50.522545045513631 ], [ 18.901239166738897, 50.756548901335975 ], [ 18.615877645018983, 50.853587544833815 ], [ 18.67295467763029, 51.056902604976678 ], [ 18.933103081569104, 51.086418595254671 ], [ 19.185863906836698, 50.997691813842195 ], [ 19.243013311518464, 51.036797567486595 ], [ 19.342666532764675, 51.024173397907902 ], [ 19.484460435736001, 50.901710083442467 ], [ 19.747059902620762, 50.865969890466559 ] ] ] } },
{ "type": "Feature", "properties": { "NUTS_ID": "PL225", "name": "Bielski" }, "geometry": { "type": "Polygon", "coordinates": [ [ [ 18.62958378451313, 49.899873889265052 ], [ 19.093208475620692, 49.956651889726956 ], [ 19.414951605684653, 49.775265139156488 ], [ 19.4673863400889, 49.613766865889431 ], [ 19.140212898333012, 49.410555867055102 ], [ 19.016913692500939, 49.408947035937395 ], [ 18.952289051348004, 49.497038293956223 ], [ 18.851551020597427, 49.51718893547573 ], [ 18.798398669007383, 49.661298009950023 ], [ 18.612683533496526, 49.754738505044351 ], [ 18.575724146611829, 49.910422957243448 ], [ 18.62958378451313, 49.899873889265052 ] ] ] } },
{ "type": "Feature", "properties": { "NUTS_ID": "PL227", "name": "Rybnicki" }, "geometry": { "type": "Polygon", "coordinates": [ [ [ 18.42586659436996, 50.248965556882169 ], [ 18.542775071370578, 50.177608304079186 ], [ 18.719745736429797, 50.200115482931537 ], [ 18.737977050439579, 50.052607630403074 ], [ 18.62958378451313, 49.899873889265052 ], [ 18.575724146611829, 49.910422957243448 ], [ 18.326967652326157, 49.928493486701655 ], [ 18.03506107939371, 50.065772019856844 ], [ 18.059833714875772, 50.174620101046223 ], [ 18.42586659436996, 50.248965556882169 ] ] ] } },
{ "type": "Feature", "properties": { "NUTS_ID": "PL228", "name": "Bytomski" }, "geometry": { "type": "Polygon", "coordinates": [ [ [ 19.133613905418187, 50.522545045513631 ], [ 18.984842928964753, 50.403723480947718 ], [ 19.041529406377169, 50.348710708972632 ], [ 18.862339929037315, 50.328098996219403 ], [ 18.657712311305616, 50.359487717762036 ], [ 18.607473563095365, 50.550011136135829 ], [ 18.501282929624328, 50.686459788082431 ], [ 18.615877645018983, 50.853587544833815 ], [ 18.901239166738897, 50.756548901335975 ], [ 19.133613905418187, 50.522545045513631 ] ] ] } },
{ "type": "Feature", "properties": { "NUTS_ID": "PL229", "name": "Gliwicki" }, "geometry": { "type": "Polygon", "coordinates": [ [ [ 18.607473563095365, 50.550011136135829 ], [ 18.657712311305616, 50.359487717762036 ], [ 18.862339929037315, 50.328098996219403 ], [ 18.796863809073248, 50.24626490122597 ], [ 18.719745736429797, 50.200115482931537 ], [ 18.542775071370578, 50.177608304079186 ], [ 18.42586659436996, 50.248965556882169 ], [ 18.39404502933899, 50.46522986055254 ], [ 18.469204735329459, 50.542158801355697 ], [ 18.607473563095365, 50.550011136135829 ] ] ] } },
{ "type": "Feature", "properties": { "NUTS_ID": "PL22A", "name": "Katowicki" }, "geometry": { "type": "Polygon", "coordinates": [ [ [ 19.241773689058622, 50.161266560092507 ], [ 19.072019088319792, 50.144838274874722 ], [ 18.796863809073248, 50.24626490122597 ], [ 18.862339929037315, 50.328098996219403 ], [ 19.041529406377169, 50.348710708972632 ], [ 19.241773689058622, 50.161266560092507 ] ] ] } },
{ "type": "Feature", "properties": { "NUTS_ID": "PL22B", "name": "Sosnowiecki" }, "geometry": { "type": "Polygon", "coordinates": [ [ [ 19.949966502224587, 50.504782489703366 ], [ 19.844537657611493, 50.434195421319771 ], [ 19.513998035587701, 50.391549061852615 ], [ 19.396819668229899, 50.291550430238054 ], [ 19.354387826631879, 50.170134164951023 ], [ 19.253810698714918, 50.134192868708823 ], [ 19.241773689058622, 50.161266560092507 ], [ 19.041529406377169, 50.348710708972632 ], [ 18.984842928964753, 50.403723480947718 ], [ 19.133613905418187, 50.522545045513631 ], [ 19.355205114629463, 50.529570808429604 ], [ 19.71847216445115, 50.649375789440569 ], [ 19.712949632398853, 50.72915609049484 ], [ 19.851947398473531, 50.687971346460621 ], [ 19.849542331380935, 50.572400456977405 ], [ 19.949966502224587, 50.504782489703366 ] ] ] } },
{ "type": "Feature", "properties": { "NUTS_ID": "PL22C", "name": "Tyski" }, "geometry": { "type": "Polygon", "coordinates": [ [ [ 19.253810698714918, 50.134192868708823 ], [ 19.093208475620692, 49.956651889726956 ], [ 18.62958378451313, 49.899873889265052 ], [ 18.737977050439579, 50.052607630403074 ], [ 18.719745736429797, 50.200115482931537 ], [ 18.796863809073248, 50.24626490122597 ], [ 19.072019088319792, 50.144838274874722 ], [ 19.241773689058622, 50.161266560092507 ], [ 19.253810698714918, 50.134192868708823 ] ] ] } },
{ "type": "Feature", "properties": { "NUTS_ID": "PL411", "name": "Pilski" }, "geometry": { "type": "Polygon", "coordinates": [ [ [ 16.892247854750558, 53.655868854950079 ], [ 16.989762107035297, 53.531993645489806 ], [ 17.390652781502336, 53.490963946397009 ], [ 17.272357240504284, 53.384433444902903 ], [ 17.438793328731549, 53.267514469382874 ], [ 17.356561316439144, 53.191063724765165 ], [ 17.323081394453705, 53.020387296651357 ], [ 17.504060740886523, 52.911601254694261 ], [ 17.458523217403332, 52.738947995624493 ], [ 17.151438373827716, 52.573971895437921 ], [ 17.083115845388004, 52.654741734525857 ], [ 17.10081390644752, 52.773110345197047 ], [ 16.790745465989875, 52.866908900886294 ], [ 16.72907157086556, 52.744110033731602 ], [ 16.209983076366619, 52.788601953307399 ], [ 16.013770384033567, 52.734728010310683 ], [ 15.946788203227397, 52.754834214849311 ], [ 15.9624973464585, 53.04138102327169 ], [ 16.279224104917247, 53.047665017409741 ], [ 16.627586314457904, 53.249186529962266 ], [ 16.655934242552473, 53.313064424497469 ], [ 16.498757139809285, 53.390131977686401 ], [ 16.486574598708003, 53.457271813252753 ], [ 16.668576193840217, 53.499537432003201 ], [ 16.771202715392981, 53.617192572662923 ], [ 16.892247854750558, 53.655868854950079 ] ] ] } },
{ "type": "Feature", "properties": { "NUTS_ID": "PL414", "name": "Koniński" }, "geometry": { "type": "Polygon", "coordinates": [ [ [ 17.458523217403332, 52.738947995624493 ], [ 18.176210031784144, 52.501265561858219 ], [ 18.377150691039763, 52.537463516293904 ], [ 18.405492084647605, 52.487521744721349 ], [ 18.622275235181654, 52.457008027340294 ], [ 18.755129125421046, 52.348832269702534 ], [ 19.047119841558949, 52.332803967902052 ], [ 19.061681876510487, 52.230567170543793 ], [ 18.827809127432797, 52.064187990534883 ], [ 18.727016710299893, 52.04356239369524 ], [ 18.747718160251697, 51.914410383272511 ], [ 18.688268544453813, 51.839503699579204 ], [ 18.471965429812304, 51.851005635397179 ], [ 18.241009071164218, 52.009661355467813 ], [ 18.028094502827475, 51.988078396388978 ], [ 17.925109278301125, 52.080813570383697 ], [ 17.514385111773574, 52.124136631826048 ], [ 17.449154118395171, 52.173520214930335 ], [ 17.353703876128957, 52.508530833382018 ], [ 17.151438373827716, 52.573971895437921 ], [ 17.458523217403332, 52.738947995624493 ] ] ] } },
{ "type": "Feature", "properties": { "NUTS_ID": "PL415", "name": "Miasto Poznań" }, "geometry": { "type": "Polygon", "coordinates": [ [ [ 16.767601031480691, 52.470456047229987 ], [ 16.966193171246243, 52.493985345043129 ], [ 17.058225345345651, 52.358677083839829 ], [ 16.948616590359418, 52.319837170029281 ], [ 16.79372574673539, 52.379363686737456 ], [ 16.767601031480691, 52.470456047229987 ] ] ] } },
{ "type": "Feature", "properties": { "NUTS_ID": "PL416", "name": "Kaliski" }, "geometry": { "type": "Polygon", "coordinates": [ [ [ 18.471965429812304, 51.851005635397179 ], [ 18.367018448713097, 51.655201784387437 ], [ 18.357031606404924, 51.458071264718022 ], [ 18.098789291207151, 51.34570388805372 ], [ 18.163681430443393, 51.172517113331743 ], [ 17.939456225716924, 51.108864919358005 ], [ 17.795269318782029, 51.194146105293207 ], [ 17.712507762884332, 51.377622358465985 ], [ 17.539334877553404, 51.450609524669325 ], [ 17.538724877622002, 51.586384633664906 ], [ 17.257433084442241, 51.642843151593944 ], [ 17.179406430611373, 51.753338621188611 ], [ 17.311003527494982, 51.777960533758772 ], [ 17.327985051718173, 51.853569019110964 ], [ 17.188679737079539, 51.967436912234703 ], [ 17.449690115075718, 52.032683981581421 ], [ 17.514385111773574, 52.124136631826048 ], [ 17.925109278301125, 52.080813570383697 ], [ 18.028094502827475, 51.988078396388978 ], [ 18.241009071164218, 52.009661355467813 ], [ 18.471965429812304, 51.851005635397179 ] ] ] } },
{ "type": "Feature", "properties": { "NUTS_ID": "PL417", "name": "Leszczyński" }, "geometry": { "type": "Polygon", "coordinates": [ [ [ 16.013770384033567, 52.734728010310683 ], [ 16.26671181095066, 52.639701440478611 ], [ 16.244844384644853, 52.488356369023819 ], [ 16.451106965650965, 52.389980152693717 ], [ 16.615905431594012, 52.202516176934274 ], [ 16.746829272400554, 52.194337602435546 ], [ 17.073503263375006, 51.948875418553492 ], [ 17.188679737079539, 51.967436912234703 ], [ 17.327985051718173, 51.853569019110964 ], [ 17.311003527494982, 51.777960533758772 ], [ 17.179406430611373, 51.753338621188611 ], [ 17.257433084442241, 51.642843151593944 ], [ 17.15370990555552, 51.567616639984017 ], [ 16.828371942538919, 51.572188126299721 ], [ 16.613189286284488, 51.752956414233608 ], [ 16.416190882736018, 51.784865003909651 ], [ 16.339913988605815, 51.873407896059348 ], [ 16.171628635491437, 51.890021536037111 ], [ 15.868654754683654, 52.100812274277665 ], [ 15.880810394823778, 52.290429650108003 ], [ 15.885049979432887, 52.441885125661926 ], [ 15.793317740564566, 52.65978693144951 ], [ 15.946788203227397, 52.754834214849311 ], [ 16.013770384033567, 52.734728010310683 ] ] ] } },
{ "type": "Feature", "properties": { "NUTS_ID": "PL418", "name": "Poznański" }, "geometry": { "type": "Polygon", "coordinates": [ [ [ 17.151438373827716, 52.573971895437921 ], [ 17.353703876128957, 52.508530833382018 ], [ 17.449154118395171, 52.173520214930335 ], [ 17.514385111773574, 52.124136631826048 ], [ 17.449690115075718, 52.032683981581421 ], [ 17.188679737079539, 51.967436912234703 ], [ 17.073503263375006, 51.948875418553492 ], [ 16.746829272400554, 52.194337602435546 ], [ 16.615905431594012, 52.202516176934274 ], [ 16.451106965650965, 52.389980152693717 ], [ 16.244844384644853, 52.488356369023819 ], [ 16.26671181095066, 52.639701440478611 ], [ 16.013770384033567, 52.734728010310683 ], [ 16.209983076366619, 52.788601953307399 ], [ 16.72907157086556, 52.744110033731602 ], [ 16.790745465989875, 52.866908900886294 ], [ 17.10081390644752, 52.773110345197047 ], [ 17.083115845388004, 52.654741734525857 ], [ 17.151438373827716, 52.573971895437921 ] ], [ [ 16.767601031480691, 52.470456047229987 ], [ 16.79372574673539, 52.379363686737456 ], [ 16.948616590359418, 52.319837170029281 ], [ 17.058225345345651, 52.358677083839829 ], [ 16.966193171246243, 52.493985345043129 ], [ 16.767601031480691, 52.470456047229987 ] ] ] } },
{ "type": "Feature", "properties": { "NUTS_ID": "PL424", "name": "Miasto Szczecin" }, "geometry": { "type": "Polygon", "coordinates": [ [ [ 14.417368532540523, 53.435738383031513 ], [ 14.628650721416307, 53.532794552374249 ], [ 14.768359518027045, 53.445708936546218 ], [ 14.621960282718605, 53.350884019038972 ], [ 14.417368532540523, 53.435738383031513 ] ] ] } },
{ "type": "Feature", "properties": { "NUTS_ID": "PL426", "name": "Koszaliński" }, "geometry": { "type": "Polygon", "coordinates": [ [ [ 16.699084836183442, 54.569246890438045 ], [ 16.842308098068326, 54.408581310488067 ], [ 16.844157205617819, 54.272949130725664 ], [ 16.739481164782209, 54.201885928494342 ], [ 16.792764348631611, 53.985550600138787 ], [ 16.653517381503185, 53.906424916493506 ], [ 16.380792948393971, 53.907067963507281 ], [ 16.184841680930361, 53.825953397928387 ], [ 15.686540081307594, 53.961813178190184 ], [ 15.479201486360918, 53.877115015830405 ], [ 15.38803754045616, 54.158960617528031 ], [ 16.140996565479259, 54.292739494547696 ], [ 16.653517380633627, 54.565227987268635 ], [ 16.699084836183442, 54.569246890438045 ] ] ] } },
{ "type": "Feature", "properties": { "NUTS_ID": "PL427", "name": "Szczecinecko-pyrzycki" }, "geometry": { "type": "Polygon", "coordinates": [ [ [ 15.479201486360918, 53.877115015830405 ], [ 15.686540081307594, 53.961813178190184 ], [ 16.184841680930361, 53.825953397928387 ], [ 16.380792948393971, 53.907067963507281 ], [ 16.653517381503185, 53.906424916493506 ], [ 16.792764348631611, 53.985550600138787 ], [ 16.982053707732586, 53.904909637813297 ], [ 16.895524097360656, 53.864179988855177 ], [ 16.858641233300492, 53.745597306540589 ], [ 16.892247854750558, 53.655868854950079 ], [ 16.771202715392981, 53.617192572662923 ], [ 16.668576193840217, 53.499537432003201 ], [ 16.486574598708003, 53.457271813252753 ], [ 16.498757139809285, 53.390131977686401 ], [ 16.655934242552473, 53.313064424497469 ], [ 16.627586314457904, 53.249186529962266 ], [ 16.279224104917247, 53.047665017409741 ], [ 15.9624973464585, 53.04138102327169 ], [ 15.956112915468145, 53.099965969721936 ], [ 15.876046420124073, 53.110121106875283 ], [ 15.739914450916249, 52.999415342212494 ], [ 15.441699535831566, 52.983728810935816 ], [ 15.149418551928441, 52.850443592252837 ], [ 14.918383867904739, 52.870932410358485 ], [ 14.744518252101461, 52.658191637939993 ], [ 14.565062982428881, 52.624496888479115 ], [ 14.436438136474441, 52.679900359746931 ], [ 14.580209855599637, 52.763177653191008 ], [ 14.699300916755011, 52.924414871001645 ], [ 14.724295333532272, 53.253291772538496 ], [ 15.023917329364258, 53.252527633286171 ], [ 15.229491313118068, 53.105169295540648 ], [ 15.328962671568364, 53.159665324603658 ], [ 15.294729953132842, 53.24006535602269 ], [ 15.445080680392655, 53.251958194649639 ], [ 15.584427055554816, 53.366030668355329 ], [ 15.613796612386732, 53.490530509899649 ], [ 15.195971175595965, 53.558535642684724 ], [ 15.26400409350912, 53.745597306409458 ], [ 15.479201486360918, 53.877115015830405 ] ] ] } },
{ "type": "Feature", "properties": { "NUTS_ID": "PL428", "name": "Szczeciński" }, "geometry": { "type": "Polygon", "coordinates": [ [ [ 14.226302139564433, 53.928652851752311 ], [ 15.38803754045616, 54.158960617528031 ], [ 15.479201486360918, 53.877115015830405 ], [ 15.26400409350912, 53.745597306409458 ], [ 15.195971175595965, 53.558535642684724 ], [ 15.613796612386732, 53.490530509899649 ], [ 15.584427055554816, 53.366030668355329 ], [ 15.445080680392655, 53.251958194649639 ], [ 15.294729953132842, 53.24006535602269 ], [ 15.328962671568364, 53.159665324603658 ], [ 15.229491313118068, 53.105169295540648 ], [ 15.023917329364258, 53.252527633286171 ], [ 14.724295333532272, 53.253291772538496 ], [ 14.699300916755011, 52.924414871001645 ], [ 14.580209855599637, 52.763177653191008 ], [ 14.436438136474441, 52.679900359746931 ], [ 14.164825372571222, 52.830544184625964 ], [ 14.156692153419463, 52.895590996540946 ], [ 14.143657760567709, 52.961368386374154 ], [ 14.349160455272711, 53.072938719465398 ], [ 14.412156848565401, 53.329636080550713 ], [ 14.268869316645684, 53.697923228028905 ], [ 14.492944928762682, 53.676243341006753 ], [ 14.554254437476846, 53.745597307040377 ], [ 14.596818395612273, 53.79120528685818 ], [ 14.545116645280713, 53.847520644881328 ], [ 14.222266347521952, 53.863777434333457 ], [ 14.213077566133476, 53.866479428798783 ], [ 14.226302139564433, 53.928652851752311 ] ], [ [ 14.417368532540523, 53.435738383031513 ], [ 14.621960282718605, 53.350884019038972 ], [ 14.768359518027045, 53.445708936546218 ], [ 14.628650721416307, 53.532794552374249 ], [ 14.417368532540523, 53.435738383031513 ] ] ] } },
{ "type": "Feature", "properties": { "NUTS_ID": "PL431", "name": "Gorzowski" }, "geometry": { "type": "Polygon", "coordinates": [ [ [ 15.9624973464585, 53.04138102327169 ], [ 15.946788203227397, 52.754834214849311 ], [ 15.793317740564566, 52.65978693144951 ], [ 15.885049979432887, 52.441885125661926 ], [ 15.880810394823778, 52.290429650108003 ], [ 15.29807450331624, 52.37020926421993 ], [ 15.173100978561351, 52.252766963752137 ], [ 14.920941846735184, 52.204552116496409 ], [ 14.755105497678588, 52.070084554396161 ], [ 14.695539768322707, 52.228865593551433 ], [ 14.600891329490961, 52.272052004073402 ], [ 14.5343618896098, 52.395008036768587 ], [ 14.630564102543461, 52.521818184750508 ], [ 14.565062982428881, 52.624496888479115 ], [ 14.744518252101461, 52.658191637939993 ], [ 14.918383867904739, 52.870932410358485 ], [ 15.149418551928441, 52.850443592252837 ], [ 15.441699535831566, 52.983728810935816 ], [ 15.739914450916249, 52.999415342212494 ], [ 15.876046420124073, 53.110121106875283 ], [ 15.956112915468145, 53.099965969721936 ], [ 15.9624973464585, 53.04138102327169 ] ] ] } },
{ "type": "Feature", "properties": { "NUTS_ID": "PL432", "name": "Zielonogórski" }, "geometry": { "type": "Polygon", "coordinates": [ [ [ 15.880810394823778, 52.290429650108003 ], [ 15.868654754683654, 52.100812274277665 ], [ 16.171628635491437, 51.890021536037111 ], [ 16.339913988605815, 51.873407896059348 ], [ 16.416190882736018, 51.784865003909651 ], [ 16.279495438620611, 51.680945669198742 ], [ 16.017035357591617, 51.772687871502043 ], [ 15.88555039747849, 51.712365312110613 ], [ 15.714032307010548, 51.517397108290432 ], [ 15.60886499233019, 51.476246919222056 ], [ 15.411217023544367, 51.521766220673648 ], [ 15.317623957197, 51.426444081633797 ], [ 15.169779850494947, 51.449826994238322 ], [ 14.974182973158559, 51.363949975517315 ], [ 14.931646348380989, 51.46649525601805 ], [ 14.729861788905849, 51.581777111834718 ], [ 14.737448991542264, 51.664883157027553 ], [ 14.611507325153317, 51.830392654412698 ], [ 14.716716021503121, 52.001188018555361 ], [ 14.755105497678588, 52.070084554396161 ], [ 14.920941846735184, 52.204552116496409 ], [ 15.173100978561351, 52.252766963752137 ], [ 15.29807450331624, 52.37020926421993 ], [ 15.880810394823778, 52.290429650108003 ] ] ] } },
{ "type": "Feature", "properties": { "NUTS_ID": "PL514", "name": "Miasto Wrocław" }, "geometry": { "type": "Polygon", "coordinates": [ [ [ 16.788131879011324, 51.152830668185054 ], [ 16.996386040279894, 51.209573937323341 ], [ 17.165092062982197, 51.079888769017757 ], [ 17.005289033498322, 51.034301332437707 ], [ 16.788131879011324, 51.152830668185054 ] ] ] } },
{ "type": "Feature", "properties": { "NUTS_ID": "PL515", "name": "Jeleniogórski" }, "geometry": { "type": "Polygon", "coordinates": [ [ [ 15.714032307010548, 51.517397108290432 ], [ 15.843381771424722, 51.444645564164539 ], [ 15.773308187678387, 51.250867718393785 ], [ 16.016916255930166, 51.212284397262209 ], [ 16.088057821546677, 51.117027940235502 ], [ 16.441791191840384, 51.126128420115123 ], [ 16.337212396554772, 51.029032360516489 ], [ 16.195488568941105, 50.994611956498836 ], [ 16.166569384357967, 50.881396680941229 ], [ 16.088209630456888, 50.837222105811904 ], [ 16.107318043110627, 50.662073016856034 ], [ 16.029246709912908, 50.634632132401549 ], [ 15.80730848927638, 50.739624854814068 ], [ 15.535267653333049, 50.779375994673657 ], [ 15.376984481263436, 50.801499199158016 ], [ 15.242099654022422, 50.983897191955919 ], [ 15.072179248470244, 51.009693120981773 ], [ 14.975495677098825, 50.878695204442188 ], [ 14.823362000421843, 50.870550369710386 ], [ 14.997301495001389, 51.1375806774927 ], [ 15.022566269135904, 51.275857176333162 ], [ 14.974182973158559, 51.363949975517315 ], [ 15.169779850494947, 51.449826994238322 ], [ 15.317623957197, 51.426444081633797 ], [ 15.411217023544367, 51.521766220673648 ], [ 15.60886499233019, 51.476246919222056 ], [ 15.714032307010548, 51.517397108290432 ] ] ] } },
{ "type": "Feature", "properties": { "NUTS_ID": "PL516", "name": "Legnicko-głogowski" }, "geometry": { "type": "Polygon", "coordinates": [ [ [ 16.828371942538919, 51.572188126299721 ], [ 16.749189454394219, 51.497685761183149 ], [ 16.460962242126843, 51.475659121620978 ], [ 16.441791191840384, 51.126128420115123 ], [ 16.088057821546677, 51.117027940235502 ], [ 16.016916255930166, 51.212284397262209 ], [ 15.773308187678387, 51.250867718393785 ], [ 15.843381771424722, 51.444645564164539 ], [ 15.714032307010548, 51.517397108290432 ], [ 15.88555039747849, 51.712365312110613 ], [ 16.017035357591617, 51.772687871502043 ], [ 16.279495438620611, 51.680945669198742 ], [ 16.416190882736018, 51.784865003909651 ], [ 16.613189286284488, 51.752956414233608 ], [ 16.828371942538919, 51.572188126299721 ] ] ] } },
{ "type": "Feature", "properties": { "NUTS_ID": "PL517", "name": "Wałbrzyski" }, "geometry": { "type": "Polygon", "coordinates": [ [ [ 17.164895792157974, 50.613463089375244 ], [ 17.043336947005734, 50.489694581190605 ], [ 16.907924285709935, 50.449454076315305 ], [ 16.885837294231926, 50.406872596175866 ], [ 16.995412202570485, 50.269822887256041 ], [ 16.863269830285379, 50.19812309777074 ], [ 16.714047805327933, 50.116210218928387 ], [ 16.580289973043303, 50.142788096592604 ], [ 16.50747719978958, 50.259613182103543 ], [ 16.246438114972303, 50.431303299705839 ], [ 16.412450131782364, 50.602671954994982 ], [ 16.107318043110627, 50.662073016856034 ], [ 16.088209630456888, 50.837222105811904 ], [ 16.166569384357967, 50.881396680941229 ], [ 16.195488568941105, 50.994611956498836 ], [ 16.337212396554772, 51.029032360516489 ], [ 16.552580722297087, 50.986392196920796 ], [ 16.697812823536662, 50.858290485394285 ], [ 16.871686079404888, 50.81840034229571 ], [ 16.913844125609906, 50.706846294186505 ], [ 17.092650686589952, 50.680716470645599 ], [ 17.164895792157974, 50.613463089375244 ] ] ] } },
{ "type": "Feature", "properties": { "NUTS_ID": "PL518", "name": "Wrocławski" }, "geometry": { "type": "Polygon", "coordinates": [ [ [ 17.257433084442241, 51.642843151593944 ], [ 17.538724877622002, 51.586384633664906 ], [ 17.539334877553404, 51.450609524669325 ], [ 17.712507762884332, 51.377622358465985 ], [ 17.795269318782029, 51.194146105293207 ], [ 17.590170265143289, 51.162436274220163 ], [ 17.228128186371485, 50.634537581112468 ], [ 17.164895792157974, 50.613463089375244 ], [ 17.092650686589952, 50.680716470645599 ], [ 16.913844125609906, 50.706846294186505 ], [ 16.871686079404888, 50.81840034229571 ], [ 16.697812823536662, 50.858290485394285 ], [ 16.552580722297087, 50.986392196920796 ], [ 16.337212396554772, 51.029032360516489 ], [ 16.441791191840384, 51.126128420115123 ], [ 16.460962242126843, 51.475659121620978 ], [ 16.749189454394219, 51.497685761183149 ], [ 16.828371942538919, 51.572188126299721 ], [ 17.15370990555552, 51.567616639984017 ], [ 17.257433084442241, 51.642843151593944 ] ], [ [ 16.788131879011324, 51.152830668185054 ], [ 17.005289033498322, 51.034301332437707 ], [ 17.165092062982197, 51.079888769017757 ], [ 16.996386040279894, 51.209573937323341 ], [ 16.788131879011324, 51.152830668185054 ] ] ] } },
{ "type": "Feature", "properties": { "NUTS_ID": "PL523", "name": "Nyski" }, "geometry": { "type": "Polygon", "coordinates": [ [ [ 17.939456225716924, 51.108864919358005 ], [ 17.925006879307205, 50.916103259657845 ], [ 17.864664134069347, 50.871864289498099 ], [ 17.642065759536816, 50.883917228339094 ], [ 17.620218593521237, 50.847900045429618 ], [ 17.728009450652259, 50.744590134274524 ], [ 17.524715547375568, 50.710419103809393 ], [ 17.483070674789932, 50.623813723979829 ], [ 17.778779176388273, 50.543064777012631 ], [ 17.78349893717472, 50.435073772326106 ], [ 17.96310552205658, 50.354312586288231 ], [ 17.934761904994783, 50.226078400957626 ], [ 18.059833714875772, 50.174620101046223 ], [ 18.03506107939371, 50.065772019856844 ], [ 17.843510831389281, 49.989814735148698 ], [ 17.654579408604707, 50.13423108931616 ], [ 17.736279737137142, 50.214247274652458 ], [ 17.728317119825761, 50.286230407267134 ], [ 17.429605127301027, 50.254512985168382 ], [ 16.907924285709935, 50.449454076315305 ], [ 17.043336947005734, 50.489694581190605 ], [ 17.164895792157974, 50.613463089375244 ], [ 17.228128186371485, 50.634537581112468 ], [ 17.590170265143289, 51.162436274220163 ], [ 17.795269318782029, 51.194146105293207 ], [ 17.939456225716924, 51.108864919358005 ] ] ] } },
{ "type": "Feature", "properties": { "NUTS_ID": "PL524", "name": "Opolski" }, "geometry": { "type": "Polygon", "coordinates": [ [ [ 18.67295467763029, 51.056902604976678 ], [ 18.615877645018983, 50.853587544833815 ], [ 18.501282929624328, 50.686459788082431 ], [ 18.607473563095365, 50.550011136135829 ], [ 18.469204735329459, 50.542158801355697 ], [ 18.39404502933899, 50.46522986055254 ], [ 18.42586659436996, 50.248965556882169 ], [ 18.059833714875772, 50.174620101046223 ], [ 17.934761904994783, 50.226078400957626 ], [ 17.96310552205658, 50.354312586288231 ], [ 17.78349893717472, 50.435073772326106 ], [ 17.778779176388273, 50.543064777012631 ], [ 17.483070674789932, 50.623813723979829 ], [ 17.524715547375568, 50.710419103809393 ], [ 17.728009450652259, 50.744590134274524 ], [ 17.620218593521237, 50.847900045429618 ], [ 17.642065759536816, 50.883917228339094 ], [ 17.864664134069347, 50.871864289498099 ], [ 17.925006879307205, 50.916103259657845 ], [ 17.939456225716924, 51.108864919358005 ], [ 18.163681430443393, 51.172517113331743 ], [ 18.67295467763029, 51.056902604976678 ] ] ] } },
{ "type": "Feature", "properties": { "NUTS_ID": "PL613", "name": "Bydgosko-toruński" }, "geometry": { "type": "Polygon", "coordinates": [ [ [ 19.094164618615554, 52.968963615474813 ], [ 18.988548112609294, 52.845408703430884 ], [ 18.741562411211788, 52.922548615327784 ], [ 18.564748446481833, 52.878982131321621 ], [ 18.316013436397565, 52.972384094805371 ], [ 18.024279738563848, 52.966010366910524 ], [ 17.713642561031993, 53.192929873810215 ], [ 17.702421374328146, 53.285882376563272 ], [ 17.736885970313189, 53.37505462228151 ], [ 17.899084430654259, 53.430933105080854 ], [ 18.2796684421244, 53.253077410009872 ], [ 18.376578116675095, 53.182541496253108 ], [ 18.736994025344185, 53.245994260342137 ], [ 18.752879986048864, 53.151210473565747 ], [ 18.868459625184872, 53.052818102528263 ], [ 19.094164618615554, 52.968963615474813 ] ] ] } },
{ "type": "Feature", "properties": { "NUTS_ID": "PL616", "name": "Grudziądzki" }, "geometry": { "type": "Polygon", "coordinates": [ [ [ 19.761595613781168, 53.151796424871186 ], [ 19.653334756424982, 53.10167886626099 ], [ 19.684806173410813, 52.963038915223123 ], [ 19.444663806000641, 52.939042437726528 ], [ 19.094164618615554, 52.968963615474813 ], [ 18.868459625184872, 53.052818102528263 ], [ 18.752879986048864, 53.151210473565747 ], [ 18.736994025344185, 53.245994260342137 ], [ 18.376578116675095, 53.182541496253108 ], [ 18.2796684421244, 53.253077410009872 ], [ 18.464540880773729, 53.398297861631576 ], [ 18.70989466853668, 53.468480181973312 ], [ 18.76157735568987, 53.604882135285557 ], [ 19.129276267078168, 53.588260541413717 ], [ 19.283719034625445, 53.407290374258167 ], [ 19.684051771227523, 53.31885996880753 ], [ 19.761595613781168, 53.151796424871186 ] ] ] } },
{ "type": "Feature", "properties": { "NUTS_ID": "PL617", "name": "Inowrocławski" }, "geometry": { "type": "Polygon", "coordinates": [ [ [ 17.438793328731549, 53.267514469382874 ], [ 17.702421374328146, 53.285882376563272 ], [ 17.713642561031993, 53.192929873810215 ], [ 18.024279738563848, 52.966010366910524 ], [ 18.316013436397565, 52.972384094805371 ], [ 18.564748446481833, 52.878982131321621 ], [ 18.601005312619872, 52.7717595413976 ], [ 18.502505372702611, 52.729296588367184 ], [ 18.45443242120152, 52.580451309567309 ], [ 18.377150691039763, 52.537463516293904 ], [ 18.176210031784144, 52.501265561858219 ], [ 17.458523217403332, 52.738947995624493 ], [ 17.504060740886523, 52.911601254694261 ], [ 17.323081394453705, 53.020387296651357 ], [ 17.356561316439144, 53.191063724765165 ], [ 17.438793328731549, 53.267514469382874 ] ] ] } },
{ "type": "Feature", "properties": { "NUTS_ID": "PL618", "name": "Świecki" }, "geometry": { "type": "Polygon", "coordinates": [ [ [ 18.2796684421244, 53.253077410009872 ], [ 17.899084430654259, 53.430933105080854 ], [ 17.736885970313189, 53.37505462228151 ], [ 17.702421374328146, 53.285882376563272 ], [ 17.438793328731549, 53.267514469382874 ], [ 17.272357240504284, 53.384433444902903 ], [ 17.390652781502336, 53.490963946397009 ], [ 17.471189485807646, 53.585286175071026 ], [ 17.679512723205583, 53.606700624529225 ], [ 17.864568903585653, 53.730676807957529 ], [ 18.072036638350315, 53.78107508383237 ], [ 18.33768178682072, 53.696960093996573 ], [ 18.681457794542016, 53.681284482688852 ], [ 18.76157735568987, 53.604882135285557 ], [ 18.70989466853668, 53.468480181973312 ], [ 18.464540880773729, 53.398297861631576 ], [ 18.2796684421244, 53.253077410009872 ] ] ] } },
{ "type": "Feature", "properties": { "NUTS_ID": "PL619", "name": "Włocławski" }, "geometry": { "type": "Polygon", "coordinates": [ [ [ 19.444663806000641, 52.939042437726528 ], [ 19.497987174133652, 52.753983767682612 ], [ 19.289184554838098, 52.39271248357641 ], [ 19.047119841558949, 52.332803967902052 ], [ 18.755129125421046, 52.348832269702534 ], [ 18.622275235181654, 52.457008027340294 ], [ 18.405492084647605, 52.487521744721349 ], [ 18.377150691039763, 52.537463516293904 ], [ 18.45443242120152, 52.580451309567309 ], [ 18.502505372702611, 52.729296588367184 ], [ 18.601005312619872, 52.7717595413976 ], [ 18.564748446481833, 52.878982131321621 ], [ 18.741562411211788, 52.922548615327784 ], [ 18.988548112609294, 52.845408703430884 ], [ 19.094164618615554, 52.968963615474813 ], [ 19.444663806000641, 52.939042437726528 ] ] ] } },
{ "type": "Feature", "properties": { "NUTS_ID": "PL621", "name": "Elbląski" }, "geometry": { "type": "Polygon", "coordinates": [ [ [ 19.803880327582956, 54.44226411789478 ], [ 19.998002106015566, 54.425732789670697 ], [ 20.109881781715593, 54.418586981971224 ], [ 20.313968419795685, 54.402112164882375 ], [ 20.294614607799506, 54.20836861469261 ], [ 20.020314353610381, 54.136765020946875 ], [ 20.139896032455063, 54.001608827338877 ], [ 20.134241577995933, 53.647142663917634 ], [ 20.21674807333244, 53.321263558998147 ], [ 20.411137156308072, 53.214165057643328 ], [ 20.290749638680946, 53.149460297611668 ], [ 19.902410615488577, 53.193985439019507 ], [ 19.761595613781168, 53.151796424871186 ], [ 19.684051771227523, 53.31885996880753 ], [ 19.283719034625445, 53.407290374258167 ], [ 19.129276267078168, 53.588260541413717 ], [ 19.295192342345175, 53.745597306418766 ], [ 19.337004133049877, 53.800932650537142 ], [ 19.475270816894454, 53.814893617809503 ], [ 19.542914689130072, 53.919065047632067 ], [ 19.393357509448109, 53.949301772850326 ], [ 19.21768868219236, 54.116121398041848 ], [ 19.299176012482551, 54.193779204116026 ], [ 19.256953176573528, 54.278460452863854 ], [ 19.413555261669366, 54.277472024800076 ], [ 19.803880327582956, 54.44226411789478 ] ] ] } },
{ "type": "Feature", "properties": { "NUTS_ID": "PL622", "name": "Olsztyński" }, "geometry": { "type": "Polygon", "coordinates": [ [ [ 21.559321860377061, 54.322504110546511 ], [ 21.548691115702184, 54.056007662030886 ], [ 21.479380702242402, 53.928119896132472 ], [ 21.694119609675951, 53.817283192524982 ], [ 21.672358612777355, 53.754837726735019 ], [ 21.512536967853759, 53.727657207822453 ], [ 21.459479829654558, 53.640643021633693 ], [ 21.551689914488367, 53.478127857852819 ], [ 20.675953871530119, 53.26952948584966 ], [ 20.411137156308072, 53.214165057643328 ], [ 20.21674807333244, 53.321263558998147 ], [ 20.134241577995933, 53.647142663917634 ], [ 20.139896032455063, 54.001608827338877 ], [ 20.020314353610381, 54.136765020946875 ], [ 20.294614607799506, 54.20836861469261 ], [ 20.313968419795685, 54.402112164882375 ], [ 21.559321860377061, 54.322504110546511 ] ] ] } },
{ "type": "Feature", "properties": { "NUTS_ID": "PL623", "name": "Ełcki" }, "geometry": { "type": "Polygon", "coordinates": [ [ [ 22.792011657932466, 54.363377298835339 ], [ 22.544162654964627, 54.203523759748272 ], [ 22.744277244164408, 53.926367258899646 ], [ 22.707420045327186, 53.803212687681373 ], [ 22.135727870555183, 53.544540089190484 ], [ 21.859622298279444, 53.470514215499946 ], [ 21.612952755460078, 53.480833471540308 ], [ 21.551689914488367, 53.478127857852819 ], [ 21.459479829654558, 53.640643021633693 ], [ 21.512536967853759, 53.727657207822453 ], [ 21.672358612777355, 53.754837726735019 ], [ 21.694119609675951, 53.817283192524982 ], [ 21.479380702242402, 53.928119896132472 ], [ 21.548691115702184, 54.056007662030886 ], [ 21.559321860377061, 54.322504110546511 ], [ 22.430308629481601, 54.347502436761062 ], [ 22.792011657932466, 54.363377298835339 ] ] ] } },
{ "type": "Feature", "properties": { "NUTS_ID": "PL633", "name": "Trójmiejski" }, "geometry": { "type": "Polygon", "coordinates": [ [ [ 18.950029652203053, 54.35831041146659 ], [ 18.617097300560914, 54.299446806118574 ], [ 18.484861799482257, 54.335421256134182 ], [ 18.382040775713079, 54.502589199215173 ], [ 18.541726747519117, 54.584479945115035 ], [ 18.608426490560433, 54.435138778666357 ], [ 18.950029652203053, 54.35831041146659 ] ] ] } },
{ "type": "Feature", "properties": { "NUTS_ID": "PL634", "name": "Gdański" }, "geometry": { "type": "Polygon", "coordinates": [ [ [ 19.256953176573528, 54.278460452863854 ], [ 19.299176012482551, 54.193779204116026 ], [ 19.21768868219236, 54.116121398041848 ], [ 18.987173663255462, 54.17411763366507 ], [ 18.57083773356344, 54.110781043081694 ], [ 18.327238629208338, 54.141085534676975 ], [ 18.12241333469672, 54.198687650990749 ], [ 17.800193800514631, 54.178172362429464 ], [ 17.712847718654572, 54.289434017100753 ], [ 17.867776126058658, 54.46904893489404 ], [ 17.772426521727716, 54.70277130173428 ], [ 17.666607013256041, 54.783231550864038 ], [ 18.332246569360805, 54.826013847355185 ], [ 18.541726747519117, 54.584479945115035 ], [ 18.382040775713079, 54.502589199215173 ], [ 18.484861799482257, 54.335421256134182 ], [ 18.617097300560914, 54.299446806118574 ], [ 18.950029652203053, 54.35831041146659 ], [ 19.184331799533037, 54.34691652815966 ], [ 19.256953176573528, 54.278460452863854 ] ] ] } },
{ "type": "Feature", "properties": { "NUTS_ID": "PL636", "name": "Słupski" }, "geometry": { "type": "Polygon", "coordinates": [ [ [ 17.666607013256041, 54.783231550864038 ], [ 17.772426521727716, 54.70277130173428 ], [ 17.867776126058658, 54.46904893489404 ], [ 17.712847718654572, 54.289434017100753 ], [ 17.800193800514631, 54.178172362429464 ], [ 17.468887166145375, 53.930342937422601 ], [ 17.290659087326937, 53.895327307741447 ], [ 17.134181179925228, 54.005387662003308 ], [ 16.982053707732586, 53.904909637813297 ], [ 16.792764348631611, 53.985550600138787 ], [ 16.739481164782209, 54.201885928494342 ], [ 16.844157205617819, 54.272949130725664 ], [ 16.842308098068326, 54.408581310488067 ], [ 16.699084836183442, 54.569246890438045 ], [ 17.245291514406858, 54.727675591685177 ], [ 17.666607013256041, 54.783231550864038 ] ] ] } },
{ "type": "Feature", "properties": { "NUTS_ID": "PL637", "name": "Chojnicki" }, "geometry": { "type": "Polygon", "coordinates": [ [ [ 18.327238629208338, 54.141085534676975 ], [ 18.283944059355445, 53.985032060339165 ], [ 18.118225851714261, 53.916501247819973 ], [ 18.072036638350315, 53.78107508383237 ], [ 17.864568903585653, 53.730676807957529 ], [ 17.679512723205583, 53.606700624529225 ], [ 17.471189485807646, 53.585286175071026 ], [ 17.390652781502336, 53.490963946397009 ], [ 16.989762107035297, 53.531993645489806 ], [ 16.892247854750558, 53.655868854950079 ], [ 16.858641233300492, 53.745597306540589 ], [ 16.895524097360656, 53.864179988855177 ], [ 16.982053707732586, 53.904909637813297 ], [ 17.134181179925228, 54.005387662003308 ], [ 17.290659087326937, 53.895327307741447 ], [ 17.468887166145375, 53.930342937422601 ], [ 17.800193800514631, 54.178172362429464 ], [ 18.12241333469672, 54.198687650990749 ], [ 18.327238629208338, 54.141085534676975 ] ] ] } },
{ "type": "Feature", "properties": { "NUTS_ID": "PL638", "name": "Starogardzki" }, "geometry": { "type": "Polygon", "coordinates": [ [ [ 19.129276267078168, 53.588260541413717 ], [ 18.76157735568987, 53.604882135285557 ], [ 18.681457794542016, 53.681284482688852 ], [ 18.33768178682072, 53.696960093996573 ], [ 18.072036638350315, 53.78107508383237 ], [ 18.118225851714261, 53.916501247819973 ], [ 18.283944059355445, 53.985032060339165 ], [ 18.327238629208338, 54.141085534676975 ], [ 18.57083773356344, 54.110781043081694 ], [ 18.987173663255462, 54.17411763366507 ], [ 19.21768868219236, 54.116121398041848 ], [ 19.393357509448109, 53.949301772850326 ], [ 19.542914689130072, 53.919065047632067 ], [ 19.475270816894454, 53.814893617809503 ], [ 19.337004133049877, 53.800932650537142 ], [ 19.295192342345175, 53.745597306418766 ], [ 19.129276267078168, 53.588260541413717 ] ] ] } },
{ "type": "Feature", "properties": { "NUTS_ID": "PL711", "name": "Miasto Łódź" }, "geometry": { "type": "Polygon", "coordinates": [ [ [ 19.289745132485109, 51.814502071361005 ], [ 19.539861453191456, 51.864809463931465 ], [ 19.654088122174556, 51.740115674450855 ], [ 19.387697256916496, 51.680519882399324 ], [ 19.289745132485109, 51.814502071361005 ] ] ] } },
{ "type": "Feature", "properties": { "NUTS_ID": "PL712", "name": "Łódzki" }, "geometry": { "type": "Polygon", "coordinates": [ [ [ 19.273313842504546, 51.555078958822939 ], [ 19.184207983290545, 51.727708755088663 ], [ 19.030450687045651, 51.805626989040789 ], [ 19.164540462488219, 51.877898523259454 ], [ 19.127329777208239, 52.000666673650585 ], [ 19.718461029338656, 52.016625006204116 ], [ 20.016240227350369, 51.773468130257839 ], [ 19.914449508390884, 51.681191757483205 ], [ 19.651251299192648, 51.628159982871601 ], [ 19.572057723183672, 51.516148356000336 ], [ 19.273313842504546, 51.555078958822939 ] ], [ [ 19.289745132485109, 51.814502071361005 ], [ 19.387697256916496, 51.680519882399324 ], [ 19.654088122174556, 51.740115674450855 ], [ 19.539861453191456, 51.864809463931465 ], [ 19.289745132485109, 51.814502071361005 ] ] ] } },
{ "type": "Feature", "properties": { "NUTS_ID": "PL713", "name": "Piotrkowski" }, "geometry": { "type": "Polygon", "coordinates": [ [ [ 20.424890742362486, 51.611619628971162 ], [ 20.51286709830104, 51.479824359032371 ], [ 20.432814862923976, 51.339405016898098 ], [ 20.346976944003675, 51.250606905417293 ], [ 20.010081156513376, 51.173762832570532 ], [ 20.039470692011083, 50.990206411560798 ], [ 19.884198941189247, 51.026899126170868 ], [ 19.747059902620762, 50.865969890466559 ], [ 19.484460435736001, 50.901710083442467 ], [ 19.342666532764675, 51.024173397907902 ], [ 19.243013311518464, 51.036797567486595 ], [ 19.222030112470279, 51.201871568401756 ], [ 18.962748659795849, 51.321997445204154 ], [ 19.273313842504546, 51.555078958822939 ], [ 19.572057723183672, 51.516148356000336 ], [ 19.651251299192648, 51.628159982871601 ], [ 19.914449508390884, 51.681191757483205 ], [ 20.016240227350369, 51.773468130257839 ], [ 20.385016930735993, 51.641663095754076 ], [ 20.424890742362486, 51.611619628971162 ] ] ] } },
{ "type": "Feature", "properties": { "NUTS_ID": "PL714", "name": "Sieradzki" }, "geometry": { "type": "Polygon", "coordinates": [ [ [ 18.827809127432797, 52.064187990534883 ], [ 19.127329777208239, 52.000666673650585 ], [ 19.164540462488219, 51.877898523259454 ], [ 19.030450687045651, 51.805626989040789 ], [ 19.184207983290545, 51.727708755088663 ], [ 19.273313842504546, 51.555078958822939 ], [ 18.962748659795849, 51.321997445204154 ], [ 19.222030112470279, 51.201871568401756 ], [ 19.243013311518464, 51.036797567486595 ], [ 19.185863906836698, 50.997691813842195 ], [ 18.933103081569104, 51.086418595254671 ], [ 18.67295467763029, 51.056902604976678 ], [ 18.163681430443393, 51.172517113331743 ], [ 18.098789291207151, 51.34570388805372 ], [ 18.357031606404924, 51.458071264718022 ], [ 18.367018448713097, 51.655201784387437 ], [ 18.471965429812304, 51.851005635397179 ], [ 18.688268544453813, 51.839503699579204 ], [ 18.747718160251697, 51.914410383272511 ], [ 18.727016710299893, 52.04356239369524 ], [ 18.827809127432797, 52.064187990534883 ] ] ] } },
{ "type": "Feature", "properties": { "NUTS_ID": "PL715", "name": "Skierniewicki" }, "geometry": { "type": "Polygon", "coordinates": [ [ [ 20.385016930735993, 51.641663095754076 ], [ 20.016240227350369, 51.773468130257839 ], [ 19.718461029338656, 52.016625006204116 ], [ 19.127329777208239, 52.000666673650585 ], [ 18.827809127432797, 52.064187990534883 ], [ 19.061681876510487, 52.230567170543793 ], [ 19.047119841558949, 52.332803967902052 ], [ 19.289184554838098, 52.39271248357641 ], [ 19.65350606084748, 52.264913287200812 ], [ 19.936101041439287, 52.299733508668687 ], [ 20.239636248600281, 52.109179996776739 ], [ 20.227565218236784, 52.020771402109276 ], [ 20.313545604660796, 51.943676892423923 ], [ 20.577698145404526, 51.857971521431729 ], [ 20.631189442472319, 51.687436388593227 ], [ 20.385016930735993, 51.641663095754076 ] ] ] } },
{ "type": "Feature", "properties": { "NUTS_ID": "PL721", "name": "Kielecki" }, "geometry": { "type": "Polygon", "coordinates": [ [ [ 21.630228993646671, 51.063409882892657 ], [ 21.646043992567009, 51.002295368863216 ], [ 21.547492822685811, 50.849649341494057 ], [ 21.37938342912646, 50.87560870437369 ], [ 21.16456696942036, 50.816725390042819 ], [ 21.140156563425418, 50.656582759689826 ], [ 20.900040174372407, 50.657691846055151 ], [ 20.727662579414684, 50.556282152075937 ], [ 20.039470692011083, 50.990206411560798 ], [ 20.010081156513376, 51.173762832570532 ], [ 20.346976944003675, 51.250606905417293 ], [ 20.432814862923976, 51.339405016898098 ], [ 20.770555028684072, 51.161064233845202 ], [ 20.9597011683021, 51.182353854965882 ], [ 21.441054120609529, 51.026242965317536 ], [ 21.630228993646671, 51.063409882892657 ] ] ] } },
{ "type": "Feature", "properties": { "NUTS_ID": "PL722", "name": "Sandomiersko-jędrzejowski" }, "geometry": { "type": "Polygon", "coordinates": [ [ [ 21.802997768077383, 51.072078888227196 ], [ 21.864303560505945, 50.802706542876514 ], [ 21.601564736384876, 50.531701515325487 ], [ 21.208831663638716, 50.354897412343256 ], [ 20.820688783326727, 50.289214654103624 ], [ 20.681539112493141, 50.205875413679045 ], [ 20.422956652709722, 50.201185442149793 ], [ 20.212387236744288, 50.478791577389813 ], [ 19.949966502224587, 50.504782489703366 ], [ 19.849542331380935, 50.572400456977405 ], [ 19.851947398473531, 50.687971346460621 ], [ 19.712949632398853, 50.72915609049484 ], [ 19.805883951703262, 50.81697070728324 ], [ 19.747059902620762, 50.865969890466559 ], [ 19.884198941189247, 51.026899126170868 ], [ 20.039470692011083, 50.990206411560798 ], [ 20.727662579414684, 50.556282152075937 ], [ 20.900040174372407, 50.657691846055151 ], [ 21.140156563425418, 50.656582759689826 ], [ 21.16456696942036, 50.816725390042819 ], [ 21.37938342912646, 50.87560870437369 ], [ 21.547492822685811, 50.849649341494057 ], [ 21.646043992567009, 51.002295368863216 ], [ 21.630228993646671, 51.063409882892657 ], [ 21.802997768077383, 51.072078888227196 ] ] ] } },
{ "type": "Feature", "properties": { "NUTS_ID": "PL811", "name": "Bialski" }, "geometry": { "type": "Polygon", "coordinates": [ [ [ 23.178411193654583, 52.283179675027988 ], [ 23.481877374941408, 52.174854176574939 ], [ 23.661723386417744, 52.043065983526695 ], [ 23.619250818657886, 51.798097751171106 ], [ 23.544584879397259, 51.715616176961639 ], [ 23.617442778508703, 51.509536857605781 ], [ 23.709220921396845, 51.277648603845684 ], [ 23.598555789314979, 51.280197267307599 ], [ 23.460220570642324, 51.365953116954188 ], [ 23.269203559027797, 51.329803048231781 ], [ 23.007057699585804, 51.428294385627879 ], [ 22.967128571995307, 51.530030935952858 ], [ 22.808630128592853, 51.529971689241293 ], [ 22.430308629008803, 51.708681297904448 ], [ 22.384499132592328, 51.83386967399435 ], [ 22.550445311547531, 51.897544871596786 ], [ 22.622901384684234, 52.018744640559369 ], [ 22.68760533570758, 52.102135062283253 ], [ 22.881029927611468, 52.085206437276966 ], [ 23.128408849754603, 52.287841486576788 ], [ 23.178411193654583, 52.283179675027988 ] ] ] } },
{ "type": "Feature", "properties": { "NUTS_ID": "PL812", "name": "Chełmsko-zamojski" }, "geometry": { "type": "Polygon", "coordinates": [ [ [ 23.709220921396845, 51.277648603845684 ], [ 23.936621636462206, 51.037593318221774 ], [ 24.092431849665186, 50.873112459037564 ], [ 23.981246194974261, 50.797912103982846 ], [ 24.098188497684099, 50.637390112151955 ], [ 23.999605786505811, 50.430503024354962 ], [ 23.7265414213566, 50.379673857048054 ], [ 23.66362206032494, 50.334630626228098 ], [ 23.547642005631673, 50.251601870754016 ], [ 23.353864137777858, 50.386554914784412 ], [ 23.169434922203461, 50.378349521175686 ], [ 23.005703068892469, 50.293975512850601 ], [ 22.638222213582804, 50.303077349013229 ], [ 22.449272137132439, 50.403200987331289 ], [ 22.541693135801268, 50.485835846883447 ], [ 22.519738001670085, 50.583233544313174 ], [ 22.645893538071945, 50.656452112682871 ], [ 22.651416212842786, 50.769467593151809 ], [ 22.578085610103326, 50.838380414043506 ], [ 22.889905309575951, 50.981399215792365 ], [ 22.916513433600716, 51.096246538037988 ], [ 23.025473788198589, 51.107818302901904 ], [ 23.069062514841637, 51.21988023920872 ], [ 23.269203559027797, 51.329803048231781 ], [ 23.460220570642324, 51.365953116954188 ], [ 23.598555789314979, 51.280197267307599 ], [ 23.709220921396845, 51.277648603845684 ] ] ] } },
{ "type": "Feature", "properties": { "NUTS_ID": "PL814", "name": "Lubelski" }, "geometry": { "type": "Polygon", "coordinates": [ [ [ 23.269203559027797, 51.329803048231781 ], [ 23.069062514841637, 51.21988023920872 ], [ 23.025473788198589, 51.107818302901904 ], [ 22.916513433600716, 51.096246538037988 ], [ 22.889905309575951, 50.981399215792365 ], [ 22.578085610103326, 50.838380414043506 ], [ 22.430308628500246, 50.990297606956332 ], [ 22.242375888315141, 51.049733936223895 ], [ 22.163895826119411, 51.200419455556272 ], [ 22.288445031766919, 51.377897196952922 ], [ 22.211016198962188, 51.483690401045578 ], [ 22.21124541463125, 51.614562073532397 ], [ 22.430308629008803, 51.708681297904448 ], [ 22.808630128592853, 51.529971689241293 ], [ 22.967128571995307, 51.530030935952858 ], [ 23.007057699585804, 51.428294385627879 ], [ 23.269203559027797, 51.329803048231781 ] ] ] } },
{ "type": "Feature", "properties": { "NUTS_ID": "PL815", "name": "Puławski" }, "geometry": { "type": "Polygon", "coordinates": [ [ [ 22.430308629008803, 51.708681297904448 ], [ 22.21124541463125, 51.614562073532397 ], [ 22.211016198962188, 51.483690401045578 ], [ 22.288445031766919, 51.377897196952922 ], [ 22.163895826119411, 51.200419455556272 ], [ 22.242375888315141, 51.049733936223895 ], [ 22.430308628500246, 50.990297606956332 ], [ 22.578085610103326, 50.838380414043506 ], [ 22.651416212842786, 50.769467593151809 ], [ 22.645893538071945, 50.656452112682871 ], [ 22.519738001670085, 50.583233544313174 ], [ 22.430308628914801, 50.58316665914095 ], [ 22.215671139990842, 50.645849534769475 ], [ 22.142122013655413, 50.797098109477872 ], [ 21.864303560505945, 50.802706542876514 ], [ 21.802997768077383, 51.072078888227196 ], [ 21.852436635594469, 51.498547171633376 ], [ 21.615542354248838, 51.617561963024954 ], [ 21.875198904295662, 51.697547409426953 ], [ 21.93215923733985, 51.80223898633843 ], [ 21.920997986402359, 51.982008920511291 ], [ 22.430308628245069, 52.017044493256307 ], [ 22.500384418801389, 52.054280851668906 ], [ 22.622901384684234, 52.018744640559369 ], [ 22.550445311547531, 51.897544871596786 ], [ 22.384499132592328, 51.83386967399435 ], [ 22.430308629008803, 51.708681297904448 ] ] ] } },
{ "type": "Feature", "properties": { "NUTS_ID": "PL821", "name": "Krośnieński" }, "geometry": { "type": "Polygon", "coordinates": [ [ [ 22.686149499637288, 49.573165595725804 ], [ 22.742585260465756, 49.22197775385839 ], [ 22.867805413998749, 49.002845563488648 ], [ 22.566840213020271, 49.088377401384143 ], [ 22.092102644528733, 49.215049803466265 ], [ 21.871380868168711, 49.370304813534396 ], [ 21.397712480363833, 49.433794034909702 ], [ 21.33355496152976, 49.695301571279501 ], [ 21.24177224644751, 49.776104359478168 ], [ 21.297149682618553, 49.842863902797802 ], [ 21.477367708540992, 49.840546145288002 ], [ 21.838649053253466, 49.791060502374748 ], [ 22.065574117393993, 49.83330708781024 ], [ 22.294474458759925, 49.74458003588952 ], [ 22.430308629691979, 49.592522925801838 ], [ 22.567455445756046, 49.652341381846618 ], [ 22.686149499637288, 49.573165595725804 ] ] ] } },
{ "type": "Feature", "properties": { "NUTS_ID": "PL822", "name": "Przemyski" }, "geometry": { "type": "Polygon", "coordinates": [ [ [ 23.547642005631673, 50.251601870754016 ], [ 23.461269871448867, 50.196718995296337 ], [ 23.245784671491293, 50.059794658298408 ], [ 22.849200512571077, 49.71494610863099 ], [ 22.686149499637288, 49.573165595725804 ], [ 22.567455445756046, 49.652341381846618 ], [ 22.430308629691979, 49.592522925801838 ], [ 22.294474458759925, 49.74458003588952 ], [ 22.274496177443215, 49.928258141170502 ], [ 22.447906004994614, 50.123075457896569 ], [ 22.638222213582804, 50.303077349013229 ], [ 23.005703068892469, 50.293975512850601 ], [ 23.169434922203461, 50.378349521175686 ], [ 23.353864137777858, 50.386554914784412 ], [ 23.547642005631673, 50.251601870754016 ] ] ] } },
{ "type": "Feature", "properties": { "NUTS_ID": "PL823", "name": "Rzeszowski" }, "geometry": { "type": "Polygon", "coordinates": [ [ [ 22.294474458759925, 49.74458003588952 ], [ 22.065574117393993, 49.83330708781024 ], [ 21.838649053253466, 49.791060502374748 ], [ 21.477367708540992, 49.840546145288002 ], [ 21.591042242773671, 50.327783562745566 ], [ 21.699051501054953, 50.426027946765373 ], [ 22.167404403092043, 50.340609536682322 ], [ 22.447906004994614, 50.123075457896569 ], [ 22.274496177443215, 49.928258141170502 ], [ 22.294474458759925, 49.74458003588952 ] ] ] } },
{ "type": "Feature", "properties": { "NUTS_ID": "PL824", "name": "Tarnobrzeski" }, "geometry": { "type": "Polygon", "coordinates": [ [ [ 22.638222213582804, 50.303077349013229 ], [ 22.447906004994614, 50.123075457896569 ], [ 22.167404403092043, 50.340609536682322 ], [ 21.699051501054953, 50.426027946765373 ], [ 21.591042242773671, 50.327783562745566 ], [ 21.477367708540992, 49.840546145288002 ], [ 21.297149682618553, 49.842863902797802 ], [ 21.168194694290715, 49.968527120973079 ], [ 21.160457929410633, 50.238988323272807 ], [ 21.208831663638716, 50.354897412343256 ], [ 21.601564736384876, 50.531701515325487 ], [ 21.864303560505945, 50.802706542876514 ], [ 22.142122013655413, 50.797098109477872 ], [ 22.215671139990842, 50.645849534769475 ], [ 22.430308628914801, 50.58316665914095 ], [ 22.519738001670085, 50.583233544313174 ], [ 22.541693135801268, 50.485835846883447 ], [ 22.449272137132439, 50.403200987331289 ], [ 22.638222213582804, 50.303077349013229 ] ] ] } },
{ "type": "Feature", "properties": { "NUTS_ID": "PL841", "name": "Białostocki" }, "geometry": { "type": "Polygon", "coordinates": [ [ [ 23.588701990368111, 53.695928564992293 ], [ 23.891249629538979, 53.160234698495842 ], [ 23.916248700936173, 52.904753916663935 ], [ 23.477921771739606, 52.981869722588876 ], [ 23.337819784886992, 52.901106829789583 ], [ 22.965117968604641, 52.915054728218628 ], [ 22.785187519012322, 52.86028038929858 ], [ 22.751651818165389, 52.907865731837298 ], [ 22.802456459998904, 53.107576007366532 ], [ 22.573381335388301, 53.11369507613243 ], [ 22.47971735236754, 53.213432611010056 ], [ 22.705789358615306, 53.259543535419773 ], [ 22.855739692982166, 53.225174662463168 ], [ 23.067073671845581, 53.316329289953273 ], [ 23.093289463890617, 53.37778471320425 ], [ 23.007249274346766, 53.595136960857396 ], [ 23.073995340112003, 53.653542602657993 ], [ 23.26487499957264, 53.717737868383807 ], [ 23.588701990368111, 53.695928564992293 ] ] ] } },
{ "type": "Feature", "properties": { "NUTS_ID": "PL842", "name": "Łomżyński" }, "geometry": { "type": "Polygon", "coordinates": [ [ [ 22.47971735236754, 53.213432611010056 ], [ 22.573381335388301, 53.11369507613243 ], [ 22.802456459998904, 53.107576007366532 ], [ 22.751651818165389, 52.907865731837298 ], [ 22.785187519012322, 52.86028038929858 ], [ 22.965117968604641, 52.915054728218628 ], [ 23.337819784886992, 52.901106829789583 ], [ 23.477921771739606, 52.981869722588876 ], [ 23.916248700936173, 52.904753916663935 ], [ 23.939041356362356, 52.778003145351327 ], [ 23.801443066369202, 52.639015398582437 ], [ 23.420033277590839, 52.514439557764014 ], [ 23.178411193654583, 52.283179675027988 ], [ 23.128408849754603, 52.287841486576788 ], [ 22.621181472711228, 52.400997071662488 ], [ 22.430308629335823, 52.617667487736348 ], [ 22.419451562459528, 52.774771879545312 ], [ 22.028420027461152, 52.886550995022198 ], [ 21.71886710777687, 53.154379107573639 ], [ 21.612952755460078, 53.480833471540308 ], [ 21.859622298279444, 53.470514215499946 ], [ 22.135727870555183, 53.544540089190484 ], [ 22.229992631329544, 53.522447424012647 ], [ 22.291289495620269, 53.412801425266046 ], [ 22.430308629690238, 53.35228354339452 ], [ 22.47971735236754, 53.213432611010056 ] ] ] } },
{ "type": "Feature", "properties": { "NUTS_ID": "PL843", "name": "Suwalski" }, "geometry": { "type": "Polygon", "coordinates": [ [ [ 22.792011657932466, 54.363377298835339 ], [ 23.002049964526037, 54.38368048293141 ], [ 23.321498450982055, 54.253325926027742 ], [ 23.493204308974946, 54.129743320491876 ], [ 23.514649981027137, 53.956560135641361 ], [ 23.578901601735698, 53.74559730691724 ], [ 23.588701990368111, 53.695928564992293 ], [ 23.26487499957264, 53.717737868383807 ], [ 23.073995340112003, 53.653542602657993 ], [ 23.007249274346766, 53.595136960857396 ], [ 23.093289463890617, 53.37778471320425 ], [ 23.067073671845581, 53.316329289953273 ], [ 22.855739692982166, 53.225174662463168 ], [ 22.705789358615306, 53.259543535419773 ], [ 22.47971735236754, 53.213432611010056 ], [ 22.430308629690238, 53.35228354339452 ], [ 22.291289495620269, 53.412801425266046 ], [ 22.229992631329544, 53.522447424012647 ], [ 22.135727870555183, 53.544540089190484 ], [ 22.707420045327186, 53.803212687681373 ], [ 22.744277244164408, 53.926367258899646 ], [ 22.544162654964627, 54.203523759748272 ], [ 22.792011657932466, 54.363377298835339 ] ] ] } },
{ "type": "Feature", "properties": { "NUTS_ID": "PL911", "name": "Miasto Warszawa" }, "geometry": { "type": "Polygon", "coordinates": [ [ [ 21.164952839297033, 52.144728392297083 ], [ 21.034484212368135, 52.10367366523603 ], [ 20.908312799174464, 52.17654378901932 ], [ 20.915135814380747, 52.354019996127512 ], [ 21.052920940237449, 52.356459814678786 ], [ 21.222504578540658, 52.266077595269699 ], [ 21.232051634450013, 52.183818450133963 ], [ 21.164952839297033, 52.144728392297083 ] ] ] } },
{ "type": "Feature", "properties": { "NUTS_ID": "PL912", "name": "Warszawski wschodni" }, "geometry": { "type": "Polygon", "coordinates": [ [ [ 21.121797205544951, 52.553587974553864 ], [ 21.429456726529676, 52.476257206986539 ], [ 21.596747917389305, 52.553333499209046 ], [ 21.713041594260982, 52.475808069192674 ], [ 21.808883739645587, 52.268927759276131 ], [ 21.91919273175062, 52.211537177697529 ], [ 21.952634669642581, 52.091153987069994 ], [ 21.847234845492199, 51.988131089151842 ], [ 21.576901391676643, 52.027872825587501 ], [ 21.445674999355955, 51.918549791198757 ], [ 21.275804604418585, 51.876792025590788 ], [ 21.239110228813477, 51.901631148359463 ], [ 21.257156232405091, 51.96963445140031 ], [ 21.164952839297033, 52.144728392297083 ], [ 21.232051634450013, 52.183818450133963 ], [ 21.222504578540658, 52.266077595269699 ], [ 21.052920940237449, 52.356459814678786 ], [ 20.915135814380747, 52.354019996127512 ], [ 20.754537775596361, 52.424999604205439 ], [ 20.930469630552189, 52.558940122700939 ], [ 21.121797205544951, 52.553587974553864 ] ] ] } },
{ "type": "Feature", "properties": { "NUTS_ID": "PL913", "name": "Warszawski zachodni" }, "geometry": { "type": "Polygon", "coordinates": [ [ [ 20.930469630552189, 52.558940122700939 ], [ 20.754537775596361, 52.424999604205439 ], [ 20.915135814380747, 52.354019996127512 ], [ 20.908312799174464, 52.17654378901932 ], [ 21.034484212368135, 52.10367366523603 ], [ 21.164952839297033, 52.144728392297083 ], [ 21.257156232405091, 51.96963445140031 ], [ 21.239110228813477, 51.901631148359463 ], [ 20.65290585544021, 51.945331571861672 ], [ 20.605229444445474, 52.034558790072317 ], [ 20.493189316933456, 52.050358609317648 ], [ 20.426540579175267, 52.126044196958517 ], [ 20.469780668469294, 52.226558100966734 ], [ 20.350662359365998, 52.257402155167931 ], [ 20.404814244622656, 52.384342392303012 ], [ 20.756108038436079, 52.627438799093589 ], [ 20.930469630552189, 52.558940122700939 ] ] ] } },
{ "type": "Feature", "properties": { "NUTS_ID": "PL921", "name": "Radomski" }, "geometry": { "type": "Polygon", "coordinates": [ [ [ 21.286408721448506, 51.861673521182333 ], [ 21.615542354248838, 51.617561963024954 ], [ 21.852436635594469, 51.498547171633376 ], [ 21.802997768077383, 51.072078888227196 ], [ 21.630228993646671, 51.063409882892657 ], [ 21.441054120609529, 51.026242965317536 ], [ 20.9597011683021, 51.182353854965882 ], [ 20.770555028684072, 51.161064233845202 ], [ 20.432814862923976, 51.339405016898098 ], [ 20.51286709830104, 51.479824359032371 ], [ 20.424890742362486, 51.611619628971162 ], [ 20.589879823766928, 51.569373283446929 ], [ 20.917747366088957, 51.740522925054897 ], [ 21.054891055816586, 51.701041524753315 ], [ 21.286408721448506, 51.861673521182333 ] ] ] } },
{ "type": "Feature", "properties": { "NUTS_ID": "PL922", "name": "Ciechanowski" }, "geometry": { "type": "Polygon", "coordinates": [ [ [ 20.411137156308072, 53.214165057643328 ], [ 20.675953871530119, 53.26952948584966 ], [ 20.683566955273591, 53.038853189231801 ], [ 20.881439775530936, 52.837179248891395 ], [ 21.325522413439337, 52.749098686633758 ], [ 21.259653322322912, 52.606277269364284 ], [ 21.121797205544951, 52.553587974553864 ], [ 20.930469630552189, 52.558940122700939 ], [ 20.756108038436079, 52.627438799093589 ], [ 20.404814244622656, 52.384342392303012 ], [ 20.251022102396501, 52.38808687853971 ], [ 20.14909247024563, 52.652662336386058 ], [ 19.956938765444807, 52.870597685275555 ], [ 19.684806173410813, 52.963038915223123 ], [ 19.653334756424982, 53.10167886626099 ], [ 19.761595613781168, 53.151796424871186 ], [ 19.902410615488577, 53.193985439019507 ], [ 20.290749638680946, 53.149460297611668 ], [ 20.411137156308072, 53.214165057643328 ] ] ] } },
{ "type": "Feature", "properties": { "NUTS_ID": "PL923", "name": "Płocki" }, "geometry": { "type": "Polygon", "coordinates": [ [ [ 20.251022102396501, 52.38808687853971 ], [ 20.026304606261952, 52.37492115019208 ], [ 19.936101041439287, 52.299733508668687 ], [ 19.65350606084748, 52.264913287200812 ], [ 19.289184554838098, 52.39271248357641 ], [ 19.497987174133652, 52.753983767682612 ], [ 19.444663806000641, 52.939042437726528 ], [ 19.684806173410813, 52.963038915223123 ], [ 19.956938765444807, 52.870597685275555 ], [ 20.14909247024563, 52.652662336386058 ], [ 20.251022102396501, 52.38808687853971 ] ] ] } },
{ "type": "Feature", "properties": { "NUTS_ID": "PL924", "name": "Ostrołęcki" }, "geometry": { "type": "Polygon", "coordinates": [ [ [ 21.612952755460078, 53.480833471540308 ], [ 21.71886710777687, 53.154379107573639 ], [ 22.028420027461152, 52.886550995022198 ], [ 22.419451562459528, 52.774771879545312 ], [ 22.430308629335823, 52.617667487736348 ], [ 22.215943531994107, 52.689829709716726 ], [ 22.0097900248185, 52.644303261600797 ], [ 21.860548889033954, 52.689518454562574 ], [ 21.595752683587389, 52.595420484703581 ], [ 21.596747917389305, 52.553333499209046 ], [ 21.429456726529676, 52.476257206986539 ], [ 21.121797205544951, 52.553587974553864 ], [ 21.259653322322912, 52.606277269364284 ], [ 21.325522413439337, 52.749098686633758 ], [ 20.881439775530936, 52.837179248891395 ], [ 20.683566955273591, 53.038853189231801 ], [ 20.675953871530119, 53.26952948584966 ], [ 21.551689914488367, 53.478127857852819 ], [ 21.612952755460078, 53.480833471540308 ] ] ] } },
{ "type": "Feature", "properties": { "NUTS_ID": "PL925", "name": "Siedlecki" }, "geometry": { "type": "Polygon", "coordinates": [ [ [ 23.128408849754603, 52.287841486576788 ], [ 22.881029927611468, 52.085206437276966 ], [ 22.68760533570758, 52.102135062283253 ], [ 22.622901384684234, 52.018744640559369 ], [ 22.500384418801389, 52.054280851668906 ], [ 22.430308628245069, 52.017044493256307 ], [ 21.920997986402359, 51.982008920511291 ], [ 21.93215923733985, 51.80223898633843 ], [ 21.875198904295662, 51.697547409426953 ], [ 21.615542354248838, 51.617561963024954 ], [ 21.286408721448506, 51.861673521182333 ], [ 21.275804604418585, 51.876792025590788 ], [ 21.445674999355955, 51.918549791198757 ], [ 21.576901391676643, 52.027872825587501 ], [ 21.847234845492199, 51.988131089151842 ], [ 21.952634669642581, 52.091153987069994 ], [ 21.91919273175062, 52.211537177697529 ], [ 21.808883739645587, 52.268927759276131 ], [ 21.713041594260982, 52.475808069192674 ], [ 21.596747917389305, 52.553333499209046 ], [ 21.595752683587389, 52.595420484703581 ], [ 21.860548889033954, 52.689518454562574 ], [ 22.0097900248185, 52.644303261600797 ], [ 22.215943531994107, 52.689829709716726 ], [ 22.430308629335823, 52.617667487736348 ], [ 22.621181472711228, 52.400997071662488 ], [ 23.128408849754603, 52.287841486576788 ] ] ] } },
{ "type": "Feature", "properties": { "NUTS_ID": "PL926", "name": "Żyrardowski" }, "geometry": { "type": "Polygon", "coordinates": [ [ [ 20.404814244622656, 52.384342392303012 ], [ 20.350662359365998, 52.257402155167931 ], [ 20.469780668469294, 52.226558100966734 ], [ 20.426540579175267, 52.126044196958517 ], [ 20.493189316933456, 52.050358609317648 ], [ 20.605229444445474, 52.034558790072317 ], [ 20.65290585544021, 51.945331571861672 ], [ 21.239110228813477, 51.901631148359463 ], [ 21.275804604418585, 51.876792025590788 ], [ 21.286408721448506, 51.861673521182333 ], [ 21.054891055816586, 51.701041524753315 ], [ 20.917747366088957, 51.740522925054897 ], [ 20.589879823766928, 51.569373283446929 ], [ 20.424890742362486, 51.611619628971162 ], [ 20.385016930735993, 51.641663095754076 ], [ 20.631189442472319, 51.687436388593227 ], [ 20.577698145404526, 51.857971521431729 ], [ 20.313545604660796, 51.943676892423923 ], [ 20.227565218236784, 52.020771402109276 ], [ 20.239636248600281, 52.109179996776739 ], [ 19.936101041439287, 52.299733508668687 ], [ 20.026304606261952, 52.37492115019208 ], [ 20.251022102396501, 52.38808687853971 ], [ 20.404814244622656, 52.384342392303012 ] ] ] } }
]
}
