{
"type": "FeatureCollection",
"name": "PT",
"crs": { "type": "name", "properties": { "name": "urn:ogc:def:crs:OGC:1.3:CRS84" } },
"features": [
{ "type": "Feature", "properties": { "NUTS_ID": "PT111", "name": "Alto Minho" }, "geometry": { "type": "Polygon", "coordinates": [ [ [ -8.86318583914499, 41.872066458235651 ], [ -8.602654374634024, 42.053905473165607 ], [ -8.199000323681684, 42.154419059346353 ], [ -8.100540088964232, 42.037390006279097 ], [ -8.199102370838824, 41.921580072715997 ], [ -8.165075345114177, 41.818302138718735 ], [ -8.459722893008863, 41.744768832532152 ], [ -8.553253079231331, 41.645597936329274 ], [ -8.811574119169556, 41.611567534596013 ], [ -8.871530104464851, 41.863901135906957 ], [ -8.86318583914499, 41.872066458235651 ] ] ] } },
{ "type": "Feature", "properties": { "NUTS_ID": "PT112", "name": "Cávado" }, "geometry": { "type": "Polygon", "coordinates": [ [ [ -8.811574119169556, 41.611567534596013 ], [ -8.553253079231331, 41.645597936329274 ], [ -8.459722893008863, 41.744768832532152 ], [ -8.165075345114177, 41.818302138718735 ], [ -8.0518627247626, 41.820613920919243 ], [ -8.119464961591014, 41.689238053151044 ], [ -8.298923086992231, 41.637309925492325 ], [ -8.337648804511534, 41.542062817580678 ], [ -8.622764152460221, 41.414739488769726 ], [ -8.77642795438369, 41.471971306662027 ], [ -8.811574119169556, 41.611567534596013 ] ] ] } },
{ "type": "Feature", "properties": { "NUTS_ID": "PT119", "name": "Ave" }, "geometry": { "type": "Polygon", "coordinates": [ [ [ -8.119464961591014, 41.689238053151044 ], [ -7.840978411588552, 41.592841489551624 ], [ -7.88674475051791, 41.471017995817071 ], [ -7.788687670514073, 41.411410398144319 ], [ -7.907735673749427, 41.302587613708191 ], [ -7.963381431570435, 41.437198287534969 ], [ -8.035994724553161, 41.473089786048426 ], [ -8.128260448179184, 41.393281079834658 ], [ -8.316449696436708, 41.351259615784059 ], [ -8.585030822683597, 41.353646030864802 ], [ -8.622764152460221, 41.414739488769726 ], [ -8.337648804511534, 41.542062817580678 ], [ -8.298923086992231, 41.637309925492325 ], [ -8.119464961591014, 41.689238053151044 ] ] ] } },
{ "type": "Feature", "properties": { "NUTS_ID": "PT11A", "name": "Área Metropolitana do Porto" }, "geometry": { "type": "Polygon", "coordinates": [ [ [ -8.77642795438369, 41.471971306662027 ], [ -8.622764152460221, 41.414739488769726 ], [ -8.585030822683597, 41.353646030864802 ], [ -8.316449696436708, 41.351259615784059 ], [ -8.410427311175868, 41.286613436495898 ], [ -8.31939813514105, 41.217322689057291 ], [ -8.374211657883061, 41.013067528856304 ], [ -8.290682673689766, 40.96773307795138 ], [ -8.089171911163564, 40.987555616712498 ], [ -8.121666223970605, 40.878389136796699 ], [ -8.273368978118443, 40.763173371266625 ], [ -8.510681136616336, 40.781845420947676 ], [ -8.653128772097496, 40.964761514461827 ], [ -8.77642795438369, 41.471971306662027 ] ] ] } },
{ "type": "Feature", "properties": { "NUTS_ID": "PT11B", "name": "Alto Tâmega e Barroso" }, "geometry": { "type": "Polygon", "coordinates": [ [ [ -8.0518627247626, 41.820613920919243 ], [ -7.734402095573435, 41.902139739780026 ], [ -7.416413121340458, 41.827564133089844 ], [ -7.200464406593146, 41.879749416123516 ], [ -7.194071181009641, 41.729939389792271 ], [ -7.292135292542534, 41.491840957842001 ], [ -7.365323145231372, 41.440422969237225 ], [ -7.438567234388584, 41.509549302142773 ], [ -7.611966039555683, 41.405410520854737 ], [ -7.788687670514073, 41.411410398144319 ], [ -7.88674475051791, 41.471017995817071 ], [ -7.840978411588552, 41.592841489551624 ], [ -8.119464961591014, 41.689238053151044 ], [ -8.0518627247626, 41.820613920919243 ] ] ] } },
{ "type": "Feature", "properties": { "NUTS_ID": "PT11C", "name": "Tâmega e Sousa" }, "geometry": { "type": "Polygon", "coordinates": [ [ [ -8.316449696436708, 41.351259615784059 ], [ -8.128260448179184, 41.393281079834658 ], [ -8.035994724553161, 41.473089786048426 ], [ -7.963381431570435, 41.437198287534969 ], [ -7.907735673749427, 41.302587613708191 ], [ -7.868168258448152, 41.114197427159773 ], [ -7.915680847559269, 41.019974092704054 ], [ -8.089171911163564, 40.987555616712498 ], [ -8.290682673689766, 40.96773307795138 ], [ -8.374211657883061, 41.013067528856304 ], [ -8.31939813514105, 41.217322689057291 ], [ -8.410427311175868, 41.286613436495898 ], [ -8.316449696436708, 41.351259615784059 ] ] ] } },
{ "type": "Feature", "properties": { "NUTS_ID": "PT11D", "name": "Douro" }, "geometry": { "type": "Polygon", "coordinates": [ [ [ -7.365323145231372, 41.440422969237225 ], [ -7.22069555336029, 41.247175229227167 ], [ -7.049387945702912, 41.289428557788128 ], [ -6.689786233769235, 41.205241370033022 ], [ -6.808730904469676, 41.055148108304117 ], [ -6.929864671971187, 41.029336226676442 ], [ -7.143235377133611, 40.938226491972223 ], [ -7.203850732996967, 41.021374445231572 ], [ -7.3092743162492, 41.016936054992556 ], [ -7.45420403364574, 40.812607973901144 ], [ -7.669407332811296, 40.869183382760411 ], [ -7.726510257781669, 40.950179813556396 ], [ -7.915680847559269, 41.019974092704054 ], [ -7.868168258448152, 41.114197427159773 ], [ -7.907735673749427, 41.302587613708191 ], [ -7.788687670514073, 41.411410398144319 ], [ -7.611966039555683, 41.405410520854737 ], [ -7.438567234388584, 41.509549302142773 ], [ -7.365323145231372, 41.440422969237225 ] ] ] } },
{ "type": "Feature", "properties": { "NUTS_ID": "PT11E", "name": "Terras de Trás-os-Montes" }, "geometry": { "type": "Polygon", "coordinates": [ [ [ -6.985800483593589, 41.971447052084685 ], [ -6.577088063113657, 41.935157455169552 ], [ -6.516592708080802, 41.682937809810227 ], [ -6.220442953834654, 41.59860633574057 ], [ -6.330944256272895, 41.395494831649685 ], [ -6.479713167971152, 41.294379828543576 ], [ -6.689786233769235, 41.205241370033022 ], [ -7.049387945702912, 41.289428557788128 ], [ -7.22069555336029, 41.247175229227167 ], [ -7.365323145231372, 41.440422969237225 ], [ -7.292135292542534, 41.491840957842001 ], [ -7.194071181009641, 41.729939389792271 ], [ -7.200464406593146, 41.879749416123516 ], [ -7.159142738516231, 41.973218458517344 ], [ -6.985800483593589, 41.971447052084685 ] ] ] } },
{ "type": "Feature", "properties": { "NUTS_ID": "PT150", "name": "Algarve" }, "geometry": { "type": "Polygon", "coordinates": [ [ [ -8.796265456326473, 37.442878622890703 ], [ -8.470195300601249, 37.38536017606701 ], [ -8.377926298418037, 37.427264914531456 ], [ -8.076933238321168, 37.328611541639383 ], [ -7.784011628492117, 37.475867379180201 ], [ -7.512691485940048, 37.52625635650903 ], [ -7.401916633924495, 37.174827473053661 ], [ -7.401590666096807, 37.174407959952077 ], [ -7.867919186424779, 36.990201915357552 ], [ -8.172903797399011, 37.081713313952868 ], [ -8.578383848636539, 37.113357731450229 ], [ -8.957320209023832, 37.018768746359811 ], [ -8.796265456326473, 37.442878622890703 ] ] ] } },
{ "type": "Feature", "properties": { "NUTS_ID": "PT191", "name": "Região de Aveiro" }, "geometry": { "type": "Polygon", "coordinates": [ [ [ -8.653128772097496, 40.964761514461827 ], [ -8.510681136616336, 40.781845420947676 ], [ -8.273368978118443, 40.763173371266625 ], [ -8.312977868488709, 40.719761220815968 ], [ -8.250542747947206, 40.514856700839537 ], [ -8.40045174221054, 40.404218208183167 ], [ -8.66331216539797, 40.443408195369273 ], [ -8.784029168841608, 40.520365045753636 ], [ -8.691377910524317, 40.687394785628392 ], [ -8.653128772097496, 40.964761514461827 ] ] ] } },
{ "type": "Feature", "properties": { "NUTS_ID": "PT192", "name": "Região de Coimbra" }, "geometry": { "type": "Polygon", "coordinates": [ [ [ -8.784029168841608, 40.520365045753636 ], [ -8.66331216539797, 40.443408195369273 ], [ -8.40045174221054, 40.404218208183167 ], [ -8.250542747947206, 40.514856700839537 ], [ -8.148519373841815, 40.341244958708664 ], [ -7.82831475953919, 40.49854535575335 ], [ -7.756220468791037, 40.117091702979344 ], [ -7.808312177181826, 40.035736384207837 ], [ -8.118679341767889, 39.934089879310271 ], [ -8.187754441234484, 40.071986760283735 ], [ -8.362257684211993, 39.960894256361499 ], [ -8.894932677084142, 40.045503150714076 ], [ -8.784029168841608, 40.520365045753636 ] ] ] } },
{ "type": "Feature", "properties": { "NUTS_ID": "PT193", "name": "Região de Leiria" }, "geometry": { "type": "Polygon", "coordinates": [ [ [ -8.894932677084142, 40.045503150714076 ], [ -8.362257684211993, 39.960894256361499 ], [ -8.187754441234484, 40.071986760283735 ], [ -8.118679341767889, 39.934089879310271 ], [ -8.285088842690586, 39.795760312215812 ], [ -8.42981918705804, 39.746197392983547 ], [ -8.497088272380164, 39.819882424725833 ], [ -8.650356364023738, 39.765308854103978 ], [ -8.691083329336085, 39.553070493041432 ], [ -8.759408690196581, 39.475769434320185 ], [ -8.903420864356503, 39.466007406892267 ], [ -8.940808657078957, 39.670661150258844 ], [ -9.040260312990194, 39.741423027344233 ], [ -8.894932677084142, 40.045503150714076 ] ] ] } },
{ "type": "Feature", "properties": { "NUTS_ID": "PT194", "name": "Viseu Dão Lafões" }, "geometry": { "type": "Polygon", "coordinates": [ [ [ -8.089171911163564, 40.987555616712498 ], [ -7.915680847559269, 41.019974092704054 ], [ -7.726510257781669, 40.950179813556396 ], [ -7.669407332811296, 40.869183382760411 ], [ -7.45420403364574, 40.812607973901144 ], [ -7.586732320581151, 40.58468542213739 ], [ -7.82831475953919, 40.49854535575335 ], [ -8.148519373841815, 40.341244958708664 ], [ -8.250542747947206, 40.514856700839537 ], [ -8.312977868488709, 40.719761220815968 ], [ -8.273368978118443, 40.763173371266625 ], [ -8.121666223970605, 40.878389136796699 ], [ -8.089171911163564, 40.987555616712498 ] ] ] } },
{ "type": "Feature", "properties": { "NUTS_ID": "PT195", "name": "Beira Baixa" }, "geometry": { "type": "Polygon", "coordinates": [ [ [ -7.808312177181826, 40.035736384207837 ], [ -7.569667309906574, 40.074782033157724 ], [ -7.393401489364002, 40.009390991993726 ], [ -7.247133586541449, 40.258796445953323 ], [ -7.109394124957168, 40.302374229147681 ], [ -6.951298651414942, 40.25744601884152 ], [ -7.00652533722979, 40.159882534163451 ], [ -6.878365539490578, 39.975900763004319 ], [ -7.023810304523053, 39.687250149096627 ], [ -7.542845392253438, 39.662786088274117 ], [ -7.825103858170303, 39.537365008983315 ], [ -7.985655269861495, 39.732130975180219 ], [ -8.080819986282012, 39.621987653379449 ], [ -8.200357511563134, 39.633986665888315 ], [ -8.285088842690586, 39.795760312215812 ], [ -8.118679341767889, 39.934089879310271 ], [ -7.808312177181826, 40.035736384207837 ] ] ] } },
{ "type": "Feature", "properties": { "NUTS_ID": "PT196", "name": "Beiras e Serra da Estrela" }, "geometry": { "type": "Polygon", "coordinates": [ [ [ -7.82831475953919, 40.49854535575335 ], [ -7.586732320581151, 40.58468542213739 ], [ -7.45420403364574, 40.812607973901144 ], [ -7.3092743162492, 41.016936054992556 ], [ -7.203850732996967, 41.021374445231572 ], [ -7.143235377133611, 40.938226491972223 ], [ -6.929864671971187, 41.029336226676442 ], [ -6.81851744296867, 40.862823984667884 ], [ -6.800541786856703, 40.361405435418249 ], [ -6.865144205992289, 40.270694538718956 ], [ -6.951298651414942, 40.25744601884152 ], [ -7.109394124957168, 40.302374229147681 ], [ -7.247133586541449, 40.258796445953323 ], [ -7.393401489364002, 40.009390991993726 ], [ -7.569667309906574, 40.074782033157724 ], [ -7.808312177181826, 40.035736384207837 ], [ -7.756220468791037, 40.117091702979344 ], [ -7.82831475953919, 40.49854535575335 ] ] ] } },
{ "type": "Feature", "properties": { "NUTS_ID": "PT1A0", "name": "Grande Lisboa" }, "geometry": { "type": "Polygon", "coordinates": [ [ [ -9.41639512183453, 39.054759334335785 ], [ -9.142028315416763, 38.949223393911105 ], [ -8.930276766081215, 39.01802502066505 ], [ -8.885781802227589, 38.966023620244911 ], [ -8.968465853926055, 38.827764841044058 ], [ -9.038893992257137, 38.858820742177215 ], [ -9.157960613081466, 38.709183476468588 ], [ -9.454868177883352, 38.706886753246678 ], [ -9.490672838470326, 38.774822014572244 ], [ -9.41639512183453, 39.054759334335785 ] ] ] } },
{ "type": "Feature", "properties": { "NUTS_ID": "PT1B0", "name": "Península de Setúbal" }, "geometry": { "type": "Polygon", "coordinates": [ [ [ -8.924880814020192, 38.758673868927985 ], [ -8.774127122843138, 38.752031173944587 ], [ -8.673039356990966, 38.829264234495454 ], [ -8.546797539483663, 38.763436006300346 ], [ -8.527630076575926, 38.705921071553249 ], [ -8.639114078543775, 38.549490926200434 ], [ -8.735019810091874, 38.515696454118157 ], [ -9.193087864446632, 38.447086682084901 ], [ -9.232766525578098, 38.660847425403055 ], [ -9.064202528931101, 38.65708272268639 ], [ -8.924880814020192, 38.758673868927985 ] ] ] } },
{ "type": "Feature", "properties": { "NUTS_ID": "PT1C1", "name": "Alentejo Litoral" }, "geometry": { "type": "Polygon", "coordinates": [ [ [ -8.735019810091874, 38.515696454118157 ], [ -8.639114078543775, 38.549490926200434 ], [ -8.369739383776231, 38.527427127449535 ], [ -8.288555486570329, 38.371857213470086 ], [ -8.164368637174025, 38.319843395919271 ], [ -8.151813446372532, 38.229468004242513 ], [ -8.386113920426123, 38.0788220001482 ], [ -8.305525778396351, 37.971198419954405 ], [ -8.387956945167348, 37.832741365010449 ], [ -8.397499346441966, 37.709397556023475 ], [ -8.325916880606878, 37.609259455202064 ], [ -8.377926298418037, 37.427264914531456 ], [ -8.470195300601249, 37.38536017606701 ], [ -8.796265456326473, 37.442878622890703 ], [ -8.798414806184379, 37.860002973319034 ], [ -8.864480837152721, 37.979156281727789 ], [ -8.735019810091874, 38.515696454118157 ] ] ] } },
{ "type": "Feature", "properties": { "NUTS_ID": "PT1C2", "name": "Baixo Alentejo" }, "geometry": { "type": "Polygon", "coordinates": [ [ [ -8.164368637174025, 38.319843395919271 ], [ -7.555910762378722, 38.193590318041515 ], [ -7.29799060314601, 38.316536074493989 ], [ -7.175070663285093, 38.188887787083139 ], [ -7.107952585830986, 38.188121610477872 ], [ -6.931738573305778, 38.208378039563719 ], [ -7.013750955423252, 38.040794515364546 ], [ -7.23674190689607, 37.963751622513854 ], [ -7.512691485940048, 37.52625635650903 ], [ -7.784011628492117, 37.475867379180201 ], [ -8.076933238321168, 37.328611541639383 ], [ -8.377926298418037, 37.427264914531456 ], [ -8.325916880606878, 37.609259455202064 ], [ -8.397499346441966, 37.709397556023475 ], [ -8.387956945167348, 37.832741365010449 ], [ -8.305525778396351, 37.971198419954405 ], [ -8.386113920426123, 38.0788220001482 ], [ -8.151813446372532, 38.229468004242513 ], [ -8.164368637174025, 38.319843395919271 ] ] ] } },
{ "type": "Feature", "properties": { "NUTS_ID": "PT1C3", "name": "Alto Alentejo" }, "geometry": { "type": "Polygon", "coordinates": [ [ [ -8.172599412158656, 39.233313510694188 ], [ -7.967357559878908, 39.403826979331242 ], [ -7.965148704495294, 39.536983703731693 ], [ -7.825103858170303, 39.537365008983315 ], [ -7.542845392253438, 39.662786088274117 ], [ -7.314967526576992, 39.455921231913607 ], [ -7.231467160491739, 39.278431032474202 ], [ -7.218372051735422, 39.208815638502323 ], [ -6.971092578303845, 39.02166330050494 ], [ -7.203134912971411, 38.751017484245104 ], [ -7.211974006078032, 38.831445188774737 ], [ -7.386019666992437, 38.821699650471651 ], [ -7.507517203469281, 38.977188707503501 ], [ -7.812261243132756, 38.9040112947255 ], [ -8.114517490603729, 39.012590934548243 ], [ -8.227914918452294, 38.987386968800941 ], [ -8.321901931064723, 39.117348678773965 ], [ -8.172599412158656, 39.233313510694188 ] ] ] } },
{ "type": "Feature", "properties": { "NUTS_ID": "PT1C4", "name": "Alentejo Central" }, "geometry": { "type": "Polygon", "coordinates": [ [ [ -8.227914918452294, 38.987386968800941 ], [ -8.114517490603729, 39.012590934548243 ], [ -7.812261243132756, 38.9040112947255 ], [ -7.507517203469281, 38.977188707503501 ], [ -7.386019666992437, 38.821699650471651 ], [ -7.211974006078032, 38.831445188774737 ], [ -7.203134912971411, 38.751017484245104 ], [ -7.309237155380519, 38.458347325379449 ], [ -7.107952585830986, 38.188121610477872 ], [ -7.175070663285093, 38.188887787083139 ], [ -7.29799060314601, 38.316536074493989 ], [ -7.555910762378722, 38.193590318041515 ], [ -8.164368637174025, 38.319843395919271 ], [ -8.288555486570329, 38.371857213470086 ], [ -8.369739383776231, 38.527427127449535 ], [ -8.639114078543775, 38.549490926200434 ], [ -8.527630076575926, 38.705921071553249 ], [ -8.546797539483663, 38.763436006300346 ], [ -8.371866661742233, 38.851071687980465 ], [ -8.222550452799364, 38.842764213011101 ], [ -8.227914918452294, 38.987386968800941 ] ] ] } },
{ "type": "Feature", "properties": { "NUTS_ID": "PT1D1", "name": "Oeste" }, "geometry": { "type": "Polygon", "coordinates": [ [ [ -9.040260312990194, 39.741423027344233 ], [ -8.940808657078957, 39.670661150258844 ], [ -8.903420864356503, 39.466007406892267 ], [ -8.987700116950753, 39.34513773189682 ], [ -8.930276766081215, 39.01802502066505 ], [ -9.142028315416763, 38.949223393911105 ], [ -9.41639512183453, 39.054759334335785 ], [ -9.342949514946135, 39.349761946289718 ], [ -9.093898286342394, 39.577808780594978 ], [ -9.040260312990194, 39.741423027344233 ] ] ] } },
{ "type": "Feature", "properties": { "NUTS_ID": "PT1D2", "name": "Médio Tejo" }, "geometry": { "type": "Polygon", "coordinates": [ [ [ -8.285088842690586, 39.795760312215812 ], [ -8.200357511563134, 39.633986665888315 ], [ -8.080819986282012, 39.621987653379449 ], [ -7.985655269861495, 39.732130975180219 ], [ -7.825103858170303, 39.537365008983315 ], [ -7.965148704495294, 39.536983703731693 ], [ -7.967357559878908, 39.403826979331242 ], [ -8.172599412158656, 39.233313510694188 ], [ -8.35169120998766, 39.448587608632998 ], [ -8.685037515597225, 39.414345977885255 ], [ -8.759408690196581, 39.475769434320185 ], [ -8.691083329336085, 39.553070493041432 ], [ -8.650356364023738, 39.765308854103978 ], [ -8.497088272380164, 39.819882424725833 ], [ -8.42981918705804, 39.746197392983547 ], [ -8.285088842690586, 39.795760312215812 ] ] ] } },
{ "type": "Feature", "properties": { "NUTS_ID": "PT1D3", "name": "Lezíria do Tejo" }, "geometry": { "type": "Polygon", "coordinates": [ [ [ -8.968465853926055, 38.827764841044058 ], [ -8.885781802227589, 38.966023620244911 ], [ -8.930276766081215, 39.01802502066505 ], [ -8.987700116950753, 39.34513773189682 ], [ -8.903420864356503, 39.466007406892267 ], [ -8.759408690196581, 39.475769434320185 ], [ -8.685037515597225, 39.414345977885255 ], [ -8.35169120998766, 39.448587608632998 ], [ -8.172599412158656, 39.233313510694188 ], [ -8.321901931064723, 39.117348678773965 ], [ -8.227914918452294, 38.987386968800941 ], [ -8.222550452799364, 38.842764213011101 ], [ -8.371866661742233, 38.851071687980465 ], [ -8.546797539483663, 38.763436006300346 ], [ -8.673039356990966, 38.829264234495454 ], [ -8.774127122843138, 38.752031173944587 ], [ -8.924880814020192, 38.758673868927985 ], [ -8.968465853926055, 38.827764841044058 ] ] ] } },
{ "type": "Feature", "properties": { "NUTS_ID": "PT200", "name": "Região Autónoma dos Açores" }, "geometry": { "type": "MultiPolygon", "coordinates": [ [ [ [ -25.812283699544885, 37.902133993308084 ], [ -25.604016413285041, 37.824537366072029 ], [ -25.198617740442767, 37.862412572124093 ], [ -25.114128590535383, 37.796246079038632 ], [ -25.482585655533565, 37.702733240899931 ], [ -25.743653061009127, 37.750159791910932 ], [ -25.887692937745769, 37.865979956365223 ], [ -25.812283699544885, 37.902133993308084 ] ] ], [ [ [ -24.997742921985182, 36.944441150411301 ], [ -25.129405972074412, 36.934105336708292 ], [ -25.19128172663493, 36.974315162812978 ], [ -25.066938456123644, 37.017862316975815 ], [ -24.997742921985182, 36.944441150411301 ] ] ], [ [ [ -27.024054325371193, 38.686773851171232 ], [ -27.266587407073583, 38.638858611799449 ], [ -27.413868812647383, 38.751462419260868 ], [ -27.319141260210817, 38.808939883672579 ], [ -27.146670627008891, 38.804717007905353 ], [ -27.024054325371193, 38.686773851171232 ] ] ], [ [ [ -27.920924409670604, 39.042313311834469 ], [ -27.996349084732469, 39.000469106814641 ], [ -28.094616554619915, 39.042440168743497 ], [ -27.984957584290804, 39.093380400637663 ], [ -27.920924409670604, 39.042313311834469 ] ] ], [ [ [ -27.931680601500251, 38.600706230684771 ], [ -28.039603559637801, 38.580405806306608 ], [ -28.155575687949149, 38.653448467288925 ], [ -28.024618532478829, 38.688789935685122 ], [ -27.931680601500251, 38.600706230684771 ] ] ], [ [ [ -28.323564736006855, 38.402551318925724 ], [ -28.459278997052799, 38.386119541048082 ], [ -28.865070454825638, 38.617812938897735 ], [ -28.629409939073042, 38.649595867882191 ], [ -28.323564736006855, 38.402551318925724 ] ] ], [ [ [ -31.052706325681402, 39.70390782068948 ], [ -31.106103239084238, 39.631599562337627 ], [ -31.17688433330116, 39.707567234727918 ], [ -31.110935174786473, 39.761711885962669 ], [ -31.052706325681402, 39.70390782068948 ] ] ], [ [ [ -31.119804405145029, 39.445611837531125 ], [ -31.213963230305321, 39.355602389363675 ], [ -31.29250328465357, 39.455194925042335 ], [ -31.217363430604394, 39.526687552649229 ], [ -31.119804405145029, 39.445611837531125 ] ] ] ] } },
{ "type": "Feature", "properties": { "NUTS_ID": "PT300", "name": "Região Autónoma da Madeira" }, "geometry": { "type": "MultiPolygon", "coordinates": [ [ [ [ -16.225756981823562, 33.096981653916451 ], [ -16.286605128412951, 33.041988321719721 ], [ -16.399079998451839, 33.085326476491694 ], [ -16.303550910220256, 33.13396630180852 ], [ -16.225756981823562, 33.096981653916451 ] ] ], [ [ [ -15.811574997686092, 30.101874056216499 ], [ -15.885986771098834, 30.100626031318583 ], [ -15.932931590584236, 30.142355033908487 ], [ -15.896945246360865, 30.190510780785779 ], [ -15.83838054757021, 30.196179346288041 ], [ -15.811574997686092, 30.101874056216499 ] ] ], [ [ [ -16.831051357406338, 32.64595044108929 ], [ -16.94926500976057, 32.635849033858086 ], [ -17.193675837090513, 32.728390286639623 ], [ -17.276538269394482, 32.816851282381108 ], [ -17.189344218638436, 32.86109008187907 ], [ -16.907555761936319, 32.82857356730122 ], [ -16.762157287839244, 32.731623082358297 ], [ -16.831051357406338, 32.64595044108929 ] ] ] ] } }
]
}
