{
"type": "FeatureCollection",
"name": "RO",
"crs": { "type": "name", "properties": { "name": "urn:ogc:def:crs:OGC:1.3:CRS84" } },
"features": [
{ "type": "Feature", "properties": { "NUTS_ID": "RO313", "name": "Dâmboviţa" }, "geometry": { "type": "Polygon", "coordinates": [ [ [ 25.23474972681873, 44.424252029257637 ], [ 25.271298721681685, 44.527830436414696 ], [ 25.20519136658536, 44.635429680261574 ], [ 25.150887783344992, 45.097627412418333 ], [ 25.27224214538807, 45.22307682140373 ], [ 25.32158301104208, 45.381004174479756 ], [ 25.45253914636584, 45.44134205709706 ], [ 25.699664760312036, 44.973115455600698 ], [ 25.970743882315325, 44.710408464525862 ], [ 25.975885068670213, 44.614943288427838 ], [ 25.890739545279963, 44.540952927044394 ], [ 25.58880646742147, 44.543496956253328 ], [ 25.491141383523292, 44.4719809893191 ], [ 25.401216056480543, 44.502198258177344 ], [ 25.23474972681873, 44.424252029257637 ] ] ] } },
{ "type": "Feature", "properties": { "NUTS_ID": "RO314", "name": "Giurgiu" }, "geometry": { "type": "Polygon", "coordinates": [ [ [ 25.491141383523292, 44.4719809893191 ], [ 25.58880646742147, 44.543496956253328 ], [ 25.890739545279963, 44.540952927044394 ], [ 25.889700426523987, 44.364051467727407 ], [ 26.133725036835408, 44.248858619390717 ], [ 26.259956255425646, 44.294986060192279 ], [ 26.361950153750154, 44.226455469627638 ], [ 26.407543703468814, 44.167159074639152 ], [ 26.381823175563682, 44.038612069792293 ], [ 26.358182171159669, 44.037160479522399 ], [ 26.118712478901209, 43.966670973526668 ], [ 25.672200966511038, 43.688148660396756 ], [ 25.603123298916575, 44.001833071112294 ], [ 25.680280656637528, 44.226455470251722 ], [ 25.635841513265422, 44.295881449789043 ], [ 25.48307793950335, 44.340478027136932 ], [ 25.44732804082129, 44.403942417239847 ], [ 25.491141383523292, 44.4719809893191 ] ] ] } },
{ "type": "Feature", "properties": { "NUTS_ID": "RO315", "name": "Ialomiţa" }, "geometry": { "type": "Polygon", "coordinates": [ [ [ 28.017374178040559, 44.340249051617995 ], [ 27.802866744433068, 44.358971357192907 ], [ 27.548479536923661, 44.508947440483716 ], [ 26.673165255751712, 44.557328704246032 ], [ 26.416060306411996, 44.521682910694878 ], [ 26.301818340657896, 44.768874824347662 ], [ 26.605551439360898, 44.856993863147096 ], [ 27.203458352104022, 44.787073931230587 ], [ 27.818808653218852, 44.803293353956725 ], [ 27.881007007847227, 44.763076452081506 ], [ 28.091214510449969, 44.455766310039543 ], [ 28.017374178040559, 44.340249051617995 ] ] ] } },
{ "type": "Feature", "properties": { "NUTS_ID": "RO316", "name": "Prahova" }, "geometry": { "type": "Polygon", "coordinates": [ [ [ 25.45253914636584, 45.44134205709706 ], [ 25.67609568665749, 45.486274589577683 ], [ 25.858955211731228, 45.443345395339371 ], [ 25.929553578897057, 45.50438753660017 ], [ 26.072718597334038, 45.505787949568571 ], [ 26.251244162026492, 45.220842071301995 ], [ 26.44855273721338, 45.176194705795801 ], [ 26.605551439360898, 44.856993863147096 ], [ 26.301818340657896, 44.768874824347662 ], [ 25.970743882315325, 44.710408464525862 ], [ 25.699664760312036, 44.973115455600698 ], [ 25.45253914636584, 45.44134205709706 ] ] ] } },
{ "type": "Feature", "properties": { "NUTS_ID": "RO317", "name": "Teleorman" }, "geometry": { "type": "Polygon", "coordinates": [ [ [ 25.296372664845077, 43.655419159732091 ], [ 24.654779713021473, 43.72358652900509 ], [ 24.729937850383116, 43.821050091488793 ], [ 24.616959980886364, 43.990107399159285 ], [ 24.830263843057676, 44.094798149261095 ], [ 24.835203733730754, 44.226455469860767 ], [ 24.82846750811505, 44.339932812116508 ], [ 24.884019298903681, 44.382636650454494 ], [ 25.23474972681873, 44.424252029257637 ], [ 25.401216056480543, 44.502198258177344 ], [ 25.491141383523292, 44.4719809893191 ], [ 25.44732804082129, 44.403942417239847 ], [ 25.48307793950335, 44.340478027136932 ], [ 25.635841513265422, 44.295881449789043 ], [ 25.680280656637528, 44.226455470251722 ], [ 25.603123298916575, 44.001833071112294 ], [ 25.672200966511038, 43.688148660396756 ], [ 25.54453953915834, 43.642845489064364 ], [ 25.296372664845077, 43.655419159732091 ] ] ] } },
{ "type": "Feature", "properties": { "NUTS_ID": "RO321", "name": "Bucureşti" }, "geometry": { "type": "Polygon", "coordinates": [ [ [ 25.940665390664705, 44.42969558711696 ], [ 26.075461709346957, 44.543449604897539 ], [ 26.228203429774279, 44.426220538125811 ], [ 26.108338418428719, 44.354940715123156 ], [ 25.940665390664705, 44.42969558711696 ] ] ] } },
{ "type": "Feature", "properties": { "NUTS_ID": "RO322", "name": "Ilfov" }, "geometry": { "type": "Polygon", "coordinates": [ [ [ 25.970743882315325, 44.710408464525862 ], [ 26.301818340657896, 44.768874824347662 ], [ 26.416060306411996, 44.521682910694878 ], [ 26.259956255425646, 44.294986060192279 ], [ 26.133725036835408, 44.248858619390717 ], [ 25.889700426523987, 44.364051467727407 ], [ 25.890739545279963, 44.540952927044394 ], [ 25.975885068670213, 44.614943288427838 ], [ 25.970743882315325, 44.710408464525862 ] ], [ [ 25.940665390664705, 44.42969558711696 ], [ 26.108338418428719, 44.354940715123156 ], [ 26.228203429774279, 44.426220538125811 ], [ 26.075461709346957, 44.543449604897539 ], [ 25.940665390664705, 44.42969558711696 ] ] ] } },
{ "type": "Feature", "properties": { "NUTS_ID": "RO411", "name": "Dolj" }, "geometry": { "type": "Polygon", "coordinates": [ [ [ 22.997170932086586, 43.807867625668692 ], [ 22.859041655684848, 43.898197567856805 ], [ 22.892518655659924, 43.975891153072645 ], [ 23.01855179545786, 44.034917948581352 ], [ 22.966368951627395, 44.098288519061633 ], [ 23.090094858079421, 44.162716415699265 ], [ 23.095492095600846, 44.226455470091331 ], [ 23.228841422872161, 44.48501428147285 ], [ 23.455035292828644, 44.569561356996473 ], [ 23.679099656804812, 44.613432488244428 ], [ 23.780499537589531, 44.713986483125787 ], [ 23.929056046647016, 44.528122506143838 ], [ 23.910629531723703, 44.420394851856265 ], [ 24.224054965161454, 44.226455469579818 ], [ 24.195806108854402, 44.024634751809785 ], [ 24.247100473603112, 43.934505880577362 ], [ 24.112043469078795, 43.69994591813375 ], [ 23.63039276549237, 43.791049821134834 ], [ 23.40964276548462, 43.849912641252708 ], [ 22.997170932086586, 43.807867625668692 ] ] ] } },
{ "type": "Feature", "properties": { "NUTS_ID": "RO412", "name": "Gorj" }, "geometry": { "type": "Polygon", "coordinates": [ [ [ 22.686246392167913, 45.257960995396282 ], [ 23.590639817880344, 45.353072435616816 ], [ 23.822241677398239, 45.318443177327744 ], [ 23.841791357215524, 45.128951974703959 ], [ 23.758418238403507, 44.95772136164269 ], [ 23.780499537589531, 44.713986483125787 ], [ 23.679099656804812, 44.613432488244428 ], [ 23.455035292828644, 44.569561356996473 ], [ 23.009396133862939, 44.745338501402024 ], [ 22.851570500560449, 44.992328262032686 ], [ 22.65631123333754, 45.108543849274035 ], [ 22.583383030005606, 45.163017088368541 ], [ 22.686246392167913, 45.257960995396282 ] ] ] } },
{ "type": "Feature", "properties": { "NUTS_ID": "RO413", "name": "Mehedinţi" }, "geometry": { "type": "Polygon", "coordinates": [ [ [ 22.016132402403844, 44.599202319026197 ], [ 22.13349519652618, 44.60685945224575 ], [ 22.211077176253976, 44.798095464501479 ], [ 22.43030862950857, 44.805885525554444 ], [ 22.512811091700232, 44.984424154772874 ], [ 22.65631123333754, 45.108543849274035 ], [ 22.851570500560449, 44.992328262032686 ], [ 23.009396133862939, 44.745338501402024 ], [ 23.455035292828644, 44.569561356996473 ], [ 23.228841422872161, 44.48501428147285 ], [ 23.095492095600846, 44.226455470091331 ], [ 23.090094858079421, 44.162716415699265 ], [ 22.966368951627395, 44.098288519061633 ], [ 22.675161314798697, 44.215662905919601 ], [ 22.498303775858499, 44.44001848818386 ], [ 22.678622671282419, 44.548333084488036 ], [ 22.653216734592107, 44.602822745813086 ], [ 22.429139485221345, 44.69341731447458 ], [ 22.159088759548712, 44.503865715546787 ], [ 22.016132402403844, 44.599202319026197 ] ] ] } },
{ "type": "Feature", "properties": { "NUTS_ID": "RO414", "name": "Olt" }, "geometry": { "type": "Polygon", "coordinates": [ [ [ 24.112043469078795, 43.69994591813375 ], [ 24.247100473603112, 43.934505880577362 ], [ 24.195806108854402, 44.024634751809785 ], [ 24.224054965161454, 44.226455469579818 ], [ 23.910629531723703, 44.420394851856265 ], [ 23.929056046647016, 44.528122506143838 ], [ 24.299176021103413, 44.567516869964919 ], [ 24.293039470294968, 44.769727163963736 ], [ 24.382747326555776, 44.876501899615057 ], [ 24.438121026669872, 44.845375643068877 ], [ 24.5451587055238, 44.837875392361759 ], [ 24.683792415555402, 44.719198767072847 ], [ 24.761160402976017, 44.413387853000742 ], [ 24.884019298903681, 44.382636650454494 ], [ 24.82846750811505, 44.339932812116508 ], [ 24.835203733730754, 44.226455469860767 ], [ 24.830263843057676, 44.094798149261095 ], [ 24.616959980886364, 43.990107399159285 ], [ 24.729937850383116, 43.821050091488793 ], [ 24.654779713021473, 43.72358652900509 ], [ 24.491961181303459, 43.75295609799101 ], [ 24.323522460244565, 43.697685880485892 ], [ 24.112043469078795, 43.69994591813375 ] ] ] } },
{ "type": "Feature", "properties": { "NUTS_ID": "RO415", "name": "Vâlcea" }, "geometry": { "type": "Polygon", "coordinates": [ [ [ 23.780499537589531, 44.713986483125787 ], [ 23.758418238403507, 44.95772136164269 ], [ 23.841791357215524, 45.128951974703959 ], [ 23.822241677398239, 45.318443177327744 ], [ 23.590639817880344, 45.353072435616816 ], [ 23.597270386882688, 45.473471598639868 ], [ 23.703613205877495, 45.496771949092519 ], [ 24.523131752638836, 45.580564046698662 ], [ 24.501869743248278, 45.020389861936088 ], [ 24.438121026669872, 44.845375643068877 ], [ 24.382747326555776, 44.876501899615057 ], [ 24.293039470294968, 44.769727163963736 ], [ 24.299176021103413, 44.567516869964919 ], [ 23.929056046647016, 44.528122506143838 ], [ 23.780499537589531, 44.713986483125787 ] ] ] } },
{ "type": "Feature", "properties": { "NUTS_ID": "RO421", "name": "Arad" }, "geometry": { "type": "Polygon", "coordinates": [ [ [ 20.705303478874171, 46.160937350966272 ], [ 20.775600194482472, 46.275909916160835 ], [ 21.04128001954172, 46.25158220448936 ], [ 21.155802178113145, 46.308366748693693 ], [ 21.293305446736365, 46.430624462158541 ], [ 21.314099507611033, 46.597395896694401 ], [ 21.441398021259612, 46.651467104929772 ], [ 22.067089343555011, 46.637237030274655 ], [ 22.430308628267088, 46.39210011645541 ], [ 22.676575730318117, 46.405825491217705 ], [ 22.748715881423031, 46.351207325311414 ], [ 22.467366949648262, 46.186986459073339 ], [ 22.352794599305504, 45.972686516348013 ], [ 22.227894552447452, 45.914162271816302 ], [ 21.967632289809192, 45.984592714566695 ], [ 21.669232178861819, 45.931831476409123 ], [ 21.494545703945764, 46.048277705873595 ], [ 21.168772798060846, 45.977583808051875 ], [ 20.705303478874171, 46.160937350966272 ] ] ] } },
{ "type": "Feature", "properties": { "NUTS_ID": "RO422", "name": "Caraş-Severin" }, "geometry": { "type": "Polygon", "coordinates": [ [ [ 21.358469960517478, 44.821612129442833 ], [ 21.539709138832819, 44.900320022980658 ], [ 21.405640680171718, 45.002657767073558 ], [ 21.503999815847106, 45.131135623796006 ], [ 21.479178678685173, 45.193027653081352 ], [ 21.538862046322649, 45.279424625270515 ], [ 21.478720407353102, 45.463625043662191 ], [ 21.622307149761738, 45.568392475530736 ], [ 21.997779882384563, 45.505848186382806 ], [ 22.296959203774186, 45.631652716980618 ], [ 22.331018898636824, 45.659909773510456 ], [ 22.430308629194879, 45.667568028657108 ], [ 22.666896796611081, 45.491150995402045 ], [ 22.686246392167913, 45.257960995396282 ], [ 22.583383030005606, 45.163017088368541 ], [ 22.65631123333754, 45.108543849274035 ], [ 22.512811091700232, 44.984424154772874 ], [ 22.43030862950857, 44.805885525554444 ], [ 22.211077176253976, 44.798095464501479 ], [ 22.13349519652618, 44.60685945224575 ], [ 22.016132402403844, 44.599202319026197 ], [ 22.012350642172681, 44.602318527698813 ], [ 21.664827398480874, 44.663303985953512 ], [ 21.573019354862716, 44.751598795339902 ], [ 21.358469960517478, 44.821612129442833 ] ] ] } },
{ "type": "Feature", "properties": { "NUTS_ID": "RO423", "name": "Hunedoara" }, "geometry": { "type": "Polygon", "coordinates": [ [ [ 22.352794599305504, 45.972686516348013 ], [ 22.467366949648262, 46.186986459073339 ], [ 22.748715881423031, 46.351207325311414 ], [ 22.920935330555981, 46.315463770977281 ], [ 23.07135388439816, 46.185771542425314 ], [ 23.10098866538414, 46.065156409557368 ], [ 23.23081306919368, 46.013977890866656 ], [ 23.424170917229109, 45.622196575516455 ], [ 23.597270386882688, 45.473471598639868 ], [ 23.590639817880344, 45.353072435616816 ], [ 22.686246392167913, 45.257960995396282 ], [ 22.666896796611081, 45.491150995402045 ], [ 22.430308629194879, 45.667568028657108 ], [ 22.518325157353036, 45.772569076762572 ], [ 22.352794599305504, 45.972686516348013 ] ] ] } },
{ "type": "Feature", "properties": { "NUTS_ID": "RO424", "name": "Timiş" }, "geometry": { "type": "Polygon", "coordinates": [ [ [ 20.662833076636527, 45.794116085739503 ], [ 20.264296224765818, 46.126373643191954 ], [ 20.705303478874171, 46.160937350966272 ], [ 21.168772798060846, 45.977583808051875 ], [ 21.494545703945764, 46.048277705873595 ], [ 21.669232178861819, 45.931831476409123 ], [ 21.967632289809192, 45.984592714566695 ], [ 22.227894552447452, 45.914162271816302 ], [ 22.352794599305504, 45.972686516348013 ], [ 22.518325157353036, 45.772569076762572 ], [ 22.430308629194879, 45.667568028657108 ], [ 22.331018898636824, 45.659909773510456 ], [ 22.296959203774186, 45.631652716980618 ], [ 21.997779882384563, 45.505848186382806 ], [ 21.622307149761738, 45.568392475530736 ], [ 21.478720407353102, 45.463625043662191 ], [ 21.538862046322649, 45.279424625270515 ], [ 21.479178678685173, 45.193027653081352 ], [ 21.016575129315974, 45.324627569155417 ], [ 20.819630130248587, 45.491157041760751 ], [ 20.783088081496931, 45.631652716863449 ], [ 20.806875709552099, 45.756307245839544 ], [ 20.662833076636527, 45.794116085739503 ] ] ] } },
{ "type": "Feature", "properties": { "NUTS_ID": "RO111", "name": "Bihor" }, "geometry": { "type": "Polygon", "coordinates": [ [ [ 21.441398021259612, 46.651467104929772 ], [ 21.658955200081223, 47.022131523723623 ], [ 21.798781904559362, 47.132297528949465 ], [ 22.128230234699458, 47.59808935441886 ], [ 22.180837315509567, 47.60009435743855 ], [ 22.430308629014075, 47.423022595338928 ], [ 22.612679339737099, 47.334741484180832 ], [ 22.514808610599015, 47.172837434569608 ], [ 22.728178397693672, 47.007491078400768 ], [ 22.697172035074008, 46.952503772548162 ], [ 22.753657094984668, 46.894987336996714 ], [ 22.705043967439014, 46.783264746825289 ], [ 22.811960101652566, 46.568918702154541 ], [ 22.697324722327473, 46.527769636897638 ], [ 22.676575730318117, 46.405825491217705 ], [ 22.430308628267088, 46.39210011645541 ], [ 22.067089343555011, 46.637237030274655 ], [ 21.441398021259612, 46.651467104929772 ] ] ] } },
{ "type": "Feature", "properties": { "NUTS_ID": "RO112", "name": "Bistriţa-Năsăud" }, "geometry": { "type": "Polygon", "coordinates": [ [ [ 24.022714582597473, 47.361948073502056 ], [ 24.361006974945969, 47.595726009166228 ], [ 24.960837706639182, 47.596851131313564 ], [ 25.07461442460864, 47.483956352408129 ], [ 25.063480172623155, 47.13644995072773 ], [ 24.844602091245346, 47.082657172638783 ], [ 24.72509562606167, 46.931876666970794 ], [ 24.572024763517899, 46.921368719680245 ], [ 24.392329885493822, 46.760638367008283 ], [ 24.179575284994236, 46.804696388302908 ], [ 24.211081089331053, 46.894434793775467 ], [ 24.116532716750996, 46.989630558270491 ], [ 24.120137229849806, 47.098303384758339 ], [ 23.947995826111384, 47.215205478251207 ], [ 24.022714582597473, 47.361948073502056 ] ] ] } },
{ "type": "Feature", "properties": { "NUTS_ID": "RO113", "name": "Cluj" }, "geometry": { "type": "Polygon", "coordinates": [ [ [ 22.728178397693672, 47.007491078400768 ], [ 23.117686903458168, 46.870100079479158 ], [ 23.321987117431277, 46.912701920864173 ], [ 23.459616175770694, 47.026597459097943 ], [ 23.504566174243461, 47.143068958994832 ], [ 23.841383803243943, 47.340007595523709 ], [ 24.022714582597473, 47.361948073502056 ], [ 23.947995826111384, 47.215205478251207 ], [ 24.120137229849806, 47.098303384758339 ], [ 24.116532716750996, 46.989630558270491 ], [ 24.211081089331053, 46.894434793775467 ], [ 24.179575284994236, 46.804696388302908 ], [ 24.089070418403537, 46.737823252973065 ], [ 23.985275040630519, 46.430917953316317 ], [ 23.623065128446267, 46.432814662081249 ], [ 23.402779129647939, 46.526730056995589 ], [ 23.064054994734313, 46.481747925528346 ], [ 22.811960101652566, 46.568918702154541 ], [ 22.705043967439014, 46.783264746825289 ], [ 22.753657094984668, 46.894987336996714 ], [ 22.697172035074008, 46.952503772548162 ], [ 22.728178397693672, 47.007491078400768 ] ] ] } },
{ "type": "Feature", "properties": { "NUTS_ID": "RO114", "name": "Maramureş" }, "geometry": { "type": "Polygon", "coordinates": [ [ [ 23.493605066501228, 47.967811649463144 ], [ 23.553525557468674, 48.001061114354556 ], [ 23.564264746758511, 48.007020216542941 ], [ 23.957628389512418, 47.944087647855376 ], [ 24.22150158572919, 47.90187170293126 ], [ 24.562728825541505, 47.968471188675771 ], [ 24.562784813098144, 47.968482115712909 ], [ 24.921658615479124, 47.726723058151833 ], [ 24.922322598485906, 47.72678572055284 ], [ 24.947100602187504, 47.72912408960763 ], [ 25.00701850453434, 47.661830893331235 ], [ 24.960837706639182, 47.596851131313564 ], [ 24.361006974945969, 47.595726009166228 ], [ 24.022714582597473, 47.361948073502056 ], [ 23.841383803243943, 47.340007595523709 ], [ 23.106106845169386, 47.442357872862296 ], [ 22.975603558857731, 47.466088246333378 ], [ 23.111613394872673, 47.596753874678924 ], [ 23.230288267495208, 47.571993561055578 ], [ 23.317403957973802, 47.643033895064029 ], [ 23.267818938568812, 47.776970866991029 ], [ 23.46226667114049, 47.774407240616881 ], [ 23.610870021440576, 47.856829503952163 ], [ 23.493605066501228, 47.967811649463144 ] ] ] } },
{ "type": "Feature", "properties": { "NUTS_ID": "RO115", "name": "Satu Mare" }, "geometry": { "type": "Polygon", "coordinates": [ [ [ 22.180837315509567, 47.60009435743855 ], [ 22.271069142245565, 47.721615402929096 ], [ 22.430308628690831, 47.758870354326689 ], [ 22.693776774486114, 47.802332676646081 ], [ 22.896270513298973, 47.954120534091558 ], [ 23.210174042696906, 48.094941290055409 ], [ 23.359426539206993, 48.027995844631143 ], [ 23.493605066501228, 47.967811649463144 ], [ 23.610870021440576, 47.856829503952163 ], [ 23.46226667114049, 47.774407240616881 ], [ 23.267818938568812, 47.776970866991029 ], [ 23.317403957973802, 47.643033895064029 ], [ 23.230288267495208, 47.571993561055578 ], [ 23.111613394872673, 47.596753874678924 ], [ 22.975603558857731, 47.466088246333378 ], [ 23.106106845169386, 47.442357872862296 ], [ 23.046270069768894, 47.357917937910521 ], [ 22.798695583336404, 47.41569173119855 ], [ 22.612679339737099, 47.334741484180832 ], [ 22.430308629014075, 47.423022595338928 ], [ 22.180837315509567, 47.60009435743855 ] ] ] } },
{ "type": "Feature", "properties": { "NUTS_ID": "RO116", "name": "Sălaj" }, "geometry": { "type": "Polygon", "coordinates": [ [ [ 22.612679339737099, 47.334741484180832 ], [ 22.798695583336404, 47.41569173119855 ], [ 23.046270069768894, 47.357917937910521 ], [ 23.106106845169386, 47.442357872862296 ], [ 23.841383803243943, 47.340007595523709 ], [ 23.504566174243461, 47.143068958994832 ], [ 23.459616175770694, 47.026597459097943 ], [ 23.321987117431277, 46.912701920864173 ], [ 23.117686903458168, 46.870100079479158 ], [ 22.728178397693672, 47.007491078400768 ], [ 22.514808610599015, 47.172837434569608 ], [ 22.612679339737099, 47.334741484180832 ] ] ] } },
{ "type": "Feature", "properties": { "NUTS_ID": "RO121", "name": "Alba" }, "geometry": { "type": "Polygon", "coordinates": [ [ [ 22.676575730318117, 46.405825491217705 ], [ 22.697324722327473, 46.527769636897638 ], [ 22.811960101652566, 46.568918702154541 ], [ 23.064054994734313, 46.481747925528346 ], [ 23.402779129647939, 46.526730056995589 ], [ 23.623065128446267, 46.432814662081249 ], [ 23.985275040630519, 46.430917953316317 ], [ 24.231311302492255, 46.259640000616884 ], [ 24.00436140534633, 46.025135531334563 ], [ 23.857556458941914, 46.004356738682944 ], [ 23.626248592763492, 45.743895753313161 ], [ 23.633581919221388, 45.62219657549398 ], [ 23.634014589962721, 45.541743591464773 ], [ 23.703613205877495, 45.496771949092519 ], [ 23.597270386882688, 45.473471598639868 ], [ 23.424170917229109, 45.622196575516455 ], [ 23.23081306919368, 46.013977890866656 ], [ 23.10098866538414, 46.065156409557368 ], [ 23.07135388439816, 46.185771542425314 ], [ 22.920935330555981, 46.315463770977281 ], [ 22.748715881423031, 46.351207325311414 ], [ 22.676575730318117, 46.405825491217705 ] ] ] } },
{ "type": "Feature", "properties": { "NUTS_ID": "RO122", "name": "Braşov" }, "geometry": { "type": "Polygon", "coordinates": [ [ [ 24.684925427718735, 45.604111133215596 ], [ 24.670149253844315, 45.768096955716985 ], [ 24.738784783597719, 45.933385124961553 ], [ 24.946548719656437, 46.079109149700798 ], [ 25.173251150145131, 46.1655193467152 ], [ 25.451594544334867, 46.104198941605034 ], [ 25.550038168449536, 46.027149247894634 ], [ 25.588689199720704, 45.82838099139353 ], [ 26.014069541179325, 45.622196575823637 ], [ 26.093213128436268, 45.516234390262682 ], [ 26.072718597334038, 45.505787949568571 ], [ 25.929553578897057, 45.50438753660017 ], [ 25.858955211731228, 45.443345395339371 ], [ 25.67609568665749, 45.486274589577683 ], [ 25.45253914636584, 45.44134205709706 ], [ 25.32158301104208, 45.381004174479756 ], [ 25.231654118668896, 45.517581559824045 ], [ 25.080043622529793, 45.583789403508078 ], [ 24.684925427718735, 45.604111133215596 ] ] ] } },
{ "type": "Feature", "properties": { "NUTS_ID": "RO123", "name": "Covasna" }, "geometry": { "type": "Polygon", "coordinates": [ [ [ 25.451594544334867, 46.104198941605034 ], [ 25.677228212325961, 46.260929894359194 ], [ 25.905317517476533, 46.12371021023894 ], [ 26.16576278055236, 46.169748300398908 ], [ 26.26343885211881, 46.246338475620476 ], [ 26.439984493592853, 46.038876502866167 ], [ 26.392094665512637, 45.802389394498441 ], [ 26.318733059132086, 45.641017627713182 ], [ 26.093213128436268, 45.516234390262682 ], [ 26.014069541179325, 45.622196575823637 ], [ 25.588689199720704, 45.82838099139353 ], [ 25.550038168449536, 46.027149247894634 ], [ 25.451594544334867, 46.104198941605034 ] ] ] } },
{ "type": "Feature", "properties": { "NUTS_ID": "RO124", "name": "Harghita" }, "geometry": { "type": "Polygon", "coordinates": [ [ [ 25.173251150145131, 46.1655193467152 ], [ 24.924527233965911, 46.26354586103723 ], [ 24.868564270447777, 46.337388572889921 ], [ 25.030832318099637, 46.53215534287601 ], [ 25.27256851012724, 46.690943753763484 ], [ 25.246710322945997, 47.09791910017703 ], [ 25.397932671515949, 47.173606617972212 ], [ 25.661597350485291, 47.091768446806412 ], [ 25.78649138619901, 46.990585571848776 ], [ 25.82978945229674, 46.689462395638799 ], [ 25.975159434373396, 46.697312551190976 ], [ 26.046324986094081, 46.518887875753009 ], [ 26.015553493796677, 46.415826705742369 ], [ 26.269273410549086, 46.321422945479867 ], [ 26.26343885211881, 46.246338475620476 ], [ 26.16576278055236, 46.169748300398908 ], [ 25.905317517476533, 46.12371021023894 ], [ 25.677228212325961, 46.260929894359194 ], [ 25.451594544334867, 46.104198941605034 ], [ 25.173251150145131, 46.1655193467152 ] ] ] } },
{ "type": "Feature", "properties": { "NUTS_ID": "RO125", "name": "Mureş" }, "geometry": { "type": "Polygon", "coordinates": [ [ [ 23.985275040630519, 46.430917953316317 ], [ 24.089070418403537, 46.737823252973065 ], [ 24.179575284994236, 46.804696388302908 ], [ 24.392329885493822, 46.760638367008283 ], [ 24.572024763517899, 46.921368719680245 ], [ 24.72509562606167, 46.931876666970794 ], [ 24.844602091245346, 47.082657172638783 ], [ 25.063480172623155, 47.13644995072773 ], [ 25.246710322945997, 47.09791910017703 ], [ 25.27256851012724, 46.690943753763484 ], [ 25.030832318099637, 46.53215534287601 ], [ 24.868564270447777, 46.337388572889921 ], [ 24.924527233965911, 46.26354586103723 ], [ 25.173251150145131, 46.1655193467152 ], [ 24.946548719656437, 46.079109149700798 ], [ 24.702230086870518, 46.095790936918519 ], [ 24.640692932291778, 46.268039678906746 ], [ 24.231311302492255, 46.259640000616884 ], [ 23.985275040630519, 46.430917953316317 ] ] ] } },
{ "type": "Feature", "properties": { "NUTS_ID": "RO126", "name": "Sibiu" }, "geometry": { "type": "Polygon", "coordinates": [ [ [ 23.703613205877495, 45.496771949092519 ], [ 23.634014589962721, 45.541743591464773 ], [ 23.633581919221388, 45.62219657549398 ], [ 23.626248592763492, 45.743895753313161 ], [ 23.857556458941914, 46.004356738682944 ], [ 24.00436140534633, 46.025135531334563 ], [ 24.231311302492255, 46.259640000616884 ], [ 24.640692932291778, 46.268039678906746 ], [ 24.702230086870518, 46.095790936918519 ], [ 24.946548719656437, 46.079109149700798 ], [ 24.738784783597719, 45.933385124961553 ], [ 24.670149253844315, 45.768096955716985 ], [ 24.684925427718735, 45.604111133215596 ], [ 24.523131752638836, 45.580564046698662 ], [ 23.703613205877495, 45.496771949092519 ] ] ] } },
{ "type": "Feature", "properties": { "NUTS_ID": "RO211", "name": "Bacău" }, "geometry": { "type": "Polygon", "coordinates": [ [ [ 26.439984493592853, 46.038876502866167 ], [ 26.26343885211881, 46.246338475620476 ], [ 26.269273410549086, 46.321422945479867 ], [ 26.015553493796677, 46.415826705742369 ], [ 26.046324986094081, 46.518887875753009 ], [ 25.975159434373396, 46.697312551190976 ], [ 26.360593903538625, 46.656261108554887 ], [ 26.880370441773792, 46.792188477417746 ], [ 27.206218757732071, 46.769848492725771 ], [ 27.303545124378406, 46.698436127958352 ], [ 27.492818559427526, 46.159212862624351 ], [ 27.292599626593855, 46.196181740207933 ], [ 26.907740183955955, 46.070410356270486 ], [ 26.439984493592853, 46.038876502866167 ] ] ] } },
{ "type": "Feature", "properties": { "NUTS_ID": "RO212", "name": "Botoşani" }, "geometry": { "type": "Polygon", "coordinates": [ [ [ 26.700571948673268, 47.471711834432128 ], [ 26.594345660773484, 47.48205625145664 ], [ 26.496749122482704, 47.684653426601677 ], [ 26.098827336191899, 47.978795830716606 ], [ 26.213572018062358, 48.024222685773033 ], [ 26.351127204229719, 48.182030900577317 ], [ 26.514036227235433, 48.227341082180359 ], [ 26.630559912278823, 48.259750026229938 ], [ 26.807912517757956, 48.245481052171236 ], [ 27.028315637378103, 48.137354152407163 ], [ 27.174519283944306, 47.943391391267426 ], [ 27.28434370173483, 47.758066493909375 ], [ 27.391166482437068, 47.589397348325967 ], [ 27.118431378357631, 47.530500435925646 ], [ 27.050765530154791, 47.457208022270187 ], [ 26.700571948673268, 47.471711834432128 ] ] ] } },
{ "type": "Feature", "properties": { "NUTS_ID": "RO213", "name": "Iaşi" }, "geometry": { "type": "Polygon", "coordinates": [ [ [ 27.202339766238911, 46.882343024053654 ], [ 27.169205646525555, 46.94150896398795 ], [ 27.21719325186821, 47.016627998863761 ], [ 27.168663799417637, 47.066128970873223 ], [ 26.846348763592729, 47.041024091177455 ], [ 26.649522812249376, 47.105508595631264 ], [ 26.507789502551343, 47.271693571777078 ], [ 26.519102027494029, 47.369101124278501 ], [ 26.65565495752568, 47.367515540138463 ], [ 26.700571948673268, 47.471711834432128 ], [ 27.050765530154791, 47.457208022270187 ], [ 27.118431378357631, 47.530500435925646 ], [ 27.391166482437068, 47.589397348325967 ], [ 27.401127320113254, 47.584377488307496 ], [ 27.583645267977719, 47.375934380571017 ], [ 27.747395087508391, 47.264778238210489 ], [ 27.831098042179036, 47.119856147458812 ], [ 28.036803403226529, 47.028969892846746 ], [ 28.110349477549128, 46.9231929220323 ], [ 28.113805604905085, 46.838411042999326 ], [ 27.900212322159081, 46.837858448156332 ], [ 27.656080496487117, 46.950251046727182 ], [ 27.475024850021555, 46.88109167141797 ], [ 27.202339766238911, 46.882343024053654 ] ] ] } },
{ "type": "Feature", "properties": { "NUTS_ID": "RO214", "name": "Neamţ" }, "geometry": { "type": "Polygon", "coordinates": [ [ [ 27.206218757732071, 46.769848492725771 ], [ 26.880370441773792, 46.792188477417746 ], [ 26.360593903538625, 46.656261108554887 ], [ 25.975159434373396, 46.697312551190976 ], [ 25.82978945229674, 46.689462395638799 ], [ 25.78649138619901, 46.990585571848776 ], [ 25.661597350485291, 47.091768446806412 ], [ 25.840104674496338, 47.291416458127081 ], [ 26.396413811691627, 47.327620245963985 ], [ 26.507789502551343, 47.271693571777078 ], [ 26.649522812249376, 47.105508595631264 ], [ 26.846348763592729, 47.041024091177455 ], [ 27.168663799417637, 47.066128970873223 ], [ 27.21719325186821, 47.016627998863761 ], [ 27.169205646525555, 46.94150896398795 ], [ 27.202339766238911, 46.882343024053654 ], [ 27.206218757732071, 46.769848492725771 ] ] ] } },
{ "type": "Feature", "properties": { "NUTS_ID": "RO215", "name": "Suceava" }, "geometry": { "type": "Polygon", "coordinates": [ [ [ 25.063480172623155, 47.13644995072773 ], [ 25.07461442460864, 47.483956352408129 ], [ 24.960837706639182, 47.596851131313564 ], [ 25.00701850453434, 47.661830893331235 ], [ 24.947100602187504, 47.72912408960763 ], [ 25.0922289223065, 47.750349864021779 ], [ 25.303419555669585, 47.910244649415127 ], [ 25.44528181122708, 47.922470862216549 ], [ 26.098827336191899, 47.978795830716606 ], [ 26.496749122482704, 47.684653426601677 ], [ 26.594345660773484, 47.48205625145664 ], [ 26.700571948673268, 47.471711834432128 ], [ 26.65565495752568, 47.367515540138463 ], [ 26.519102027494029, 47.369101124278501 ], [ 26.507789502551343, 47.271693571777078 ], [ 26.396413811691627, 47.327620245963985 ], [ 25.840104674496338, 47.291416458127081 ], [ 25.661597350485291, 47.091768446806412 ], [ 25.397932671515949, 47.173606617972212 ], [ 25.246710322945997, 47.09791910017703 ], [ 25.063480172623155, 47.13644995072773 ] ] ] } },
{ "type": "Feature", "properties": { "NUTS_ID": "RO216", "name": "Vaslui" }, "geometry": { "type": "Polygon", "coordinates": [ [ [ 27.50305308904025, 46.13962082956931 ], [ 27.492818559427526, 46.159212862624351 ], [ 27.303545124378406, 46.698436127958352 ], [ 27.206218757732071, 46.769848492725771 ], [ 27.202339766238911, 46.882343024053654 ], [ 27.475024850021555, 46.88109167141797 ], [ 27.656080496487117, 46.950251046727182 ], [ 27.900212322159081, 46.837858448156332 ], [ 28.113805604905085, 46.838411042999326 ], [ 28.244513117663686, 46.63660599321102 ], [ 28.23499278741194, 46.390073366827501 ], [ 28.125923097410535, 46.247021871676054 ], [ 28.115801867637227, 46.107827075081069 ], [ 28.113114528973671, 46.113287587169388 ], [ 27.620909486555519, 46.137162077247403 ], [ 27.565240065475201, 46.020602095817942 ], [ 27.50305308904025, 46.13962082956931 ] ] ] } },
{ "type": "Feature", "properties": { "NUTS_ID": "RO221", "name": "Brăila" }, "geometry": { "type": "Polygon", "coordinates": [ [ [ 27.881007007847227, 44.763076452081506 ], [ 27.818808653218852, 44.803293353956725 ], [ 27.203458352104022, 44.787073931230587 ], [ 27.263069901514235, 44.985966387529444 ], [ 27.089100643929818, 45.166072103788025 ], [ 27.166823876437469, 45.232096677538756 ], [ 27.311078072045607, 45.227436927810366 ], [ 27.434726663952897, 45.394702011543927 ], [ 27.558515431108823, 45.488375647083259 ], [ 28.030517447672143, 45.404328005682082 ], [ 28.027935114115575, 45.307102933217159 ], [ 28.164828095367817, 45.131382901275366 ], [ 28.074108593724123, 44.803887069370568 ], [ 27.881007007847227, 44.763076452081506 ] ] ] } },
{ "type": "Feature", "properties": { "NUTS_ID": "RO222", "name": "Buzău" }, "geometry": { "type": "Polygon", "coordinates": [ [ [ 26.605551439360898, 44.856993863147096 ], [ 26.44855273721338, 45.176194705795801 ], [ 26.251244162026492, 45.220842071301995 ], [ 26.072718597334038, 45.505787949568571 ], [ 26.093213128436268, 45.516234390262682 ], [ 26.318733059132086, 45.641017627713182 ], [ 26.392094665512637, 45.802389394498441 ], [ 26.600714314163859, 45.627960995657716 ], [ 27.113344876924494, 45.432947746563151 ], [ 27.434726663952897, 45.394702011543927 ], [ 27.311078072045607, 45.227436927810366 ], [ 27.166823876437469, 45.232096677538756 ], [ 27.089100643929818, 45.166072103788025 ], [ 27.263069901514235, 44.985966387529444 ], [ 27.203458352104022, 44.787073931230587 ], [ 26.605551439360898, 44.856993863147096 ] ] ] } },
{ "type": "Feature", "properties": { "NUTS_ID": "RO223", "name": "Constanţa" }, "geometry": { "type": "Polygon", "coordinates": [ [ [ 28.57886540207587, 43.738696446706165 ], [ 28.113114529359663, 43.798596731839396 ], [ 27.999943682209139, 43.854747741148834 ], [ 27.924004622493396, 43.98787781863313 ], [ 27.695410010063529, 43.987342921266574 ], [ 27.394614923157803, 44.02155446797736 ], [ 27.271340275074547, 44.126335360923363 ], [ 27.77109373296604, 44.226455469642723 ], [ 27.93303141220834, 44.259797063103633 ], [ 28.017374178040559, 44.340249051617995 ], [ 28.091214510449969, 44.455766310039543 ], [ 27.881007007847227, 44.763076452081506 ], [ 28.074108593724123, 44.803887069370568 ], [ 28.504685782183447, 44.655285686062491 ], [ 28.994085056625188, 44.679625378204477 ], [ 28.638972677321178, 44.305145747638463 ], [ 28.655239221552097, 43.984493315921299 ], [ 28.57886540207587, 43.738696446706165 ] ] ] } },
{ "type": "Feature", "properties": { "NUTS_ID": "RO224", "name": "Galaţi" }, "geometry": { "type": "Polygon", "coordinates": [ [ [ 28.030517447672143, 45.404328005682082 ], [ 27.558515431108823, 45.488375647083259 ], [ 27.509976547640857, 45.62219657577586 ], [ 27.354248100701131, 45.750011812010598 ], [ 27.241609478147076, 45.994944743032271 ], [ 27.277070333174048, 46.067171391248621 ], [ 27.50305308904025, 46.13962082956931 ], [ 27.565240065475201, 46.020602095817942 ], [ 27.620909486555519, 46.137162077247403 ], [ 28.113114528973671, 46.113287587169388 ], [ 28.155940325584471, 45.716898560557475 ], [ 28.114926976996681, 45.604196786707206 ], [ 28.211359774254689, 45.467279942410912 ], [ 28.11311452913997, 45.440325146867174 ], [ 28.030517447672143, 45.404328005682082 ] ] ] } },
{ "type": "Feature", "properties": { "NUTS_ID": "RO225", "name": "Tulcea" }, "geometry": { "type": "Polygon", "coordinates": [ [ [ 28.994085056625188, 44.679625378204477 ], [ 28.504685782183447, 44.655285686062491 ], [ 28.074108593724123, 44.803887069370568 ], [ 28.164828095367817, 45.131382901275366 ], [ 28.027935114115575, 45.307102933217159 ], [ 28.030517447672143, 45.404328005682082 ], [ 28.11311452913997, 45.440325146867174 ], [ 28.211359774254689, 45.467279942410912 ], [ 28.376424345525656, 45.314916851568363 ], [ 28.697815405418215, 45.230048975274741 ], [ 29.226747471263781, 45.425265358172332 ], [ 29.439652548866938, 45.435812478556834 ], [ 29.630580831042035, 45.348834555543995 ], [ 29.679639740192773, 45.211837821780009 ], [ 29.575284696169124, 44.827708409080451 ], [ 29.172699328939107, 44.777871470903605 ], [ 28.994085056625188, 44.679625378204477 ] ] ] } },
{ "type": "Feature", "properties": { "NUTS_ID": "RO226", "name": "Vrancea" }, "geometry": { "type": "Polygon", "coordinates": [ [ [ 27.434726663952897, 45.394702011543927 ], [ 27.113344876924494, 45.432947746563151 ], [ 26.600714314163859, 45.627960995657716 ], [ 26.392094665512637, 45.802389394498441 ], [ 26.439984493592853, 46.038876502866167 ], [ 26.907740183955955, 46.070410356270486 ], [ 27.292599626593855, 46.196181740207933 ], [ 27.492818559427526, 46.159212862624351 ], [ 27.50305308904025, 46.13962082956931 ], [ 27.277070333174048, 46.067171391248621 ], [ 27.241609478147076, 45.994944743032271 ], [ 27.354248100701131, 45.750011812010598 ], [ 27.509976547640857, 45.62219657577586 ], [ 27.558515431108823, 45.488375647083259 ], [ 27.434726663952897, 45.394702011543927 ] ] ] } },
{ "type": "Feature", "properties": { "NUTS_ID": "RO311", "name": "Argeş" }, "geometry": { "type": "Polygon", "coordinates": [ [ [ 24.438121026669872, 44.845375643068877 ], [ 24.501869743248278, 45.020389861936088 ], [ 24.523131752638836, 45.580564046698662 ], [ 24.684925427718735, 45.604111133215596 ], [ 25.080043622529793, 45.583789403508078 ], [ 25.231654118668896, 45.517581559824045 ], [ 25.32158301104208, 45.381004174479756 ], [ 25.27224214538807, 45.22307682140373 ], [ 25.150887783344992, 45.097627412418333 ], [ 25.20519136658536, 44.635429680261574 ], [ 25.271298721681685, 44.527830436414696 ], [ 25.23474972681873, 44.424252029257637 ], [ 24.884019298903681, 44.382636650454494 ], [ 24.761160402976017, 44.413387853000742 ], [ 24.683792415555402, 44.719198767072847 ], [ 24.5451587055238, 44.837875392361759 ], [ 24.438121026669872, 44.845375643068877 ] ] ] } },
{ "type": "Feature", "properties": { "NUTS_ID": "RO312", "name": "Călăraşi" }, "geometry": { "type": "Polygon", "coordinates": [ [ [ 27.271340275074547, 44.126335360923363 ], [ 26.949016691319912, 44.138401688120219 ], [ 26.699290346170187, 44.080499636655105 ], [ 26.381823175563682, 44.038612069792293 ], [ 26.407543703468814, 44.167159074639152 ], [ 26.361950153750154, 44.226455469627638 ], [ 26.259956255425646, 44.294986060192279 ], [ 26.416060306411996, 44.521682910694878 ], [ 26.673165255751712, 44.557328704246032 ], [ 27.548479536923661, 44.508947440483716 ], [ 27.802866744433068, 44.358971357192907 ], [ 28.017374178040559, 44.340249051617995 ], [ 27.93303141220834, 44.259797063103633 ], [ 27.77109373296604, 44.226455469642723 ], [ 27.271340275074547, 44.126335360923363 ] ] ] } }
]
}
