{
"type": "FeatureCollection",
"name": "RS",
"crs": { "type": "name", "properties": { "name": "urn:ogc:def:crs:OGC:1.3:CRS84" } },
"features": [
{ "type": "Feature", "properties": { "NUTS_ID": "RS110", "name": "City of Belgrade" }, "geometry": { "type": "Polygon", "coordinates": [ [ [ 20.334134955235744, 45.074410073411237 ], [ 20.374817255820805, 45.096464136747088 ], [ 20.414361044171983, 45.084168059454058 ], [ 20.599692253388273, 44.907623050930717 ], [ 20.654567397589805, 44.74344753113273 ], [ 20.819536955443152, 44.657872977149928 ], [ 20.768702884875879, 44.551635216048986 ], [ 20.828300375359444, 44.469399524954689 ], [ 20.764034809380664, 44.410158560127776 ], [ 20.783537799383723, 44.326623836111686 ], [ 20.479653446496513, 44.42930832107713 ], [ 20.400345750546251, 44.313118388828066 ], [ 20.265911707207778, 44.291981327760347 ], [ 20.214327104516975, 44.344665489826205 ], [ 20.217454195883782, 44.515558380536426 ], [ 19.99030928801449, 44.585647374449856 ], [ 19.985849286562267, 44.642281002936926 ], [ 20.107059338473576, 44.709664212295216 ], [ 20.161643561558851, 44.877873003553098 ], [ 20.287313741446699, 44.953781293616039 ], [ 20.334134955235744, 45.074410073411237 ] ] ] } },
{ "type": "Feature", "properties": { "NUTS_ID": "RS121", "name": "Zapadnobačka oblast " }, "geometry": { "type": "Polygon", "coordinates": [ [ [ 18.889734226918243, 45.921180385274695 ], [ 19.023358659648615, 45.936491362855882 ], [ 19.11061960656118, 46.017029947409547 ], [ 19.302709396396335, 45.991550553510166 ], [ 19.389191699483231, 45.821632075400487 ], [ 19.594730921296748, 45.697194647996042 ], [ 19.588692419252062, 45.631652716139421 ], [ 19.343859714671002, 45.435602305563194 ], [ 19.033942110436563, 45.486821378747308 ], [ 19.062750391729626, 45.527687771428369 ], [ 18.930541004809093, 45.567537479726852 ], [ 18.946807979014608, 45.631652716118346 ], [ 18.959255696339238, 45.731861338844439 ], [ 18.872714159595638, 45.820678086362562 ], [ 18.889734226918243, 45.921180385274695 ] ] ] } },
{ "type": "Feature", "properties": { "NUTS_ID": "RS122", "name": "Južnobanatska oblast" }, "geometry": { "type": "Polygon", "coordinates": [ [ [ 21.016575129315974, 45.324627569155417 ], [ 21.479178678685173, 45.193027653081352 ], [ 21.503999815847106, 45.131135623796006 ], [ 21.405640680171718, 45.002657767073558 ], [ 21.539709138832819, 44.900320022980658 ], [ 21.358469960517478, 44.821612129442833 ], [ 21.037480201022486, 44.718150564459123 ], [ 20.819536955443152, 44.657872977149928 ], [ 20.654567397589805, 44.74344753113273 ], [ 20.599692253388273, 44.907623050930717 ], [ 20.414361044171983, 45.084168059454058 ], [ 20.530960478750607, 45.216596157220451 ], [ 20.745626039737427, 45.185127441618853 ], [ 21.016575129315974, 45.324627569155417 ] ] ] } },
{ "type": "Feature", "properties": { "NUTS_ID": "RS123", "name": "Južnobačka oblast" }, "geometry": { "type": "Polygon", "coordinates": [ [ [ 19.005261752422548, 45.434630634084492 ], [ 19.033942110436563, 45.486821378747308 ], [ 19.343859714671002, 45.435602305563194 ], [ 19.588692419252062, 45.631652716139421 ], [ 19.722770204313502, 45.627737731388578 ], [ 19.878468130957835, 45.763435626797396 ], [ 20.12947082742037, 45.711382390409412 ], [ 20.079887999006605, 45.591840445489986 ], [ 20.246330706661666, 45.337840974158766 ], [ 20.274852893923828, 45.135302410708192 ], [ 20.13712072258911, 45.186642941514599 ], [ 19.42525675518722, 45.167717515388475 ], [ 19.396504645333259, 45.226193590672807 ], [ 19.006952593461367, 45.367975457717769 ], [ 19.005261752422548, 45.434630634084492 ] ] ] } },
{ "type": "Feature", "properties": { "NUTS_ID": "RS124", "name": "Severnobanatska oblast" }, "geometry": { "type": "Polygon", "coordinates": [ [ [ 19.878468130957835, 45.763435626797396 ], [ 19.80779051844468, 45.874869408801992 ], [ 19.865389789565892, 46.150334617041786 ], [ 20.264296224765818, 46.126373643191954 ], [ 20.662833076636527, 45.794116085739503 ], [ 20.538130068664714, 45.65066730087797 ], [ 20.429238110008431, 45.615148732428622 ], [ 20.358542069602574, 45.624127721271968 ], [ 20.392585814496705, 45.704644657911508 ], [ 20.330112231464977, 45.768572644351096 ], [ 20.12947082742037, 45.711382390409412 ], [ 19.878468130957835, 45.763435626797396 ] ] ] } },
{ "type": "Feature", "properties": { "NUTS_ID": "RS125", "name": "Severnobačka oblast" }, "geometry": { "type": "Polygon", "coordinates": [ [ [ 19.588692419252062, 45.631652716139421 ], [ 19.594730921296748, 45.697194647996042 ], [ 19.389191699483231, 45.821632075400487 ], [ 19.302709396396335, 45.991550553510166 ], [ 19.572542475865731, 46.167764917449524 ], [ 19.698098775235206, 46.187930896303286 ], [ 19.865389789565892, 46.150334617041786 ], [ 19.80779051844468, 45.874869408801992 ], [ 19.878468130957835, 45.763435626797396 ], [ 19.722770204313502, 45.627737731388578 ], [ 19.588692419252062, 45.631652716139421 ] ] ] } },
{ "type": "Feature", "properties": { "NUTS_ID": "RS126", "name": "Srednjobanatska oblast" }, "geometry": { "type": "Polygon", "coordinates": [ [ [ 20.274852893923828, 45.135302410708192 ], [ 20.246330706661666, 45.337840974158766 ], [ 20.079887999006605, 45.591840445489986 ], [ 20.12947082742037, 45.711382390409412 ], [ 20.330112231464977, 45.768572644351096 ], [ 20.392585814496705, 45.704644657911508 ], [ 20.358542069602574, 45.624127721271968 ], [ 20.429238110008431, 45.615148732428622 ], [ 20.538130068664714, 45.65066730087797 ], [ 20.662833076636527, 45.794116085739503 ], [ 20.806875709552099, 45.756307245839544 ], [ 20.783088081496931, 45.631652716863449 ], [ 20.819630130248587, 45.491157041760751 ], [ 21.016575129315974, 45.324627569155417 ], [ 20.745626039737427, 45.185127441618853 ], [ 20.530960478750607, 45.216596157220451 ], [ 20.414361044171983, 45.084168059454058 ], [ 20.374817255820805, 45.096464136747088 ], [ 20.334134955235744, 45.074410073411237 ], [ 20.274852893923828, 45.135302410708192 ] ] ] } },
{ "type": "Feature", "properties": { "NUTS_ID": "RS127", "name": "Sremska oblast" }, "geometry": { "type": "Polygon", "coordinates": [ [ [ 19.022069416566858, 44.855353935858737 ], [ 19.015174366812811, 44.897311115599763 ], [ 19.12915645598677, 44.946331283352364 ], [ 19.102741742356482, 45.114799485687286 ], [ 19.228016445474442, 45.181959109626341 ], [ 19.42525675518722, 45.167717515388475 ], [ 20.13712072258911, 45.186642941514599 ], [ 20.274852893923828, 45.135302410708192 ], [ 20.334134955235744, 45.074410073411237 ], [ 20.287313741446699, 44.953781293616039 ], [ 20.161643561558851, 44.877873003553098 ], [ 20.107059338473576, 44.709664212295216 ], [ 19.985849286562267, 44.642281002936926 ], [ 19.726517539892498, 44.76679855188803 ], [ 19.694972128448086, 44.912724926330469 ], [ 19.351161595427993, 44.889059352169198 ], [ 19.175003794064395, 44.912396325417433 ], [ 19.022069416566858, 44.855353935858737 ] ] ] } },
{ "type": "Feature", "properties": { "NUTS_ID": "RS211", "name": "Zlatiborska oblast" }, "geometry": { "type": "Polygon", "coordinates": [ [ [ 19.224123169478361, 43.527485998026748 ], [ 19.493891239027583, 43.634288771351386 ], [ 19.482911888480189, 43.728235847726758 ], [ 19.289543329386845, 43.959937252244714 ], [ 19.538675090546469, 44.009454883343338 ], [ 19.497113024463275, 44.099052842694618 ], [ 19.644015887116975, 44.16819061615633 ], [ 19.803854579892548, 44.097938484552337 ], [ 20.074837556613655, 44.111766936269788 ], [ 20.181037648262656, 43.692941310673724 ], [ 19.94544740849571, 43.546192260536117 ], [ 20.147008390795886, 43.329229557022863 ], [ 20.295800418202017, 43.311691014353237 ], [ 20.24593489924267, 43.17979960034728 ], [ 20.063936273520447, 43.006824145680859 ], [ 19.573099914347157, 43.244879261391048 ], [ 19.224123169478361, 43.527485998026748 ] ], [ [ 19.347189316383293, 43.562466938166153 ], [ 19.454088854909052, 43.512720536601741 ], [ 19.518315675055348, 43.563644411974586 ], [ 19.444387749578528, 43.606966591728849 ], [ 19.347189316383293, 43.562466938166153 ] ] ] } },
{ "type": "Feature", "properties": { "NUTS_ID": "RS212", "name": "Kolubarska oblast" }, "geometry": { "type": "Polygon", "coordinates": [ [ [ 19.644015887116975, 44.16819061615633 ], [ 19.473381042418652, 44.281373072917646 ], [ 19.531910321312125, 44.419843039326302 ], [ 19.846158675796101, 44.424573706887749 ], [ 19.899115886038988, 44.548667129773023 ], [ 19.99030928801449, 44.585647374449856 ], [ 20.217454195883782, 44.515558380536426 ], [ 20.214327104516975, 44.344665489826205 ], [ 20.265911707207778, 44.291981327760347 ], [ 20.400345750546251, 44.313118388828066 ], [ 20.435419443872657, 44.268292961295145 ], [ 20.309249219810045, 44.153139233818706 ], [ 20.074837556613655, 44.111766936269788 ], [ 19.803854579892548, 44.097938484552337 ], [ 19.644015887116975, 44.16819061615633 ] ] ] } },
{ "type": "Feature", "properties": { "NUTS_ID": "RS213", "name": "Mačvanska oblast" }, "geometry": { "type": "Polygon", "coordinates": [ [ [ 19.351161595427993, 44.889059352169198 ], [ 19.694972128448086, 44.912724926330469 ], [ 19.726517539892498, 44.76679855188803 ], [ 19.985849286562267, 44.642281002936926 ], [ 19.99030928801449, 44.585647374449856 ], [ 19.899115886038988, 44.548667129773023 ], [ 19.846158675796101, 44.424573706887749 ], [ 19.531910321312125, 44.419843039326302 ], [ 19.473381042418652, 44.281373072917646 ], [ 19.644015887116975, 44.16819061615633 ], [ 19.497113024463275, 44.099052842694618 ], [ 19.130508669089693, 44.346600154689895 ], [ 19.143430868183987, 44.506073995548348 ], [ 19.300648401070937, 44.699012547632456 ], [ 19.351161595427993, 44.889059352169198 ] ] ] } },
{ "type": "Feature", "properties": { "NUTS_ID": "RS214", "name": "Moravička oblast" }, "geometry": { "type": "Polygon", "coordinates": [ [ [ 20.074837556613655, 44.111766936269788 ], [ 20.309249219810045, 44.153139233818706 ], [ 20.435419443872657, 44.268292961295145 ], [ 20.612590586457387, 44.061893812905481 ], [ 20.572376491805411, 43.962181251280391 ], [ 20.635353372573071, 43.879995174866025 ], [ 20.44459827264409, 43.730084311966813 ], [ 20.348860657659475, 43.553189699617818 ], [ 20.429936449481595, 43.377210894157201 ], [ 20.364831196205721, 43.302688554276763 ], [ 20.295800418202017, 43.311691014353237 ], [ 20.147008390795886, 43.329229557022863 ], [ 19.94544740849571, 43.546192260536117 ], [ 20.181037648262656, 43.692941310673724 ], [ 20.074837556613655, 44.111766936269788 ] ] ] } },
{ "type": "Feature", "properties": { "NUTS_ID": "RS215", "name": "Pomoravska oblast" }, "geometry": { "type": "Polygon", "coordinates": [ [ [ 20.925115630359446, 43.831545616838007 ], [ 21.061041676072676, 43.947604657195747 ], [ 21.134376106881355, 44.214335937772823 ], [ 21.147569320699304, 44.315169633962768 ], [ 21.822017452285124, 44.082508451296313 ], [ 21.780122405084807, 44.025938631574498 ], [ 21.656613323402148, 43.818874462775071 ], [ 21.477484578547866, 43.766235513229212 ], [ 20.956614828349796, 43.756145006602459 ], [ 20.925115630359446, 43.831545616838007 ] ] ] } },
{ "type": "Feature", "properties": { "NUTS_ID": "RS216", "name": "Rasinska oblast" }, "geometry": { "type": "Polygon", "coordinates": [ [ [ 20.956614828349796, 43.756145006602459 ], [ 21.477484578547866, 43.766235513229212 ], [ 21.562736271530333, 43.516528740030168 ], [ 21.480156084099043, 43.378986882283655 ], [ 21.27438724226419, 43.379040485631528 ], [ 20.997886440144956, 43.251090656627404 ], [ 20.923563868599874, 43.146082526931892 ], [ 20.819748716494423, 43.272466521427454 ], [ 20.802155746115574, 43.490116223367835 ], [ 20.932699820477708, 43.54303542321265 ], [ 20.956614828349796, 43.756145006602459 ] ] ] } },
{ "type": "Feature", "properties": { "NUTS_ID": "RS217", "name": "Raška oblast" }, "geometry": { "type": "Polygon", "coordinates": [ [ [ 20.063936273520447, 43.006824145680859 ], [ 20.24593489924267, 43.17979960034728 ], [ 20.295800418202017, 43.311691014353237 ], [ 20.364831196205721, 43.302688554276763 ], [ 20.429936449481595, 43.377210894157201 ], [ 20.348860657659475, 43.553189699617818 ], [ 20.44459827264409, 43.730084311966813 ], [ 20.635353372573071, 43.879995174866025 ], [ 20.723748930186254, 43.817965164857121 ], [ 20.925115630359446, 43.831545616838007 ], [ 20.956614828349796, 43.756145006602459 ], [ 20.932699820477708, 43.54303542321265 ], [ 20.802155746115574, 43.490116223367835 ], [ 20.819748716494423, 43.272466521427454 ], [ 20.62055254262636, 43.199489634579102 ], [ 20.674599052185961, 43.076401949130023 ], [ 20.513752172819625, 42.948238941851393 ], [ 20.538279665549773, 42.883174371622765 ], [ 20.475142788488007, 42.859353074786981 ], [ 20.442032664469348, 42.837075755841518 ], [ 20.404843230609451, 42.845236158618718 ], [ 20.352928393310513, 42.833381369122392 ], [ 20.063936273520447, 43.006824145680859 ] ] ] } },
{ "type": "Feature", "properties": { "NUTS_ID": "RS218", "name": "Šumadijska oblast" }, "geometry": { "type": "Polygon", "coordinates": [ [ [ 20.635353372573071, 43.879995174866025 ], [ 20.572376491805411, 43.962181251280391 ], [ 20.612590586457387, 44.061893812905481 ], [ 20.435419443872657, 44.268292961295145 ], [ 20.400345750546251, 44.313118388828066 ], [ 20.479653446496513, 44.42930832107713 ], [ 20.783537799383723, 44.326623836111686 ], [ 21.134376106881355, 44.214335937772823 ], [ 21.061041676072676, 43.947604657195747 ], [ 20.925115630359446, 43.831545616838007 ], [ 20.723748930186254, 43.817965164857121 ], [ 20.635353372573071, 43.879995174866025 ] ] ] } },
{ "type": "Feature", "properties": { "NUTS_ID": "RS221", "name": "Borska oblast" }, "geometry": { "type": "Polygon", "coordinates": [ [ [ 21.822017452285124, 44.082508451296313 ], [ 21.953296478545553, 44.157942124828651 ], [ 21.832367599335402, 44.370729024813713 ], [ 22.012350642172681, 44.602318527698813 ], [ 22.016132402403844, 44.599202319026197 ], [ 22.159088759548712, 44.503865715546787 ], [ 22.429139485221345, 44.69341731447458 ], [ 22.653216734592107, 44.602822745813086 ], [ 22.678622671282419, 44.548333084488036 ], [ 22.498303775858499, 44.44001848818386 ], [ 22.675161314798697, 44.215662905919601 ], [ 22.536145114450662, 44.045511571783145 ], [ 22.279688138844342, 44.159094193123366 ], [ 22.129151110993117, 43.932484074951617 ], [ 21.780122405084807, 44.025938631574498 ], [ 21.822017452285124, 44.082508451296313 ] ] ] } },
{ "type": "Feature", "properties": { "NUTS_ID": "RS222", "name": "Braničevska oblast" }, "geometry": { "type": "Polygon", "coordinates": [ [ [ 21.147569320699304, 44.315169633962768 ], [ 21.128925656646647, 44.570933333203783 ], [ 21.037480201022486, 44.718150564459123 ], [ 21.358469960517478, 44.821612129442833 ], [ 21.573019354862716, 44.751598795339902 ], [ 21.664827398480874, 44.663303985953512 ], [ 22.012350642172681, 44.602318527698813 ], [ 21.832367599335402, 44.370729024813713 ], [ 21.953296478545553, 44.157942124828651 ], [ 21.822017452285124, 44.082508451296313 ], [ 21.147569320699304, 44.315169633962768 ] ] ] } },
{ "type": "Feature", "properties": { "NUTS_ID": "RS223", "name": "Zaječarska oblast" }, "geometry": { "type": "Polygon", "coordinates": [ [ [ 21.780122405084807, 44.025938631574498 ], [ 22.129151110993117, 43.932484074951617 ], [ 22.279688138844342, 44.159094193123366 ], [ 22.536145114450662, 44.045511571783145 ], [ 22.430308629328749, 44.008408679794336 ], [ 22.410464489488927, 43.979214568154333 ], [ 22.367156685608844, 43.817735036725573 ], [ 22.430308629516453, 43.677047542930552 ], [ 22.536577007525587, 43.482445141484064 ], [ 22.666975488733261, 43.402747534159275 ], [ 22.430308629124777, 43.354233507648878 ], [ 22.337579150785675, 43.385267658657554 ], [ 22.296615507989191, 43.457139725331174 ], [ 21.765027876242108, 43.615154345376546 ], [ 21.656613323402148, 43.818874462775071 ], [ 21.780122405084807, 44.025938631574498 ] ] ] } },
{ "type": "Feature", "properties": { "NUTS_ID": "RS224", "name": "Jablanička oblast" }, "geometry": { "type": "Polygon", "coordinates": [ [ [ 21.435115561823661, 42.872275448722391 ], [ 21.487901766199133, 43.003940998314178 ], [ 21.80635001060342, 43.150451136879461 ], [ 22.019459694619773, 43.151307837297715 ], [ 22.226914176577395, 43.080119388731994 ], [ 22.430308628494064, 42.890575008278368 ], [ 22.515510739200675, 42.868538577692362 ], [ 22.442821703155978, 42.825456536578827 ], [ 22.284248847397855, 42.764747307775856 ], [ 22.091067425851108, 42.826518508254402 ], [ 21.835456899779576, 42.778100333766687 ], [ 21.753408842863891, 42.700946489855966 ], [ 21.500397355843404, 42.734388808520173 ], [ 21.437570629464904, 42.782911778302335 ], [ 21.435115561823661, 42.872275448722391 ] ] ] } },
{ "type": "Feature", "properties": { "NUTS_ID": "RS225", "name": "Nišavska oblast" }, "geometry": { "type": "Polygon", "coordinates": [ [ [ 21.656613323402148, 43.818874462775071 ], [ 21.765027876242108, 43.615154345376546 ], [ 22.296615507989191, 43.457139725331174 ], [ 22.337579150785675, 43.385267658657554 ], [ 22.136544846068695, 43.311052801202663 ], [ 22.137200276015598, 43.207570490702381 ], [ 22.264154978472021, 43.116775692382568 ], [ 22.226914176577395, 43.080119388731994 ], [ 22.019459694619773, 43.151307837297715 ], [ 21.80635001060342, 43.150451136879461 ], [ 21.761254310225308, 43.246626122011172 ], [ 21.661167681411406, 43.246031650569108 ], [ 21.480156084099043, 43.378986882283655 ], [ 21.562736271530333, 43.516528740030168 ], [ 21.477484578547866, 43.766235513229212 ], [ 21.656613323402148, 43.818874462775071 ] ] ] } },
{ "type": "Feature", "properties": { "NUTS_ID": "RS226", "name": "Pirotska oblast" }, "geometry": { "type": "Polygon", "coordinates": [ [ [ 22.748399735061533, 42.889787668292826 ], [ 22.515510739200675, 42.868538577692362 ], [ 22.430308628494064, 42.890575008278368 ], [ 22.226914176577395, 43.080119388731994 ], [ 22.264154978472021, 43.116775692382568 ], [ 22.137200276015598, 43.207570490702381 ], [ 22.136544846068695, 43.311052801202663 ], [ 22.337579150785675, 43.385267658657554 ], [ 22.430308629124777, 43.354233507648878 ], [ 22.666975488733261, 43.402747534159275 ], [ 22.7474537952559, 43.386613169232881 ], [ 23.006209801678111, 43.192878429046175 ], [ 22.748399735061533, 42.889787668292826 ] ] ] } },
{ "type": "Feature", "properties": { "NUTS_ID": "RS227", "name": "Podunavska oblast" }, "geometry": { "type": "Polygon", "coordinates": [ [ [ 20.783537799383723, 44.326623836111686 ], [ 20.764034809380664, 44.410158560127776 ], [ 20.828300375359444, 44.469399524954689 ], [ 20.768702884875879, 44.551635216048986 ], [ 20.819536955443152, 44.657872977149928 ], [ 21.037480201022486, 44.718150564459123 ], [ 21.128925656646647, 44.570933333203783 ], [ 21.147569320699304, 44.315169633962768 ], [ 21.134376106881355, 44.214335937772823 ], [ 20.783537799383723, 44.326623836111686 ] ] ] } },
{ "type": "Feature", "properties": { "NUTS_ID": "RS228", "name": "Pčinjska oblast" }, "geometry": { "type": "Polygon", "coordinates": [ [ [ 22.360206291819384, 42.311157164360239 ], [ 22.275177589384462, 42.35837034096523 ], [ 22.1326913734713, 42.307227009753447 ], [ 22.065600963443334, 42.298496897187484 ], [ 21.951333552220763, 42.330061764895191 ], [ 21.777148238024573, 42.264997617044642 ], [ 21.675934671101064, 42.240684998158741 ], [ 21.586946401889598, 42.26281763852085 ], [ 21.543733416715241, 42.349603528459724 ], [ 21.729237325285524, 42.553690718288131 ], [ 21.753408842863891, 42.700946489855966 ], [ 21.835456899779576, 42.778100333766687 ], [ 22.091067425851108, 42.826518508254402 ], [ 22.284248847397855, 42.764747307775856 ], [ 22.442821703155978, 42.825456536578827 ], [ 22.461471801884823, 42.648490434563215 ], [ 22.538409793015134, 42.446431742702913 ], [ 22.360206291819384, 42.311157164360239 ] ] ] } },
{ "type": "Feature", "properties": { "NUTS_ID": "RS229", "name": "Toplička oblast" }, "geometry": { "type": "Polygon", "coordinates": [ [ [ 21.480156084099043, 43.378986882283655 ], [ 21.661167681411406, 43.246031650569108 ], [ 21.761254310225308, 43.246626122011172 ], [ 21.80635001060342, 43.150451136879461 ], [ 21.487901766199133, 43.003940998314178 ], [ 21.435115561823661, 42.872275448722391 ], [ 21.289193645780358, 42.904485094736984 ], [ 21.120312252581392, 43.103564884841838 ], [ 20.967010106428965, 43.124408934326745 ], [ 20.923563868599874, 43.146082526931892 ], [ 20.997886440144956, 43.251090656627404 ], [ 21.27438724226419, 43.379040485631528 ], [ 21.480156084099043, 43.378986882283655 ] ] ] } }
]
}
