{
"type": "FeatureCollection",
"name": "SE",
"crs": { "type": "name", "properties": { "name": "urn:ogc:def:crs:OGC:1.3:CRS84" } },
"features": [
{ "type": "Feature", "properties": { "NUTS_ID": "SE110", "name": "Stockholms län" }, "geometry": { "type": "MultiPolygon", "coordinates": [ [ [ [ 19.577796916212748, 59.450587159621186 ], [ 19.528466778576792, 59.394167060757852 ], [ 19.42535076415373, 59.437628418318155 ], [ 19.50214152211576, 59.497798831252403 ], [ 19.577796916212748, 59.450587159621186 ] ] ], [ [ [ 18.590183177714049, 59.219610747454652 ], [ 18.547851572103866, 59.066757529414573 ], [ 18.427028641711431, 59.034096356207471 ], [ 18.33764188658558, 59.093449405760168 ], [ 18.200936743785782, 59.078055333340004 ], [ 17.865671883125685, 58.85762139374927 ], [ 17.57239609753551, 58.950852406549394 ], [ 17.34040065043601, 59.032565454310081 ], [ 17.2681430994122, 59.21254632186006 ], [ 17.345820528370151, 59.337854839465869 ], [ 17.416126731859688, 59.384140054003851 ], [ 17.575925577737458, 59.658954089657449 ], [ 17.961347300122398, 59.719720912624318 ], [ 18.37440411698778, 59.887945342619737 ], [ 18.436836640962738, 60.019478434262403 ], [ 18.513265769258705, 60.148089051373873 ], [ 18.76532946088502, 60.167408105375237 ], [ 19.101137235032418, 59.771351239131491 ], [ 18.895232595312411, 59.660753374297386 ], [ 18.748112185200167, 59.264792373621447 ], [ 18.590183177714049, 59.219610747454652 ] ] ], [ [ [ 18.964819433104726, 59.356234888746926 ], [ 18.883243571669485, 59.338229292983343 ], [ 18.844402698522586, 59.434231876812611 ], [ 18.950778309011529, 59.432928762582833 ], [ 18.964819433104726, 59.356234888746926 ] ] ], [ [ [ 18.361583232744529, 58.946562677313935 ], [ 18.298620242528745, 58.887000629267433 ], [ 18.222635555828308, 58.947097730306616 ], [ 18.308758213604047, 59.00311615440247 ], [ 18.361583232744529, 58.946562677313935 ] ] ] ] } },
{ "type": "Feature", "properties": { "NUTS_ID": "SE121", "name": "Uppsala län" }, "geometry": { "type": "Polygon", "coordinates": [ [ [ 18.513265769258705, 60.148089051373873 ], [ 18.436836640962738, 60.019478434262403 ], [ 18.37440411698778, 59.887945342619737 ], [ 17.961347300122398, 59.719720912624318 ], [ 17.575925577737458, 59.658954089657449 ], [ 17.416126731859688, 59.384140054003851 ], [ 17.130360871588039, 59.509791862367329 ], [ 16.964910419179429, 59.521324121707046 ], [ 16.755376254068707, 59.760580574751167 ], [ 16.796545079926162, 59.896897635270896 ], [ 16.720509904342119, 60.019478434594049 ], [ 16.703831018027611, 60.195720602369775 ], [ 16.954750597662795, 60.286881000665609 ], [ 17.164749378901323, 60.294944568898266 ], [ 17.370110049420123, 60.654441775837164 ], [ 17.684492048576782, 60.565086518127913 ], [ 17.953139244051808, 60.606159665604373 ], [ 18.281601514890585, 60.370100880108012 ], [ 18.452227401282595, 60.435219614208854 ], [ 18.568376201390343, 60.353646217160197 ], [ 18.513265769258705, 60.148089051373873 ] ] ] } },
{ "type": "Feature", "properties": { "NUTS_ID": "SE122", "name": "Södermanlands län" }, "geometry": { "type": "MultiPolygon", "coordinates": [ [ [ [ 17.34040065043601, 59.032565454310081 ], [ 17.57239609753551, 58.950852406549394 ], [ 17.606039242833607, 58.860934728448463 ], [ 17.381112495804775, 58.746353874775117 ], [ 17.087550360325757, 58.733826338275414 ], [ 16.952879912731422, 58.617599228440405 ], [ 16.749447249686931, 58.626945073985745 ], [ 16.653517381130278, 58.68027559399119 ], [ 16.40840632620106, 58.709635607431487 ], [ 16.268338410499631, 58.821249098180346 ], [ 15.834283210551575, 58.998354761598321 ], [ 15.686749384421834, 58.981918621217858 ], [ 15.650645651223764, 59.027838458499303 ], [ 15.771174791360776, 59.117914920150405 ], [ 15.761593005812506, 59.19794847753797 ], [ 15.86718736477035, 59.231372450255414 ], [ 15.94090886592064, 59.337854839532511 ], [ 16.217328956844884, 59.357915127515405 ], [ 16.28763171266343, 59.449956088391389 ], [ 16.494844922728234, 59.468652760904135 ], [ 16.964910419179429, 59.521324121707046 ], [ 17.130360871588039, 59.509791862367329 ], [ 17.416126731859688, 59.384140054003851 ], [ 17.345820528370151, 59.337854839465869 ], [ 17.2681430994122, 59.21254632186006 ], [ 17.34040065043601, 59.032565454310081 ] ] ], [ [ [ 17.243744457393497, 58.669987238479059 ], [ 17.198465418720211, 58.618076731293847 ], [ 17.079692843918153, 58.621405090725794 ], [ 17.144746497789242, 58.70054849773134 ], [ 17.243744457393497, 58.669987238479059 ] ] ] ] } },
{ "type": "Feature", "properties": { "NUTS_ID": "SE123", "name": "Östergötlands län" }, "geometry": { "type": "Polygon", "coordinates": [ [ [ 14.778936289819093, 58.645992604538939 ], [ 15.256548811782498, 58.849651342013985 ], [ 15.54034543898516, 58.876106957737711 ], [ 15.589955516251811, 58.957194433728901 ], [ 15.686749384421834, 58.981918621217858 ], [ 15.834283210551575, 58.998354761598321 ], [ 16.268338410499631, 58.821249098180346 ], [ 16.40840632620106, 58.709635607431487 ], [ 16.653517381130278, 58.68027559399119 ], [ 16.749447249686931, 58.626945073985745 ], [ 16.907817977886133, 58.403394899073845 ], [ 16.861587044568921, 58.270421019208072 ], [ 16.931706771353582, 58.169496681320673 ], [ 16.666730797749331, 57.996029701561042 ], [ 16.531987213229929, 58.089785421742619 ], [ 16.25107688533431, 58.12461758678576 ], [ 16.044740085947044, 58.051244841265479 ], [ 15.982453698451396, 57.837641700689147 ], [ 15.643407077714944, 57.841989886556917 ], [ 15.421051157954007, 57.704879416373721 ], [ 15.140156520428784, 57.726956193411802 ], [ 14.997308645218459, 57.937221446945031 ], [ 15.059736415463878, 58.013193247381977 ], [ 14.985351708180598, 58.126065463899359 ], [ 14.592260514415326, 58.102644058032553 ], [ 14.416710244486051, 58.187240507356393 ], [ 14.778936289819093, 58.645992604538939 ] ] ] } },
{ "type": "Feature", "properties": { "NUTS_ID": "SE124", "name": "Örebro län" }, "geometry": { "type": "Polygon", "coordinates": [ [ [ 14.295995032860068, 59.012779425128258 ], [ 14.295785477958384, 59.219271338825784 ], [ 14.357493610545136, 59.337854839162965 ], [ 14.460298817850864, 59.547954271587919 ], [ 14.422137904446277, 59.862147269185236 ], [ 14.36342993815431, 59.944432480499316 ], [ 14.437155331575987, 60.026161101814445 ], [ 14.724147457657027, 60.005226009109627 ], [ 14.815111739269378, 60.095488820207294 ], [ 15.184160733158626, 59.99201417769163 ], [ 15.422092491517477, 59.854747399734421 ], [ 15.522951235006978, 59.761357639761201 ], [ 15.541920250170698, 59.645237032015963 ], [ 15.707906526251962, 59.500477519102645 ], [ 15.71696639078254, 59.430202389122016 ], [ 15.625482141437978, 59.337854839854167 ], [ 15.761593005812506, 59.19794847753797 ], [ 15.771174791360776, 59.117914920150405 ], [ 15.650645651223764, 59.027838458499303 ], [ 15.686749384421834, 58.981918621217858 ], [ 15.589955516251811, 58.957194433728901 ], [ 15.54034543898516, 58.876106957737711 ], [ 15.256548811782498, 58.849651342013985 ], [ 14.778936289819093, 58.645992604538939 ], [ 14.669538791375313, 58.730589392177173 ], [ 14.496908093073019, 58.715908671772958 ], [ 14.295995032860068, 59.012779425128258 ] ] ] } },
{ "type": "Feature", "properties": { "NUTS_ID": "SE125", "name": "Västmanlands län" }, "geometry": { "type": "Polygon", "coordinates": [ [ [ 15.422092491517477, 59.854747399734421 ], [ 15.53078540943593, 59.942763891888966 ], [ 15.692584107220828, 59.959720805871029 ], [ 15.788969051181716, 60.1674248918034 ], [ 16.009461353969474, 60.172861332447454 ], [ 16.26188435126738, 60.075481310327213 ], [ 16.494844922365829, 60.135324976567176 ], [ 16.548300646317649, 60.172545266441631 ], [ 16.703831018027611, 60.195720602369775 ], [ 16.720509904342119, 60.019478434594049 ], [ 16.796545079926162, 59.896897635270896 ], [ 16.755376254068707, 59.760580574751167 ], [ 16.964910419179429, 59.521324121707046 ], [ 16.494844922728234, 59.468652760904135 ], [ 16.28763171266343, 59.449956088391389 ], [ 16.217328956844884, 59.357915127515405 ], [ 15.94090886592064, 59.337854839532511 ], [ 15.86718736477035, 59.231372450255414 ], [ 15.761593005812506, 59.19794847753797 ], [ 15.625482141437978, 59.337854839854167 ], [ 15.71696639078254, 59.430202389122016 ], [ 15.707906526251962, 59.500477519102645 ], [ 15.541920250170698, 59.645237032015963 ], [ 15.522951235006978, 59.761357639761201 ], [ 15.422092491517477, 59.854747399734421 ] ] ] } },
{ "type": "Feature", "properties": { "NUTS_ID": "SE211", "name": "Jönköpings län" }, "geometry": { "type": "Polygon", "coordinates": [ [ [ 14.416710244486051, 58.187240507356393 ], [ 14.592260514415326, 58.102644058032553 ], [ 14.985351708180598, 58.126065463899359 ], [ 15.059736415463878, 58.013193247381977 ], [ 14.997308645218459, 57.937221446945031 ], [ 15.140156520428784, 57.726956193411802 ], [ 15.421051157954007, 57.704879416373721 ], [ 15.590246500241921, 57.623082502073991 ], [ 15.631600539305973, 57.49945880892021 ], [ 15.512680574164733, 57.425711205044692 ], [ 15.516530152170409, 57.201450463148056 ], [ 15.220372086140639, 57.220856461099764 ], [ 14.951961184422201, 57.139396819156396 ], [ 14.715345922267925, 57.218205885159399 ], [ 14.388589434512758, 57.145054951402066 ], [ 14.37199932099001, 56.946887189153195 ], [ 14.311201417039191, 56.895961246884283 ], [ 14.095605575978029, 57.038340991331324 ], [ 13.716988804160559, 57.021029698304709 ], [ 13.681201047574261, 56.972114416143093 ], [ 13.473027063709951, 57.103975171842578 ], [ 13.126387955559492, 57.0479018583666 ], [ 13.10076055961472, 57.145515609345729 ], [ 13.469997411801609, 57.382890043118785 ], [ 13.686243385088018, 57.621723924884641 ], [ 13.761129376654209, 57.864762019740091 ], [ 13.741382643375855, 58.000904512426551 ], [ 14.019539167823828, 58.031227258734837 ], [ 14.160943981857747, 58.12836243489734 ], [ 14.416710244486051, 58.187240507356393 ] ] ] } },
{ "type": "Feature", "properties": { "NUTS_ID": "SE212", "name": "Kronobergs län" }, "geometry": { "type": "Polygon", "coordinates": [ [ [ 15.516530152170409, 57.201450463148056 ], [ 15.791389332173416, 56.952929197201229 ], [ 15.586370642244411, 56.904318819797268 ], [ 15.41722105936206, 56.773767374345667 ], [ 15.366358117965051, 56.491587374936572 ], [ 14.876623326161534, 56.369025282813439 ], [ 14.514669460671344, 56.460036928963369 ], [ 14.323689504747588, 56.491587375078687 ], [ 14.178736760940318, 56.495936480981086 ], [ 14.086990046818707, 56.527904113480041 ], [ 14.046025039810926, 56.491587375473351 ], [ 13.873347009568478, 56.441569596863658 ], [ 13.736964446886722, 56.437335278501415 ], [ 13.53434962583049, 56.405392927532255 ], [ 13.462636496455978, 56.428188616266247 ], [ 13.45392220323882, 56.491587374967388 ], [ 13.308394619640902, 56.804698075877127 ], [ 13.640924778480503, 56.912519806351312 ], [ 13.681201047574261, 56.972114416143093 ], [ 13.716988804160559, 57.021029698304709 ], [ 14.095605575978029, 57.038340991331324 ], [ 14.311201417039191, 56.895961246884283 ], [ 14.37199932099001, 56.946887189153195 ], [ 14.388589434512758, 57.145054951402066 ], [ 14.715345922267925, 57.218205885159399 ], [ 14.951961184422201, 57.139396819156396 ], [ 15.220372086140639, 57.220856461099764 ], [ 15.516530152170409, 57.201450463148056 ] ] ] } },
{ "type": "Feature", "properties": { "NUTS_ID": "SE213", "name": "Kalmar län" }, "geometry": { "type": "MultiPolygon", "coordinates": [ [ [ [ 17.016173851672537, 57.122809216179164 ], [ 16.434692801287778, 56.239631802194296 ], [ 16.346636048303772, 56.464270153027542 ], [ 16.956504346630489, 57.264950668553368 ], [ 17.067857470680337, 57.313212736990906 ], [ 17.016173851672537, 57.122809216179164 ] ] ], [ [ [ 16.748574642155191, 57.856139790549364 ], [ 16.582589312157573, 57.59947793818867 ], [ 16.712498481411643, 57.52365379916683 ], [ 16.519287866756983, 57.245776580197685 ], [ 16.464481649339778, 56.832399172366323 ], [ 16.049756803438029, 56.321848407440655 ], [ 15.850277666215469, 56.33809939820329 ], [ 15.58017535539032, 56.48527678856496 ], [ 15.366358117965051, 56.491587374936572 ], [ 15.41722105936206, 56.773767374345667 ], [ 15.586370642244411, 56.904318819797268 ], [ 15.791389332173416, 56.952929197201229 ], [ 15.516530152170409, 57.201450463148056 ], [ 15.512680574164733, 57.425711205044692 ], [ 15.631600539305973, 57.49945880892021 ], [ 15.590246500241921, 57.623082502073991 ], [ 15.421051157954007, 57.704879416373721 ], [ 15.643407077714944, 57.841989886556917 ], [ 15.982453698451396, 57.837641700689147 ], [ 16.044740085947044, 58.051244841265479 ], [ 16.25107688533431, 58.12461758678576 ], [ 16.531987213229929, 58.089785421742619 ], [ 16.666730797749331, 57.996029701561042 ], [ 16.75318386337473, 57.951555900510741 ], [ 16.748574642155191, 57.856139790549364 ] ] ] ] } },
{ "type": "Feature", "properties": { "NUTS_ID": "SE214", "name": "Gotlands län" }, "geometry": { "type": "MultiPolygon", "coordinates": [ [ [ [ 19.362261044764367, 57.967878624516864 ], [ 19.304068025421088, 57.903387055254434 ], [ 19.226606371719861, 57.959721166225052 ], [ 19.303890131106645, 58.022350561933017 ], [ 19.362261044764367, 57.967878624516864 ] ] ], [ [ [ 19.338457581188017, 58.356768297239213 ], [ 19.252911843500737, 58.315819163040644 ], [ 19.157968111445712, 58.363625549355092 ], [ 19.257310099497886, 58.405072275776661 ], [ 19.338457581188017, 58.356768297239213 ] ] ], [ [ [ 18.404724998337603, 57.025129009591517 ], [ 18.21715535777474, 56.990242331238541 ], [ 18.069837917718974, 57.236316361454833 ], [ 18.164652334625057, 57.538061509456277 ], [ 18.421764990320494, 57.759940043944248 ], [ 18.974966185252395, 57.869941203420439 ], [ 18.796563046407396, 57.353409764231607 ], [ 18.404724998337603, 57.025129009591517 ] ] ] ] } },
{ "type": "Feature", "properties": { "NUTS_ID": "SE221", "name": "Blekinge län" }, "geometry": { "type": "Polygon", "coordinates": [ [ [ 14.546399421657609, 56.061317655991928 ], [ 14.56329408597451, 56.201018839805059 ], [ 14.403486318562038, 56.308123528134189 ], [ 14.514669460671344, 56.460036928963369 ], [ 14.876623326161534, 56.369025282813439 ], [ 15.366358117965051, 56.491587374936572 ], [ 15.58017535539032, 56.48527678856496 ], [ 15.850277666215469, 56.33809939820329 ], [ 16.049756803438029, 56.321848407440655 ], [ 15.805754015546425, 56.059657066167965 ], [ 15.75799069195773, 56.136533626107777 ], [ 15.589828977720495, 56.189370332026527 ], [ 15.352012441480904, 56.139613361645146 ], [ 14.74536845930818, 56.157927124130673 ], [ 14.756464464884132, 56.032102574756941 ], [ 14.705743288474713, 56.001871693477732 ], [ 14.546399421657609, 56.061317655991928 ] ] ] } },
{ "type": "Feature", "properties": { "NUTS_ID": "SE224", "name": "Skåne län" }, "geometry": { "type": "MultiPolygon", "coordinates": [ [ [ [ 14.514669460671344, 56.460036928963369 ], [ 14.403486318562038, 56.308123528134189 ], [ 14.56329408597451, 56.201018839805059 ], [ 14.546399421657609, 56.061317655991928 ], [ 14.237883727524169, 55.823444710990202 ], [ 14.228731753655472, 55.712451548995645 ], [ 14.326877292650913, 55.539093698865791 ], [ 14.202139324515148, 55.412876573256426 ], [ 13.731662265633762, 55.421120051683005 ], [ 13.356705369527223, 55.349244434745309 ], [ 13.028060926165892, 55.407396047868914 ], [ 12.929445623355669, 55.539403875237291 ], [ 13.007144127661558, 55.710107119452651 ], [ 12.562766499293252, 56.219902784825798 ], [ 12.774793733458923, 56.24428578496326 ], [ 12.696554480725075, 56.411723276003556 ], [ 12.899312826293668, 56.449004502844211 ], [ 13.008608360243278, 56.362875160475589 ], [ 13.203501994990599, 56.338730764237091 ], [ 13.462636496455978, 56.428188616266247 ], [ 13.53434962583049, 56.405392927532255 ], [ 13.736964446886722, 56.437335278501415 ], [ 13.873347009568478, 56.441569596863658 ], [ 14.046025039810926, 56.491587375473351 ], [ 14.086990046818707, 56.527904113480041 ], [ 14.178736760940318, 56.495936480981086 ], [ 14.323689504747588, 56.491587375078687 ], [ 14.514669460671344, 56.460036928963369 ] ] ], [ [ [ 12.909736628888609, 55.417322140217131 ], [ 12.85942820747842, 55.349083993829943 ], [ 12.790875600993111, 55.400927553720862 ], [ 12.861722596453484, 55.485184302299892 ], [ 12.909736628888609, 55.417322140217131 ] ] ] ] } },
{ "type": "Feature", "properties": { "NUTS_ID": "SE231", "name": "Hallands län" }, "geometry": { "type": "Polygon", "coordinates": [ [ [ 13.10076055961472, 57.145515609345729 ], [ 13.126387955559492, 57.0479018583666 ], [ 13.473027063709951, 57.103975171842578 ], [ 13.681201047574261, 56.972114416143093 ], [ 13.640924778480503, 56.912519806351312 ], [ 13.308394619640902, 56.804698075877127 ], [ 13.45392220323882, 56.491587374967388 ], [ 13.462636496455978, 56.428188616266247 ], [ 13.203501994990599, 56.338730764237091 ], [ 13.008608360243278, 56.362875160475589 ], [ 12.899312826293668, 56.449004502844211 ], [ 12.93343647049522, 56.491587374835916 ], [ 12.895980167537083, 56.624128514065475 ], [ 12.724950722199726, 56.656040501822091 ], [ 12.573299404335552, 56.838130463879686 ], [ 12.374622699525872, 56.928350086210443 ], [ 12.188303273150623, 57.206330247296997 ], [ 12.113960206282762, 57.226930740239055 ], [ 12.094957691178863, 57.39435178646648 ], [ 11.943736146584246, 57.36482623287705 ], [ 11.922900753585283, 57.562223015194483 ], [ 12.295298814016311, 57.580074151267532 ], [ 12.431700367874861, 57.289174270813859 ], [ 12.665630703243794, 57.332681308306938 ], [ 13.10076055961472, 57.145515609345729 ] ] ] } },
{ "type": "Feature", "properties": { "NUTS_ID": "SE232", "name": "Västra Götalands län" }, "geometry": { "type": "Polygon", "coordinates": [ [ [ 11.460796336170777, 58.988637874484631 ], [ 11.483599847809957, 58.891789817750315 ], [ 11.635764079495662, 58.909924699100671 ], [ 11.826196491599896, 59.237850055398525 ], [ 12.064986359688348, 59.196227764135536 ], [ 12.208091368183712, 59.253336802437993 ], [ 12.520084090521538, 59.124653681733108 ], [ 12.707435489469722, 59.147481082097357 ], [ 12.902169397674953, 58.826205776448674 ], [ 13.242898847775169, 58.731790120208089 ], [ 13.357501764596943, 58.747395164763127 ], [ 13.365119108646351, 58.856722371215582 ], [ 13.466908813800659, 58.983510551661531 ], [ 13.716988803289079, 59.05058238758653 ], [ 14.295995032860068, 59.012779425128258 ], [ 14.496908093073019, 58.715908671772958 ], [ 14.669538791375313, 58.730589392177173 ], [ 14.778936289819093, 58.645992604538939 ], [ 14.416710244486051, 58.187240507356393 ], [ 14.160943981857747, 58.12836243489734 ], [ 14.019539167823828, 58.031227258734837 ], [ 13.741382643375855, 58.000904512426551 ], [ 13.761129376654209, 57.864762019740091 ], [ 13.686243385088018, 57.621723924884641 ], [ 13.469997411801609, 57.382890043118785 ], [ 13.10076055961472, 57.145515609345729 ], [ 12.665630703243794, 57.332681308306938 ], [ 12.431700367874861, 57.289174270813859 ], [ 12.295298814016311, 57.580074151267532 ], [ 11.922900753585283, 57.562223015194483 ], [ 11.758311085721628, 57.591315031827811 ], [ 11.747249725255353, 57.699903016002345 ], [ 11.624324816557333, 57.776153683205408 ], [ 11.632436877487198, 58.085304307729373 ], [ 11.470945993604733, 58.093028673434858 ], [ 11.478818437689894, 58.249565674601143 ], [ 11.240313898770683, 58.449417579426544 ], [ 11.134720047672431, 58.876436433138778 ], [ 11.244846109501708, 59.091874774589712 ], [ 11.327082917523542, 59.111570131096258 ], [ 11.460796336170777, 58.988637874484631 ] ] ] } },
{ "type": "Feature", "properties": { "NUTS_ID": "SE311", "name": "Värmlands län" }, "geometry": { "type": "Polygon", "coordinates": [ [ [ 11.839814230042647, 59.840672274460687 ], [ 12.208750908485026, 59.907280870601717 ], [ 12.466694414315253, 60.071112027323721 ], [ 12.600887725757561, 60.492545263532762 ], [ 12.247105362826012, 61.001935518796685 ], [ 12.670176624040115, 61.05597642255367 ], [ 13.124263480495266, 60.776796384460745 ], [ 13.493341315808413, 60.450134777605371 ], [ 13.67136952762354, 60.392947184683457 ], [ 13.935395920246787, 60.196062528801725 ], [ 14.132601631816117, 60.221965540103277 ], [ 14.234989477742353, 60.094296714032687 ], [ 14.437155331575987, 60.026161101814445 ], [ 14.36342993815431, 59.944432480499316 ], [ 14.422137904446277, 59.862147269185236 ], [ 14.460298817850864, 59.547954271587919 ], [ 14.357493610545136, 59.337854839162965 ], [ 14.295785477958384, 59.219271338825784 ], [ 14.295995032860068, 59.012779425128258 ], [ 13.716988803289079, 59.05058238758653 ], [ 13.466908813800659, 58.983510551661531 ], [ 13.365119108646351, 58.856722371215582 ], [ 13.357501764596943, 58.747395164763127 ], [ 13.242898847775169, 58.731790120208089 ], [ 12.902169397674953, 58.826205776448674 ], [ 12.707435489469722, 59.147481082097357 ], [ 12.520084090521538, 59.124653681733108 ], [ 12.208091368183712, 59.253336802437993 ], [ 12.064986359688348, 59.196227764135536 ], [ 11.826196491599896, 59.237850055398525 ], [ 11.816781937461815, 59.337854839088493 ], [ 11.707313955808907, 59.583643914064673 ], [ 11.763318012367945, 59.613428205205203 ], [ 11.921263389505329, 59.697427316302566 ], [ 11.919410902132496, 59.778298333548229 ], [ 11.839814230042647, 59.840672274460687 ] ] ] } },
{ "type": "Feature", "properties": { "NUTS_ID": "SE312", "name": "Dalarnas län" }, "geometry": { "type": "Polygon", "coordinates": [ [ [ 14.447561668337563, 61.594948021799389 ], [ 14.621461996722044, 61.584847860978968 ], [ 14.732668396454455, 61.489814416183577 ], [ 15.063998620904423, 61.490488566794284 ], [ 15.159685870194163, 61.568839279047559 ], [ 15.628604283260136, 61.227904651190748 ], [ 15.746340211814061, 61.065951462313571 ], [ 16.125512714412171, 60.983337554479355 ], [ 16.353811119450192, 60.801234577345511 ], [ 16.349125452716777, 60.725125876992863 ], [ 16.158548039850082, 60.588764980633236 ], [ 16.49484492238782, 60.361365021834828 ], [ 16.703831018027611, 60.195720602369775 ], [ 16.548300646317649, 60.172545266441631 ], [ 16.494844922365829, 60.135324976567176 ], [ 16.26188435126738, 60.075481310327213 ], [ 16.009461353969474, 60.172861332447454 ], [ 15.788969051181716, 60.1674248918034 ], [ 15.692584107220828, 59.959720805871029 ], [ 15.53078540943593, 59.942763891888966 ], [ 15.422092491517477, 59.854747399734421 ], [ 15.184160733158626, 59.99201417769163 ], [ 14.815111739269378, 60.095488820207294 ], [ 14.724147457657027, 60.005226009109627 ], [ 14.437155331575987, 60.026161101814445 ], [ 14.234989477742353, 60.094296714032687 ], [ 14.132601631816117, 60.221965540103277 ], [ 13.935395920246787, 60.196062528801725 ], [ 13.67136952762354, 60.392947184683457 ], [ 13.493341315808413, 60.450134777605371 ], [ 13.124263480495266, 60.776796384460745 ], [ 12.670176624040115, 61.05597642255367 ], [ 12.850415584064788, 61.35826162651059 ], [ 12.588154145503893, 61.551014300198105 ], [ 12.405438822097548, 61.576307553751114 ], [ 12.162955260132588, 61.718815764913543 ], [ 12.231717721333466, 62.039733365802029 ], [ 12.299370194289882, 62.267493986114701 ], [ 12.794882465743164, 62.210746132863498 ], [ 13.114801041410804, 62.03973336536361 ], [ 13.217829672245781, 62.039733365960764 ], [ 13.288216484463042, 62.039733365838984 ], [ 13.257419351547995, 61.913637617554748 ], [ 13.571179385354215, 61.657023378535641 ], [ 14.447561668337563, 61.594948021799389 ] ] ] } },
{ "type": "Feature", "properties": { "NUTS_ID": "SE313", "name": "Gävleborgs län" }, "geometry": { "type": "Polygon", "coordinates": [ [ [ 17.370110049420123, 60.654441775837164 ], [ 17.164749378901323, 60.294944568898266 ], [ 16.954750597662795, 60.286881000665609 ], [ 16.703831018027611, 60.195720602369775 ], [ 16.49484492238782, 60.361365021834828 ], [ 16.158548039850082, 60.588764980633236 ], [ 16.349125452716777, 60.725125876992863 ], [ 16.353811119450192, 60.801234577345511 ], [ 16.125512714412171, 60.983337554479355 ], [ 15.746340211814061, 61.065951462313571 ], [ 15.628604283260136, 61.227904651190748 ], [ 15.159685870194163, 61.568839279047559 ], [ 15.063998620904423, 61.490488566794284 ], [ 14.732668396454455, 61.489814416183577 ], [ 14.621461996722044, 61.584847860978968 ], [ 14.447561668337563, 61.594948021799389 ], [ 14.636296466336956, 61.866258771362659 ], [ 15.071358639488162, 61.840039807890577 ], [ 15.109032299463848, 61.986257969936624 ], [ 15.213941579477556, 62.039733365469239 ], [ 15.410514524080185, 62.128330555718669 ], [ 15.327339682924583, 62.272083533909168 ], [ 15.602779502954281, 62.340405282229526 ], [ 16.494844923986264, 62.233930359778981 ], [ 17.489299915586155, 62.13695038653097 ], [ 17.363513000240705, 61.905565429324142 ], [ 17.407750611275926, 61.692076848517253 ], [ 17.243661751834864, 61.68820362565733 ], [ 17.143047022922158, 61.616472640801987 ], [ 17.185218532145878, 60.969191103666105 ], [ 17.279723549071992, 60.828402600660304 ], [ 17.253521909097007, 60.705692160499112 ], [ 17.370110049420123, 60.654441775837164 ] ] ] } },
{ "type": "Feature", "properties": { "NUTS_ID": "SE321", "name": "Västernorrlands län" }, "geometry": { "type": "MultiPolygon", "coordinates": [ [ [ [ 16.916602313984392, 63.947396368008292 ], [ 17.692152345905242, 63.882991123320174 ], [ 18.410646258009219, 63.98620310814443 ], [ 18.502879643848196, 63.847320026146321 ], [ 18.983003993986873, 63.740740482736463 ], [ 19.286483882044791, 63.469737507105656 ], [ 19.229333797968341, 63.355127930926557 ], [ 19.03882661926572, 63.213510453804005 ], [ 18.623064573921763, 63.146779468428193 ], [ 18.666730200374825, 63.021664053785912 ], [ 18.542049234819224, 63.002035423796485 ], [ 18.388269266137158, 62.859647394448089 ], [ 18.234135062636017, 62.857127798991982 ], [ 18.012139433116268, 62.589240053377438 ], [ 17.647491312454829, 62.439609524994331 ], [ 17.510257687428947, 62.459830341321847 ], [ 17.461580729819893, 62.311696442808724 ], [ 17.489299915586155, 62.13695038653097 ], [ 16.494844923986264, 62.233930359778981 ], [ 15.602779502954281, 62.340405282229526 ], [ 15.327339682924583, 62.272083533909168 ], [ 15.121607682436075, 62.267561378901931 ], [ 14.931647904473108, 62.336461362089985 ], [ 14.823798197554375, 62.422623517592683 ], [ 14.814701616362388, 62.553136745790326 ], [ 16.305232392357901, 62.702084278972698 ], [ 16.864105001189241, 62.954871081581189 ], [ 16.514874367170002, 63.201974200405843 ], [ 16.020243826774237, 63.439833572038459 ], [ 15.891454825948216, 63.625858513177164 ], [ 16.54898481883686, 63.719405138931357 ], [ 16.718954068163264, 64.027878079748248 ], [ 16.916602313984392, 63.947396368008292 ] ] ], [ [ [ 17.763711609365551, 62.199116310763564 ], [ 17.687720504242886, 62.157720429398395 ], [ 17.65455213559089, 62.169882086234374 ], [ 17.643970050442828, 62.209536679767069 ], [ 17.689784881820277, 62.253655472061546 ], [ 17.785330118686282, 62.229752675607173 ], [ 17.763711609365551, 62.199116310763564 ] ] ], [ [ [ 17.652712896409078, 62.220272175480162 ], [ 17.581448487509661, 62.162917625805783 ], [ 17.519471686175443, 62.244301361472338 ], [ 17.592261525148974, 62.282096808477903 ], [ 17.652712896409078, 62.220272175480162 ] ] ] ] } },
{ "type": "Feature", "properties": { "NUTS_ID": "SE322", "name": "Jämtlands län" }, "geometry": { "type": "Polygon", "coordinates": [ [ [ 14.325984923806821, 65.118915970255543 ], [ 14.688419552404278, 64.988387978126298 ], [ 14.824449834047849, 64.887967680265589 ], [ 14.973587505866394, 64.840893707432897 ], [ 15.067939848325461, 64.75792567811385 ], [ 15.238758640891735, 64.713523519501393 ], [ 15.587925404893365, 64.457241452382036 ], [ 15.688628074472534, 64.520446372031074 ], [ 15.75827239534798, 64.409087747892585 ], [ 15.991809627470063, 64.336105942891962 ], [ 16.052674969780387, 64.265392087791369 ], [ 16.253370360848532, 64.240677491436955 ], [ 16.718954068163264, 64.027878079748248 ], [ 16.54898481883686, 63.719405138931357 ], [ 15.891454825948216, 63.625858513177164 ], [ 16.020243826774237, 63.439833572038459 ], [ 16.514874367170002, 63.201974200405843 ], [ 16.864105001189241, 62.954871081581189 ], [ 16.305232392357901, 62.702084278972698 ], [ 14.814701616362388, 62.553136745790326 ], [ 14.823798197554375, 62.422623517592683 ], [ 14.931647904473108, 62.336461362089985 ], [ 15.121607682436075, 62.267561378901931 ], [ 15.327339682924583, 62.272083533909168 ], [ 15.410514524080185, 62.128330555718669 ], [ 15.213941579477556, 62.039733365469239 ], [ 15.109032299463848, 61.986257969936624 ], [ 15.071358639488162, 61.840039807890577 ], [ 14.636296466336956, 61.866258771362659 ], [ 14.447561668337563, 61.594948021799389 ], [ 13.571179385354215, 61.657023378535641 ], [ 13.257419351547995, 61.913637617554748 ], [ 13.288216484463042, 62.039733365838984 ], [ 13.217829672245781, 62.039733365960764 ], [ 13.114801041410804, 62.03973336536361 ], [ 12.794882465743164, 62.210746132863498 ], [ 12.299370194289882, 62.267493986114701 ], [ 12.254659304790636, 62.331024477695557 ], [ 12.07317222686371, 62.613401585825322 ], [ 12.124060264208129, 62.748747202937601 ], [ 12.091942253134162, 62.898342358299232 ], [ 12.192861209717631, 63.017643760263425 ], [ 11.996040025440662, 63.2652462326989 ], [ 12.188845282718159, 63.466316254509913 ], [ 12.174658920574968, 63.598279895452542 ], [ 12.667978560495451, 63.960408002495846 ], [ 12.925361091403346, 64.054539081911841 ], [ 13.221591932174146, 64.092155698968 ], [ 13.986239349537984, 64.032707733068349 ], [ 14.143977138921672, 64.20160941752701 ], [ 14.136074074646313, 64.265392087871732 ], [ 14.11682811998441, 64.420718950803618 ], [ 13.686254923726164, 64.576504317197745 ], [ 13.796693177963201, 64.7135235201401 ], [ 14.325984923806821, 65.118915970255543 ] ] ] } },
{ "type": "Feature", "properties": { "NUTS_ID": "SE331", "name": "Västerbottens län" }, "geometry": { "type": "MultiPolygon", "coordinates": [ [ [ [ 19.213311872396172, 65.266352409130945 ], [ 19.384430157111236, 65.154231980981763 ], [ 19.601838728640566, 65.201288057284785 ], [ 19.921994592444051, 65.373017876412234 ], [ 21.244607431178281, 65.164195055148085 ], [ 21.5167088180024, 65.073636008114377 ], [ 21.111003306888019, 64.79795134954152 ], [ 21.241459835155915, 64.713523519462896 ], [ 21.261513854410516, 64.619888499864572 ], [ 21.395620127604243, 64.579207856051056 ], [ 21.542890225633901, 64.424695240951777 ], [ 21.231293808958505, 64.265392087970937 ], [ 20.990127016078066, 64.134620991457055 ], [ 20.734508085982913, 63.867701672896992 ], [ 20.389109654324287, 63.677936520644352 ], [ 20.02313120478572, 63.645671422660456 ], [ 19.689202078744742, 63.465528666680505 ], [ 19.484862150098426, 63.551002978734395 ], [ 19.483696171880617, 63.443539653388314 ], [ 19.286483882044791, 63.469737507105656 ], [ 18.983003993986873, 63.740740482736463 ], [ 18.502879643848196, 63.847320026146321 ], [ 18.410646258009219, 63.98620310814443 ], [ 17.692152345905242, 63.882991123320174 ], [ 16.916602313984392, 63.947396368008292 ], [ 16.718954068163264, 64.027878079748248 ], [ 16.253370360848532, 64.240677491436955 ], [ 16.052674969780387, 64.265392087791369 ], [ 15.991809627470063, 64.336105942891962 ], [ 15.75827239534798, 64.409087747892585 ], [ 15.688628074472534, 64.520446372031074 ], [ 15.587925404893365, 64.457241452382036 ], [ 15.238758640891735, 64.713523519501393 ], [ 15.067939848325461, 64.75792567811385 ], [ 14.973587505866394, 64.840893707432897 ], [ 14.824449834047849, 64.887967680265589 ], [ 14.688419552404278, 64.988387978126298 ], [ 14.325984923806821, 65.118915970255543 ], [ 14.496796069072559, 65.32595480595343 ], [ 14.516209666601283, 65.593844307868665 ], [ 14.609683066247026, 65.806526106539039 ], [ 14.538795822966136, 66.064439179793581 ], [ 14.558430991422183, 66.131414162047889 ], [ 15.033002803955942, 66.156855201714365 ], [ 15.413124449124082, 66.262332777159159 ], [ 15.453994737947466, 66.345233502675413 ], [ 15.526349148431354, 66.333511487070425 ], [ 15.769008692934687, 66.29115297968626 ], [ 15.804854519982518, 66.279602404057613 ], [ 15.852269466164195, 66.264287537944568 ], [ 16.108239042168666, 66.180909533972496 ], [ 16.229525594255783, 66.14140237532564 ], [ 16.352713785362088, 66.104854336100857 ], [ 16.810765222588948, 66.016356843603475 ], [ 17.685449908305028, 65.657131152815836 ], [ 18.72578381262322, 65.427560517242043 ], [ 19.213311872396172, 65.266352409130945 ] ] ], [ [ [ 20.930418477887002, 63.715292522944551 ], [ 20.870939511328967, 63.685889993458439 ], [ 20.814154396768142, 63.782995084072532 ], [ 20.913655788423004, 63.80704922508626 ], [ 20.930418477887002, 63.715292522944551 ] ] ] ] } },
{ "type": "Feature", "properties": { "NUTS_ID": "SE332", "name": "Norrbottens län" }, "geometry": { "type": "MultiPolygon", "coordinates": [ [ [ [ 24.144676147564731, 65.732706036908951 ], [ 24.098021482625882, 65.627225881789286 ], [ 24.008687176526141, 65.654354966304112 ], [ 24.078939268562781, 65.734913256123107 ], [ 24.144676147564731, 65.732706036908951 ] ] ], [ [ [ 22.163129554388441, 68.473301338349515 ], [ 23.049907458974477, 68.30041278309308 ], [ 23.180750202532735, 68.147889339295205 ], [ 23.617683719689861, 67.96632187497903 ], [ 23.489258517008334, 67.838511969072442 ], [ 23.539711789053673, 67.60872410775427 ], [ 23.423764957343082, 67.487200351023603 ], [ 23.731659535959814, 67.428912763561257 ], [ 23.739526410748443, 67.336203049663041 ], [ 23.560577261153142, 67.238147336138852 ], [ 23.582337686882052, 67.154583528971173 ], [ 23.970860287339796, 66.832892979146294 ], [ 23.84058221864548, 66.559982986290819 ], [ 23.678511981607564, 66.46018556742267 ], [ 23.66507874527467, 66.288472045026865 ], [ 23.736720708435648, 66.20204120768345 ], [ 23.910885322401676, 66.145490020659352 ], [ 24.0501583442392, 65.986337483524053 ], [ 24.155129181097941, 65.816027029809277 ], [ 23.750675221308143, 65.720524799518813 ], [ 23.635587999118091, 65.802396791866599 ], [ 23.387217413822366, 65.784740346581884 ], [ 22.935744605111452, 65.679949116962277 ], [ 22.852083121047066, 65.773145009694204 ], [ 22.407875185624373, 65.816068442690536 ], [ 22.346592606229482, 65.743939402159057 ], [ 22.32884822157208, 65.561515179248403 ], [ 22.194062827231662, 65.440569660664679 ], [ 21.972304580178783, 65.499458210016172 ], [ 21.888143347066933, 65.34092315381281 ], [ 21.778466714166925, 65.395798165873359 ], [ 21.634396061867687, 65.380928946189442 ], [ 21.5167088180024, 65.073636008114377 ], [ 21.244607431178281, 65.164195055148085 ], [ 19.921994592444051, 65.373017876412234 ], [ 19.601838728640566, 65.201288057284785 ], [ 19.384430157111236, 65.154231980981763 ], [ 19.213311872396172, 65.266352409130945 ], [ 18.72578381262322, 65.427560517242043 ], [ 17.685449908305028, 65.657131152815836 ], [ 16.810765222588948, 66.016356843603475 ], [ 16.352713785362088, 66.104854336100857 ], [ 16.229525594255783, 66.14140237532564 ], [ 16.108239042168666, 66.180909533972496 ], [ 15.852269466164195, 66.264287537944568 ], [ 15.804854519982518, 66.279602404057613 ], [ 15.769008692934687, 66.29115297968626 ], [ 15.526349148431354, 66.333511487070425 ], [ 15.453994737947466, 66.345233502675413 ], [ 15.455369092224924, 66.521939220615209 ], [ 16.373855485179252, 67.065738365581439 ], [ 16.383272413703882, 67.196432409287098 ], [ 16.128493286011082, 67.419871380284278 ], [ 16.149895481966368, 67.493278034869448 ], [ 16.510299233864451, 67.622942142975262 ], [ 16.779921144679438, 67.919265801904601 ], [ 17.238873373034707, 68.090961690066663 ], [ 17.926126715352293, 68.008619636156581 ], [ 18.124546980296778, 68.205327410004671 ], [ 18.125925245692624, 68.536515955763804 ], [ 18.410969091789998, 68.573390534162314 ], [ 19.943272758059827, 68.378695749091847 ], [ 20.114517103603159, 68.460508197606373 ], [ 20.041310264518028, 68.565476043793097 ], [ 20.218125576741205, 68.69263259660201 ], [ 20.296467910994771, 68.823220716027294 ], [ 20.195390051244804, 69.02233196040082 ], [ 20.548636558941542, 69.059968546070451 ], [ 20.793191413914276, 69.019794583630912 ], [ 20.904864794877149, 68.902831615162029 ], [ 21.370750119398384, 68.756772344678524 ], [ 21.429676698735726, 68.693355459526614 ], [ 21.627544140019364, 68.65883151227338 ], [ 21.730148664901137, 68.594176185769513 ], [ 21.899858158799717, 68.577330776964388 ], [ 22.053522731217431, 68.483869087472257 ], [ 22.163129554388441, 68.473301338349515 ] ] ], [ [ [ 22.723070358583058, 65.516232726943926 ], [ 22.510035767937815, 65.485652210094102 ], [ 22.578321001808416, 65.609295713460824 ], [ 22.666967652461018, 65.584565396608824 ], [ 22.723070358583058, 65.516232726943926 ] ] ], [ [ [ 22.463220646793843, 65.330099559345598 ], [ 22.390202271653191, 65.260813264927336 ], [ 22.291911396255561, 65.299219082236561 ], [ 22.379881250903566, 65.35316489797232 ], [ 22.463220646793843, 65.330099559345598 ] ] ] ] } }
]
}
