{
"type": "FeatureCollection",
"name": "SI",
"crs": { "type": "name", "properties": { "name": "urn:ogc:def:crs:OGC:1.3:CRS84" } },
"features": [
{ "type": "Feature", "properties": { "NUTS_ID": "SI031", "name": "Pomurska" }, "geometry": { "type": "Polygon", "coordinates": [ [ [ 16.113849224648447, 46.869068117143819 ], [ 16.134600967539935, 46.856080984821808 ], [ 16.175273883483072, 46.85709584173474 ], [ 16.297566577861904, 46.866372461711386 ], [ 16.346938412431925, 46.834465624799968 ], [ 16.336415220218953, 46.805338521050089 ], [ 16.313080190738379, 46.797578209867503 ], [ 16.31216147079326, 46.778002425408737 ], [ 16.370793261080035, 46.722243534061995 ], [ 16.368553271586038, 46.704229407882025 ], [ 16.393412411127727, 46.661802876643662 ], [ 16.390379310087031, 46.638222252940494 ], [ 16.501053125766106, 46.565903206294294 ], [ 16.539576423583966, 46.49876000998222 ], [ 16.596804964532385, 46.47590243718723 ], [ 16.344073705581319, 46.541102005725669 ], [ 16.313045978354772, 46.524453953856352 ], [ 16.252237540161829, 46.500481741754953 ], [ 16.242148436167444, 46.490075568774294 ], [ 16.117809285266112, 46.490292541166902 ], [ 16.011611803471723, 46.510202132081403 ], [ 16.014320766493388, 46.512904105477872 ], [ 16.001997577896812, 46.523763925578997 ], [ 15.981100997459441, 46.546293041098906 ], [ 15.973913102857422, 46.585601451192161 ], [ 15.94439063944602, 46.588864565298344 ], [ 15.9231609324264, 46.596106913672344 ], [ 15.885683934017077, 46.645119863953781 ], [ 15.890965015392791, 46.664378028120261 ], [ 15.805973766827963, 46.697748948155535 ], [ 15.786422177476911, 46.707469347356842 ], [ 15.865511136100167, 46.719629989560119 ], [ 15.960003641783022, 46.687005839336841 ], [ 16.033452325428517, 46.65789415693979 ], [ 16.038086132591214, 46.656145545076271 ], [ 16.039503544433131, 46.690901832597277 ], [ 15.989034107335458, 46.774937062718934 ], [ 15.996236035495743, 46.835398663563559 ], [ 16.05839037847813, 46.838670009858312 ], [ 16.113849224648447, 46.869068117143819 ] ] ] } },
{ "type": "Feature", "properties": { "NUTS_ID": "SI032", "name": "Podravska" }, "geometry": { "type": "Polygon", "coordinates": [ [ [ 15.885683934017077, 46.645119863953781 ], [ 15.9231609324264, 46.596106913672344 ], [ 15.94439063944602, 46.588864565298344 ], [ 15.973913102857422, 46.585601451192161 ], [ 15.981100997459441, 46.546293041098906 ], [ 16.001997577896812, 46.523763925578997 ], [ 16.014320766493388, 46.512904105477872 ], [ 16.011611803471723, 46.510202132081403 ], [ 16.117809285266112, 46.490292541166902 ], [ 16.242148436167444, 46.490075568774294 ], [ 16.270729404361852, 46.432441486557018 ], [ 16.30154886347351, 46.378287902876245 ], [ 16.209010574632316, 46.384000078139351 ], [ 16.058116683776692, 46.39356600282953 ], [ 16.055900668625078, 46.390022383152612 ], [ 16.068875268473597, 46.350385229948458 ], [ 16.035099480577539, 46.336131510893608 ], [ 15.97188632488889, 46.307131484023387 ], [ 15.912867968592622, 46.289659483165408 ], [ 15.873473017674446, 46.279372294956858 ], [ 15.866545782094285, 46.275543444171149 ], [ 15.791475514417872, 46.259327495398814 ], [ 15.752946195660856, 46.266190462189357 ], [ 15.731954720535546, 46.267894330503481 ], [ 15.673609610632713, 46.274930902998619 ], [ 15.636714458860503, 46.281197531051873 ], [ 15.559304214910895, 46.273137149107697 ], [ 15.544726052708571, 46.278756413011585 ], [ 15.540035310268658, 46.333638701481973 ], [ 15.496289836193768, 46.359720500884499 ], [ 15.421298879521814, 46.370109485059288 ], [ 15.408310849561023, 46.393108089734689 ], [ 15.419257168349144, 46.424347955211751 ], [ 15.333807433913947, 46.475458402589204 ], [ 15.314141474201186, 46.479625850822188 ], [ 15.311155321590313, 46.490547335151334 ], [ 15.32586933019004, 46.511795628451239 ], [ 15.367909349828134, 46.569509977008686 ], [ 15.443302221289207, 46.582238111073195 ], [ 15.401979531977201, 46.653548404314343 ], [ 15.520070185457028, 46.621535327881389 ], [ 15.542442112084439, 46.629951080229034 ], [ 15.564412249582857, 46.67435823530414 ], [ 15.622963369633379, 46.679567654870944 ], [ 15.752443758843631, 46.697968857973805 ], [ 15.786422177476911, 46.707469347356842 ], [ 15.805973766827963, 46.697748948155535 ], [ 15.890965015392791, 46.664378028120261 ], [ 15.885683934017077, 46.645119863953781 ] ] ] } },
{ "type": "Feature", "properties": { "NUTS_ID": "SI033", "name": "Koroška" }, "geometry": { "type": "Polygon", "coordinates": [ [ [ 15.160204494336163, 46.657113612713125 ], [ 15.335605918967172, 46.653201983632094 ], [ 15.401979531977201, 46.653548404314343 ], [ 15.443302221289207, 46.582238111073195 ], [ 15.367909349828134, 46.569509977008686 ], [ 15.32586933019004, 46.511795628451239 ], [ 15.311155321590313, 46.490547335151334 ], [ 15.314141474201186, 46.479625850822188 ], [ 15.320632200444507, 46.449348962816288 ], [ 15.270732678607304, 46.439395628714962 ], [ 15.227701349072298, 46.390030994526271 ], [ 15.187700679045573, 46.386579474156875 ], [ 15.122723001467291, 46.418868965884229 ], [ 15.089062224401417, 46.423120617663635 ], [ 14.954275283348677, 46.45560937857929 ], [ 14.881632595468247, 46.419885618605889 ], [ 14.80034479642263, 46.422967414676982 ], [ 14.752904464383281, 46.419408832917199 ], [ 14.674706775115691, 46.45066036099972 ], [ 14.818605832413349, 46.509383022604496 ], [ 14.818562798274105, 46.521636280823117 ], [ 14.824444330588813, 46.529287225791514 ], [ 14.822750186421244, 46.534542552909969 ], [ 14.829332755574296, 46.539365944906358 ], [ 14.823507872517533, 46.544437656221014 ], [ 14.827682159730434, 46.547832067805487 ], [ 14.884301204818568, 46.611744573765108 ], [ 14.922071375390194, 46.607933454042978 ], [ 15.065120556616975, 46.652112654514568 ], [ 15.082399691981678, 46.64514489320171 ], [ 15.160204494336163, 46.657113612713125 ] ] ] } },
{ "type": "Feature", "properties": { "NUTS_ID": "SI034", "name": "Savinjska" }, "geometry": { "type": "Polygon", "coordinates": [ [ [ 15.408310849561023, 46.393108089734689 ], [ 15.421298879521814, 46.370109485059288 ], [ 15.496289836193768, 46.359720500884499 ], [ 15.540035310268658, 46.333638701481973 ], [ 15.544726052708571, 46.278756413011585 ], [ 15.559304214910895, 46.273137149107697 ], [ 15.636714458860503, 46.281197531051873 ], [ 15.673609610632713, 46.274930902998619 ], [ 15.731954720535546, 46.267894330503481 ], [ 15.752946195660856, 46.266190462189357 ], [ 15.791475514417872, 46.259327495398814 ], [ 15.771852860240219, 46.224317066948416 ], [ 15.674853215916231, 46.227124035153935 ], [ 15.635970793183498, 46.185789907338041 ], [ 15.627262053073553, 46.085953418674194 ], [ 15.59787823413957, 46.068806502655086 ], [ 15.651795556757721, 46.030630057531312 ], [ 15.546044574537566, 46.020074379461121 ], [ 15.479203484358976, 46.070269962507091 ], [ 15.408235520494175, 46.06596835109972 ], [ 15.358607640119072, 46.074185960272651 ], [ 15.182775199447937, 46.07836463549873 ], [ 15.154900438720933, 46.093410581357105 ], [ 15.11175878959121, 46.181767031577223 ], [ 15.106820822619799, 46.183684452566567 ], [ 15.107508552356228, 46.187511487996574 ], [ 15.0438189302513, 46.197559471485349 ], [ 15.00482513174741, 46.195725159918027 ], [ 14.968747564555914, 46.193993120030711 ], [ 14.908703356839855, 46.20761188916974 ], [ 14.885220175723784, 46.237491914667565 ], [ 14.854123526293547, 46.250385635887739 ], [ 14.72829163553428, 46.257527342857443 ], [ 14.704636059801832, 46.28483449763209 ], [ 14.637874382482421, 46.364228356391543 ], [ 14.565211815517106, 46.367697145167945 ], [ 14.565175356464151, 46.372453487596673 ], [ 14.674706775115691, 46.45066036099972 ], [ 14.752904464383281, 46.419408832917199 ], [ 14.80034479642263, 46.422967414676982 ], [ 14.881632595468247, 46.419885618605889 ], [ 14.954275283348677, 46.45560937857929 ], [ 15.089062224401417, 46.423120617663635 ], [ 15.122723001467291, 46.418868965884229 ], [ 15.187700679045573, 46.386579474156875 ], [ 15.227701349072298, 46.390030994526271 ], [ 15.270732678607304, 46.439395628714962 ], [ 15.320632200444507, 46.449348962816288 ], [ 15.314141474201186, 46.479625850822188 ], [ 15.333807433913947, 46.475458402589204 ], [ 15.419257168349144, 46.424347955211751 ], [ 15.408310849561023, 46.393108089734689 ] ] ] } },
{ "type": "Feature", "properties": { "NUTS_ID": "SI035", "name": "Zasavska" }, "geometry": { "type": "Polygon", "coordinates": [ [ [ 14.908703356839855, 46.20761188916974 ], [ 14.968747564555914, 46.193993120030711 ], [ 15.00482513174741, 46.195725159918027 ], [ 15.0438189302513, 46.197559471485349 ], [ 15.107508552356228, 46.187511487996574 ], [ 15.106820822619799, 46.183684452566567 ], [ 15.11175878959121, 46.181767031577223 ], [ 15.154900438720933, 46.093410581357105 ], [ 15.102051668367112, 46.093689396418625 ], [ 15.08283969897303, 46.077159327649859 ], [ 15.067647561696628, 46.065550577861529 ], [ 15.088496858403488, 46.040751059104743 ], [ 15.09940763142591, 46.01895901293792 ], [ 15.031465477711427, 45.978864876993178 ], [ 14.998312431053252, 45.963032501509886 ], [ 14.948613878462305, 45.978497902128979 ], [ 14.910765858578358, 46.035937210589346 ], [ 14.746009891393101, 46.06803589641892 ], [ 14.711757579073174, 46.077929842117534 ], [ 14.751734211992657, 46.097844817475448 ], [ 14.835089916845357, 46.135058956159178 ], [ 14.826703256997025, 46.15885896504912 ], [ 14.898418871143409, 46.205517259087493 ], [ 14.908703356839855, 46.20761188916974 ] ] ] } },
{ "type": "Feature", "properties": { "NUTS_ID": "SI036", "name": "Posavska" }, "geometry": { "type": "Polygon", "coordinates": [ [ [ 15.358607640119072, 46.074185960272651 ], [ 15.408235520494175, 46.06596835109972 ], [ 15.479203484358976, 46.070269962507091 ], [ 15.546044574537566, 46.020074379461121 ], [ 15.651795556757721, 46.030630057531312 ], [ 15.59787823413957, 46.068806502655086 ], [ 15.627262053073553, 46.085953418674194 ], [ 15.719908721354866, 46.054871456506696 ], [ 15.706406154041174, 45.975294373322036 ], [ 15.662412526555379, 45.846447754266592 ], [ 15.537639245024344, 45.842205954914206 ], [ 15.478899825359472, 45.827496029634119 ], [ 15.404489318447142, 45.792765497876047 ], [ 15.379111660087036, 45.884390889886021 ], [ 15.348816113201892, 45.887042116826514 ], [ 15.351226412187712, 45.937603950988631 ], [ 15.296437630273898, 45.957385971382237 ], [ 15.225250096187706, 45.928558356633765 ], [ 15.148260381127104, 45.978134164328331 ], [ 15.09940763142591, 46.01895901293792 ], [ 15.088496858403488, 46.040751059104743 ], [ 15.067647561696628, 46.065550577861529 ], [ 15.08283969897303, 46.077159327649859 ], [ 15.102051668367112, 46.093689396418625 ], [ 15.154900438720933, 46.093410581357105 ], [ 15.182775199447937, 46.07836463549873 ], [ 15.358607640119072, 46.074185960272651 ] ] ] } },
{ "type": "Feature", "properties": { "NUTS_ID": "SI037", "name": "Jugovzhodna Slovenija" }, "geometry": { "type": "Polygon", "coordinates": [ [ [ 15.148260381127104, 45.978134164328331 ], [ 15.225250096187706, 45.928558356633765 ], [ 15.296437630273898, 45.957385971382237 ], [ 15.351226412187712, 45.937603950988631 ], [ 15.348816113201892, 45.887042116826514 ], [ 15.379111660087036, 45.884390889886021 ], [ 15.404489318447142, 45.792765497876047 ], [ 15.331290255438596, 45.762855154951183 ], [ 15.316895887265431, 45.759725867347605 ], [ 15.259645549481737, 45.726086015696978 ], [ 15.330212923219612, 45.668654040103938 ], [ 15.308546419997503, 45.631652716349379 ], [ 15.297424709170842, 45.585687329359921 ], [ 15.357790718329376, 45.48031934048916 ], [ 15.226437266274834, 45.427088048602336 ], [ 15.057328790342726, 45.492308922077065 ], [ 14.96249307419345, 45.511159546946082 ], [ 14.844816541009743, 45.469216683917679 ], [ 14.787230495184907, 45.500909420528615 ], [ 14.689006077593241, 45.581200593617069 ], [ 14.599410695307144, 45.631652716510573 ], [ 14.569820646375678, 45.672429028495763 ], [ 14.537503869194545, 45.739323882185772 ], [ 14.578665537542825, 45.737664380679689 ], [ 14.564807268608295, 45.791462168191586 ], [ 14.585379712784361, 45.793939881721208 ], [ 14.688183998550077, 45.819038141665651 ], [ 14.819218146120871, 45.729504114702628 ], [ 14.826475012421344, 45.756215881905938 ], [ 14.804826274590511, 45.798399486665275 ], [ 14.876092905456783, 45.87012298971235 ], [ 14.924865744280069, 45.963151928925022 ], [ 14.948613878462305, 45.978497902128979 ], [ 14.998312431053252, 45.963032501509886 ], [ 15.031465477711427, 45.978864876993178 ], [ 15.09940763142591, 46.01895901293792 ], [ 15.148260381127104, 45.978134164328331 ] ] ] } },
{ "type": "Feature", "properties": { "NUTS_ID": "SI038", "name": "Primorsko-notranjska" }, "geometry": { "type": "Polygon", "coordinates": [ [ [ 14.372507283567174, 45.877533756961746 ], [ 14.418963719607904, 45.871565106645377 ], [ 14.490759506502682, 45.882269226256092 ], [ 14.50565506283718, 45.842267885776124 ], [ 14.564807268608295, 45.791462168191586 ], [ 14.578665537542825, 45.737664380679689 ], [ 14.537503869194545, 45.739323882185772 ], [ 14.569820646375678, 45.672429028495763 ], [ 14.502525670534096, 45.579686990682426 ], [ 14.356950188379294, 45.484497934704663 ], [ 14.118196295984204, 45.481239102693145 ], [ 14.097067475883161, 45.615982630817854 ], [ 14.085546632014463, 45.631652716447455 ], [ 14.099329939448998, 45.716268104174475 ], [ 14.042371275415848, 45.7613589996446 ], [ 14.049503282534589, 45.837337525254632 ], [ 14.129577540448762, 45.869499115781181 ], [ 14.278621004655065, 45.846998114419257 ], [ 14.30049224450023, 45.886945644911037 ], [ 14.372507283567174, 45.877533756961746 ] ] ] } },
{ "type": "Feature", "properties": { "NUTS_ID": "SI041", "name": "Osrednjeslovenska" }, "geometry": { "type": "Polygon", "coordinates": [ [ [ 14.898418871143409, 46.205517259087493 ], [ 14.826703256997025, 46.15885896504912 ], [ 14.835089916845357, 46.135058956159178 ], [ 14.751734211992657, 46.097844817475448 ], [ 14.711757579073174, 46.077929842117534 ], [ 14.746009891393101, 46.06803589641892 ], [ 14.910765858578358, 46.035937210589346 ], [ 14.948613878462305, 45.978497902128979 ], [ 14.924865744280069, 45.963151928925022 ], [ 14.876092905456783, 45.87012298971235 ], [ 14.804826274590511, 45.798399486665275 ], [ 14.826475012421344, 45.756215881905938 ], [ 14.819218146120871, 45.729504114702628 ], [ 14.688183998550077, 45.819038141665651 ], [ 14.585379712784361, 45.793939881721208 ], [ 14.564807268608295, 45.791462168191586 ], [ 14.50565506283718, 45.842267885776124 ], [ 14.490759506502682, 45.882269226256092 ], [ 14.418963719607904, 45.871565106645377 ], [ 14.372507283567174, 45.877533756961746 ], [ 14.30049224450023, 45.886945644911037 ], [ 14.278621004655065, 45.846998114419257 ], [ 14.129577540448762, 45.869499115781181 ], [ 14.123501101161521, 45.878637734444013 ], [ 14.140111734667975, 46.004658408794612 ], [ 14.18601978465979, 46.037001535963753 ], [ 14.189962365812868, 46.037740366569636 ], [ 14.225433612381854, 46.096560582343798 ], [ 14.326428425429391, 46.096312606669052 ], [ 14.395369162635804, 46.157812477188223 ], [ 14.405380942492238, 46.190031002645057 ], [ 14.458350578423117, 46.191708542115983 ], [ 14.464711447537127, 46.204714536044129 ], [ 14.500559274639558, 46.200471913107471 ], [ 14.554006874161672, 46.24248410468067 ], [ 14.542763973806832, 46.309339845969063 ], [ 14.535457661654135, 46.357396631863729 ], [ 14.565211815517106, 46.367697145167945 ], [ 14.637874382482421, 46.364228356391543 ], [ 14.704636059801832, 46.28483449763209 ], [ 14.72829163553428, 46.257527342857443 ], [ 14.854123526293547, 46.250385635887739 ], [ 14.885220175723784, 46.237491914667565 ], [ 14.908703356839855, 46.20761188916974 ], [ 14.898418871143409, 46.205517259087493 ] ] ] } },
{ "type": "Feature", "properties": { "NUTS_ID": "SI042", "name": "Gorenjska" }, "geometry": { "type": "Polygon", "coordinates": [ [ [ 14.153396347344694, 46.436779160751534 ], [ 14.237185443423289, 46.432235987847385 ], [ 14.434500307154595, 46.442943627270715 ], [ 14.441961445736901, 46.423780939874014 ], [ 14.522309898318904, 46.415277633365022 ], [ 14.565175356464151, 46.372453487596673 ], [ 14.565211815517106, 46.367697145167945 ], [ 14.535457661654135, 46.357396631863729 ], [ 14.542763973806832, 46.309339845969063 ], [ 14.554006874161672, 46.24248410468067 ], [ 14.500559274639558, 46.200471913107471 ], [ 14.464711447537127, 46.204714536044129 ], [ 14.458350578423117, 46.191708542115983 ], [ 14.405380942492238, 46.190031002645057 ], [ 14.395369162635804, 46.157812477188223 ], [ 14.326428425429391, 46.096312606669052 ], [ 14.225433612381854, 46.096560582343798 ], [ 14.189962365812868, 46.037740366569636 ], [ 14.18601978465979, 46.037001535963753 ], [ 14.140111734667975, 46.004658408794612 ], [ 14.106806696406313, 46.017238001542395 ], [ 14.054648515726166, 46.061698978356027 ], [ 14.03051995048536, 46.071830651555977 ], [ 14.073447446985064, 46.156507539351701 ], [ 13.988220963252513, 46.192954906424333 ], [ 13.993444109191266, 46.236926412793494 ], [ 13.852651038850855, 46.231635003428977 ], [ 13.735041705412018, 46.281612427222456 ], [ 13.724821660350971, 46.296795058100841 ], [ 13.836441565048945, 46.37835233552012 ], [ 13.684031873864656, 46.437472358623261 ], [ 13.714185081104839, 46.522703436818034 ], [ 14.006514959554574, 46.48135987206534 ], [ 14.09979752848003, 46.479318094489834 ], [ 14.153396347344694, 46.436779160751534 ] ] ] } },
{ "type": "Feature", "properties": { "NUTS_ID": "SI043", "name": "Goriška" }, "geometry": { "type": "Polygon", "coordinates": [ [ [ 13.735041705412018, 46.281612427222456 ], [ 13.852651038850855, 46.231635003428977 ], [ 13.993444109191266, 46.236926412793494 ], [ 13.988220963252513, 46.192954906424333 ], [ 14.073447446985064, 46.156507539351701 ], [ 14.03051995048536, 46.071830651555977 ], [ 14.054648515726166, 46.061698978356027 ], [ 14.106806696406313, 46.017238001542395 ], [ 14.140111734667975, 46.004658408794612 ], [ 14.123501101161521, 45.878637734444013 ], [ 14.129577540448762, 45.869499115781181 ], [ 14.049503282534589, 45.837337525254632 ], [ 14.042371275415848, 45.7613589996446 ], [ 13.995897858917699, 45.766114081255786 ], [ 13.907899979531834, 45.811421428770394 ], [ 13.892101186096333, 45.828821623583615 ], [ 13.840359174369835, 45.835321415749085 ], [ 13.715857206527843, 45.863513882740591 ], [ 13.672697822524551, 45.821552864483699 ], [ 13.597137158436148, 45.819470726041416 ], [ 13.611410262465792, 45.90376807084612 ], [ 13.63717239080904, 45.938025609790756 ], [ 13.620869161530226, 45.984596023041995 ], [ 13.518262723293041, 45.978419272764235 ], [ 13.496939052950424, 46.051335023391523 ], [ 13.530244727345965, 46.067383546656671 ], [ 13.664051766610068, 46.170440605462993 ], [ 13.633614378458894, 46.191790826778465 ], [ 13.459856148679817, 46.224708681805673 ], [ 13.402879967444214, 46.300137003372249 ], [ 13.684031873864656, 46.437472358623261 ], [ 13.836441565048945, 46.37835233552012 ], [ 13.724821660350971, 46.296795058100841 ], [ 13.735041705412018, 46.281612427222456 ] ] ] } },
{ "type": "Feature", "properties": { "NUTS_ID": "SI044", "name": "Obalno-kraška" }, "geometry": { "type": "Polygon", "coordinates": [ [ [ 14.097067475883161, 45.615982630817854 ], [ 14.118196295984204, 45.481239102693145 ], [ 14.111284542155488, 45.482335502334983 ], [ 14.001949577331645, 45.520062662891277 ], [ 13.921488758087223, 45.437637960503999 ], [ 13.704090062396277, 45.455750806031858 ], [ 13.585649206347798, 45.478531945103938 ], [ 13.615719434508385, 45.539769617466149 ], [ 13.693405069916487, 45.547912547671551 ], [ 13.738997704630012, 45.572382395829706 ], [ 13.722850279470878, 45.594682308133336 ], [ 13.723158648707658, 45.594806766403458 ], [ 13.735415187929338, 45.596160972970054 ], [ 13.829461544330744, 45.585080101504971 ], [ 13.869098217095974, 45.609214972112362 ], [ 13.89868555510818, 45.643424790155116 ], [ 13.708288688774543, 45.775019414055116 ], [ 13.596242760471197, 45.807937324772205 ], [ 13.597137158436148, 45.819470726041416 ], [ 13.672697822524551, 45.821552864483699 ], [ 13.715857206527843, 45.863513882740591 ], [ 13.840359174369835, 45.835321415749085 ], [ 13.892101186096333, 45.828821623583615 ], [ 13.907899979531834, 45.811421428770394 ], [ 13.995897858917699, 45.766114081255786 ], [ 14.042371275415848, 45.7613589996446 ], [ 14.099329939448998, 45.716268104174475 ], [ 14.085546632014463, 45.631652716447455 ], [ 14.097067475883161, 45.615982630817854 ] ] ] } }
]
}
