{
"type": "FeatureCollection",
"name": "SK",
"crs": { "type": "name", "properties": { "name": "urn:ogc:def:crs:OGC:1.3:CRS84" } },
"features": [
{ "type": "Feature", "properties": { "NUTS_ID": "SK010", "name": "Bratislavský kraj" }, "geometry": { "type": "Polygon", "coordinates": [ [ [ 16.976202765622823, 48.172244470494327 ], [ 16.835549269686229, 48.380144093457247 ], [ 16.851042834021701, 48.438639879336186 ], [ 16.949777879653578, 48.535791855859486 ], [ 17.332627331491757, 48.632035072843351 ], [ 17.332361498293999, 48.479759157289983 ], [ 17.429067518418883, 48.380144093280478 ], [ 17.493106467703022, 48.181983262106073 ], [ 17.247427296701833, 48.012008995987046 ], [ 17.160797384405882, 48.00665656242419 ], [ 17.066740796888016, 48.118681623342638 ], [ 16.976202765622823, 48.172244470494327 ] ] ] } },
{ "type": "Feature", "properties": { "NUTS_ID": "SK021", "name": "Trnavský kraj" }, "geometry": { "type": "Polygon", "coordinates": [ [ [ 17.396725476005503, 48.813350116468172 ], [ 17.536767288431754, 48.641744421640389 ], [ 17.702457988437562, 48.670427864478633 ], [ 17.979112781372176, 48.612531014842439 ], [ 17.870347901663333, 48.543458278894242 ], [ 17.94210619266428, 48.455939956168457 ], [ 17.886981804885394, 48.380144093333442 ], [ 17.803458753771505, 48.12903568730303 ], [ 17.877297687982526, 47.934818847151774 ], [ 17.705436496202939, 47.758992498011835 ], [ 17.247427296701833, 48.012008995987046 ], [ 17.493106467703022, 48.181983262106073 ], [ 17.429067518418883, 48.380144093280478 ], [ 17.332361498293999, 48.479759157289983 ], [ 17.332627331491757, 48.632035072843351 ], [ 16.949777879653578, 48.535791855859486 ], [ 16.940278025624135, 48.617245444121018 ], [ 17.17233346495836, 48.854756710270436 ], [ 17.396725476005503, 48.813350116468172 ] ] ] } },
{ "type": "Feature", "properties": { "NUTS_ID": "SK022", "name": "Trenčiansky kraj" }, "geometry": { "type": "Polygon", "coordinates": [ [ [ 17.646930065533351, 48.854265880434816 ], [ 18.066950743450498, 49.0496400342982 ], [ 18.169787688507007, 49.263515321085741 ], [ 18.322436010753059, 49.315059008905031 ], [ 18.55595215994332, 49.137465347670371 ], [ 18.532282910863966, 48.955729999931975 ], [ 18.672993906501873, 48.94404165384006 ], [ 18.82635076243395, 48.744059102261055 ], [ 18.478676909486701, 48.548604076169966 ], [ 18.314844351081589, 48.505276275160583 ], [ 18.06573711336231, 48.698223581483106 ], [ 17.979112781372176, 48.612531014842439 ], [ 17.702457988437562, 48.670427864478633 ], [ 17.536767288431754, 48.641744421640389 ], [ 17.396725476005503, 48.813350116468172 ], [ 17.646930065533351, 48.854265880434816 ] ] ] } },
{ "type": "Feature", "properties": { "NUTS_ID": "SK023", "name": "Nitriansky kraj" }, "geometry": { "type": "Polygon", "coordinates": [ [ [ 17.705436496202939, 47.758992498011835 ], [ 17.877297687982526, 47.934818847151774 ], [ 17.803458753771505, 48.12903568730303 ], [ 17.886981804885394, 48.380144093333442 ], [ 17.94210619266428, 48.455939956168457 ], [ 17.870347901663333, 48.543458278894242 ], [ 17.979112781372176, 48.612531014842439 ], [ 18.06573711336231, 48.698223581483106 ], [ 18.314844351081589, 48.505276275160583 ], [ 18.478676909486701, 48.548604076169966 ], [ 18.600291219770114, 48.367604098633556 ], [ 18.764695310634867, 48.387136978543801 ], [ 18.848640181371618, 48.203026262150772 ], [ 19.023241071177765, 48.156355139158322 ], [ 19.014322597321353, 48.077736526989533 ], [ 18.92839250167021, 48.056743140308285 ], [ 18.781690558509471, 47.959771993214382 ], [ 18.78025765188594, 47.874650664989453 ], [ 18.849373507529343, 47.817225239212675 ], [ 17.893922756242731, 47.739456968348911 ], [ 17.705436496202939, 47.758992498011835 ] ] ] } },
{ "type": "Feature", "properties": { "NUTS_ID": "SK031", "name": "Žilinský kraj" }, "geometry": { "type": "Polygon", "coordinates": [ [ [ 18.851551020597427, 49.51718893547573 ], [ 18.952289051348004, 49.497038293956223 ], [ 19.016913692500939, 49.408947035937395 ], [ 19.140212898333012, 49.410555867055102 ], [ 19.4673863400889, 49.613766865889431 ], [ 19.655565067833148, 49.41322037345865 ], [ 19.78062612418185, 49.389212075775752 ], [ 19.78359159343908, 49.221402874330593 ], [ 19.883929510417865, 49.20417706544545 ], [ 20.019861936134326, 49.092844890547518 ], [ 19.992254608515218, 48.907499946311319 ], [ 19.453367438518324, 48.936531274652218 ], [ 19.064999810343917, 48.866732319212765 ], [ 18.977756160636741, 48.761822632766766 ], [ 18.82635076243395, 48.744059102261055 ], [ 18.672993906501873, 48.94404165384006 ], [ 18.532282910863966, 48.955729999931975 ], [ 18.55595215994332, 49.137465347670371 ], [ 18.322436010753059, 49.315059008905031 ], [ 18.403595554276631, 49.396745481822229 ], [ 18.57812054252771, 49.49797549015252 ], [ 18.851551020597427, 49.51718893547573 ] ] ] } },
{ "type": "Feature", "properties": { "NUTS_ID": "SK032", "name": "Banskobystrický kraj" }, "geometry": { "type": "Polygon", "coordinates": [ [ [ 19.992254608515218, 48.907499946311319 ], [ 20.267450689374456, 48.874073144615913 ], [ 20.198184483468776, 48.736943422512496 ], [ 20.332241518821323, 48.595250753782608 ], [ 20.335358344147071, 48.481969451473908 ], [ 20.463936983430447, 48.463966988069295 ], [ 20.405049541644029, 48.380144093748619 ], [ 20.324878706653351, 48.289022570744471 ], [ 20.051878785909643, 48.167704144531918 ], [ 19.907835561683214, 48.14588694642174 ], [ 19.618975185879155, 48.236084572363161 ], [ 19.456300225266837, 48.101941562902674 ], [ 19.014322597321353, 48.077736526989533 ], [ 19.023241071177765, 48.156355139158322 ], [ 18.848640181371618, 48.203026262150772 ], [ 18.764695310634867, 48.387136978543801 ], [ 18.600291219770114, 48.367604098633556 ], [ 18.478676909486701, 48.548604076169966 ], [ 18.82635076243395, 48.744059102261055 ], [ 18.977756160636741, 48.761822632766766 ], [ 19.064999810343917, 48.866732319212765 ], [ 19.453367438518324, 48.936531274652218 ], [ 19.992254608515218, 48.907499946311319 ] ] ] } },
{ "type": "Feature", "properties": { "NUTS_ID": "SK041", "name": "Prešovský kraj" }, "geometry": { "type": "Polygon", "coordinates": [ [ [ 22.566840213020271, 49.088377401384143 ], [ 22.430308629494682, 48.933928529572256 ], [ 22.382873138720587, 48.862390842408956 ], [ 22.213656174775753, 48.910675109265412 ], [ 22.068359998890895, 48.843095469289182 ], [ 21.833732127561372, 48.886170352187023 ], [ 21.774971846415013, 48.795871148267722 ], [ 21.676848414440368, 48.772735056304697 ], [ 21.449409895137745, 48.879801748848962 ], [ 21.293377532745275, 48.82538387081874 ], [ 20.847595528314166, 48.981441113714226 ], [ 20.469363258619385, 48.999474962469044 ], [ 20.267450689374456, 48.874073144615913 ], [ 19.992254608515218, 48.907499946311319 ], [ 20.019861936134326, 49.092844890547518 ], [ 19.883929510417865, 49.20417706544545 ], [ 20.078023858805182, 49.198234842450908 ], [ 20.192865924299294, 49.335768143559278 ], [ 20.614939251411741, 49.417833082530024 ], [ 20.940032065433329, 49.312750014059034 ], [ 21.094217461123321, 49.424682864656056 ], [ 21.397712480363833, 49.433794034909702 ], [ 21.871380868168711, 49.370304813534396 ], [ 22.092102644528733, 49.215049803466265 ], [ 22.566840213020271, 49.088377401384143 ] ] ] } },
{ "type": "Feature", "properties": { "NUTS_ID": "SK042", "name": "Košický kraj" }, "geometry": { "type": "Polygon", "coordinates": [ [ [ 20.463936983430447, 48.463966988069295 ], [ 20.335358344147071, 48.481969451473908 ], [ 20.332241518821323, 48.595250753782608 ], [ 20.198184483468776, 48.736943422512496 ], [ 20.267450689374456, 48.874073144615913 ], [ 20.469363258619385, 48.999474962469044 ], [ 20.847595528314166, 48.981441113714226 ], [ 21.293377532745275, 48.82538387081874 ], [ 21.449409895137745, 48.879801748848962 ], [ 21.676848414440368, 48.772735056304697 ], [ 21.774971846415013, 48.795871148267722 ], [ 21.833732127561372, 48.886170352187023 ], [ 22.068359998890895, 48.843095469289182 ], [ 22.213656174775753, 48.910675109265412 ], [ 22.382873138720587, 48.862390842408956 ], [ 22.324309937143592, 48.687952741306297 ], [ 22.170723568616364, 48.571265154344303 ], [ 22.155305928265857, 48.403396528291104 ], [ 22.130422882566023, 48.380144093294078 ], [ 21.765968220504966, 48.347171315199468 ], [ 21.602601214278195, 48.492776663793109 ], [ 21.417283972878394, 48.566357001150472 ], [ 21.115185589247343, 48.508192219315596 ], [ 20.689868851271662, 48.562236010258054 ], [ 20.463936983430447, 48.463966988069295 ] ] ] } }
]
}
