{
"type": "FeatureCollection",
"name": "XK",
"crs": { "type": "name", "properties": { "name": "urn:ogc:def:crs:OGC:1.3:CRS84" } },
"features": [
{ "type": "Feature", "properties": { "NUTS_ID": "XK001", "name": "Prishtinë" }, "geometry": { "type": "Polygon", "coordinates": [ [ [ 20.760683495552847, 42.605047933829162 ], [ 20.83007305403979, 42.691658888426907 ], [ 21.030018798271858, 42.733890785974005 ], [ 21.096690296637043, 42.805053065608064 ], [ 21.077701496146702, 42.859353074752129 ], [ 21.070089554101983, 42.979670458584692 ], [ 20.967010106428965, 43.124408934326745 ], [ 21.120312252581392, 43.103564884841838 ], [ 21.289193645780358, 42.904485094736984 ], [ 21.435115561823661, 42.872275448722391 ], [ 21.437570629464904, 42.782911778302335 ], [ 21.500397355843404, 42.734388808520173 ], [ 21.310993516897707, 42.559821526313947 ], [ 21.272812386770322, 42.453060520651547 ], [ 20.924020857441555, 42.475614641908741 ], [ 20.872830726738201, 42.486616873254953 ], [ 20.766964873433089, 42.605862837167905 ], [ 20.760683495552847, 42.605047933829162 ] ] ] } },
{ "type": "Feature", "properties": { "NUTS_ID": "XK002", "name": "Mitrovicë" }, "geometry": { "type": "Polygon", "coordinates": [ [ [ 20.819748716494423, 43.272466521427454 ], [ 20.923563868599874, 43.146082526931892 ], [ 20.967010106428965, 43.124408934326745 ], [ 21.070089554101983, 42.979670458584692 ], [ 21.077701496146702, 42.859353074752129 ], [ 21.096690296637043, 42.805053065608064 ], [ 21.030018798271858, 42.733890785974005 ], [ 20.83007305403979, 42.691658888426907 ], [ 20.760683495552847, 42.605047933829162 ], [ 20.643062098907759, 42.699701306951347 ], [ 20.625801970269926, 42.859353074872466 ], [ 20.581811187891685, 42.886538171357586 ], [ 20.538279665549773, 42.883174371622765 ], [ 20.513752172819625, 42.948238941851393 ], [ 20.674599052185961, 43.076401949130023 ], [ 20.62055254262636, 43.199489634579102 ], [ 20.819748716494423, 43.272466521427454 ] ] ] } },
{ "type": "Feature", "properties": { "NUTS_ID": "XK003", "name": "Pejë" }, "geometry": { "type": "Polygon", "coordinates": [ [ [ 20.352928393310513, 42.833381369122392 ], [ 20.404843230609451, 42.845236158618718 ], [ 20.442032664469348, 42.837075755841518 ], [ 20.475142788488007, 42.859353074786981 ], [ 20.538279665549773, 42.883174371622765 ], [ 20.581811187891685, 42.886538171357586 ], [ 20.625801970269926, 42.859353074872466 ], [ 20.643062098907759, 42.699701306951347 ], [ 20.760683495552847, 42.605047933829162 ], [ 20.766964873433089, 42.605862837167905 ], [ 20.347976361647952, 42.479950810365864 ], [ 20.087790039943236, 42.578398392157069 ], [ 20.046894817433436, 42.75690432223454 ], [ 20.207414273471421, 42.756800302419144 ], [ 20.352928393310513, 42.833381369122392 ] ] ] } },
{ "type": "Feature", "properties": { "NUTS_ID": "XK004", "name": "Prizren" }, "geometry": { "type": "Polygon", "coordinates": [ [ [ 20.872830726738201, 42.486616873254953 ], [ 20.924020857441555, 42.475614641908741 ], [ 20.975933460028973, 42.316443465579852 ], [ 20.890267032086854, 42.217713712056046 ], [ 20.98367300347125, 42.139854537466455 ], [ 20.927938966432968, 42.127326560148553 ], [ 20.787478364505823, 42.070297047159038 ], [ 20.775035327234704, 42.004578787957506 ], [ 20.767117203458582, 41.962758988395784 ], [ 20.772944172012391, 41.926757894658294 ], [ 20.727972573104399, 41.864277175923384 ], [ 20.594285897901997, 41.877327465695835 ], [ 20.57128214594702, 42.004578788390887 ], [ 20.543065801766684, 42.160664943500414 ], [ 20.480168292413854, 42.251328443930639 ], [ 20.691393314901067, 42.335644464962606 ], [ 20.872830726738201, 42.486616873254953 ] ] ] } },
{ "type": "Feature", "properties": { "NUTS_ID": "XK005", "name": "Ferizaj" }, "geometry": { "type": "Polygon", "coordinates": [ [ [ 21.272812386770322, 42.453060520651547 ], [ 21.276132030896154, 42.299417259789756 ], [ 21.377179691386949, 42.238032065094252 ], [ 21.321326160224825, 42.108013520910546 ], [ 21.248181562503024, 42.092498553535172 ], [ 21.212697331110597, 42.110700990520591 ], [ 21.139280458001828, 42.193091948156074 ], [ 21.049343404658767, 42.166252394406058 ], [ 20.98367300347125, 42.139854537466455 ], [ 20.890267032086854, 42.217713712056046 ], [ 20.975933460028973, 42.316443465579852 ], [ 20.924020857441555, 42.475614641908741 ], [ 21.272812386770322, 42.453060520651547 ] ] ] } },
{ "type": "Feature", "properties": { "NUTS_ID": "XK006", "name": "Gjilan" }, "geometry": { "type": "Polygon", "coordinates": [ [ [ 21.500397355843404, 42.734388808520173 ], [ 21.753408842863891, 42.700946489855966 ], [ 21.729237325285524, 42.553690718288131 ], [ 21.543733416715241, 42.349603528459724 ], [ 21.586946401889598, 42.26281763852085 ], [ 21.465231851976167, 42.272592816188897 ], [ 21.444318747690836, 42.23493032693267 ], [ 21.377179691386949, 42.238032065094252 ], [ 21.276132030896154, 42.299417259789756 ], [ 21.272812386770322, 42.453060520651547 ], [ 21.310993516897707, 42.559821526313947 ], [ 21.500397355843404, 42.734388808520173 ] ] ] } },
{ "type": "Feature", "properties": { "NUTS_ID": "XK007", "name": "Gjakovë" }, "geometry": { "type": "Polygon", "coordinates": [ [ [ 20.087790039943236, 42.578398392157069 ], [ 20.347976361647952, 42.479950810365864 ], [ 20.766964873433089, 42.605862837167905 ], [ 20.872830726738201, 42.486616873254953 ], [ 20.691393314901067, 42.335644464962606 ], [ 20.480168292413854, 42.251328443930639 ], [ 20.364355086525624, 42.306595329418279 ], [ 20.256874571389851, 42.336456098925169 ], [ 20.076299916480593, 42.555823530729434 ], [ 20.087790039943236, 42.578398392157069 ] ] ] } }
]
}
